Year,m,d,Time,Time zone,Cloud amount (1/8),Pressure (msl) (hPa),Relative humidity (%),Precipitation intensity (mm/h),Snow depth (cm),Air temperature (degC),Dew-point temperature (degC),Horizontal visibility (m),Wind direction (deg),Gust speed (m/s),Wind speed (m/s)
2016,1,1,01:00,UTC,,1033.1,77,,,-3.1,,50000,79.2,8.1,6
2016,1,1,02:00,UTC,,1033.1,71,,,-3.8,,50000,84.9,8.8,6.1
2016,1,1,03:00,UTC,,1033.3,73,,,-4.6,,50000,76.7,9.1,6.2
2016,1,1,04:00,UTC,,1033.7,75,,,-5.2,,50000,76.1,8.1,5.2
2016,1,1,05:00,UTC,,1033.8,79,,,-5.7,,50000,73.1,7.4,5.6
2016,1,1,06:00,UTC,,1034.4,78,,,-5.5,,50000,76.7,7.9,5.7
2016,1,1,07:00,UTC,,1035.2,81,,,-6.1,,50000,75.6,5.9,3.9
2016,1,1,08:00,UTC,,1035.5,82,,,-6.2,,50000,76.1,5.8,4.1
2016,1,1,09:00,UTC,,1036.2,83,,,-6.4,,50000,76.7,5.5,3.9
2016,1,1,10:00,UTC,,1036.5,81,,,-6.5,,50000,72,6.3,4.9
2016,1,1,11:00,UTC,,1036.6,80,,,-6.7,,50000,75.1,7.7,5.7
2016,1,1,12:00,UTC,,1037,79,,,-6.6,,50000,73.6,8.4,5.9
2016,1,1,13:00,UTC,,1037.6,79,,,-6.5,,50000,76.7,7.2,5.2
2016,1,1,14:00,UTC,,1038.4,75,,,-6.8,,50000,73.6,9.4,6.8
2016,1,1,15:00,UTC,,1038.8,77,,,-7.7,,50000,71.5,7.4,5.3
2016,1,1,16:00,UTC,,1039.1,79,,,-8.4,,50000,77.7,5.3,3.8
2016,1,1,17:00,UTC,,1039.6,79,,,-8.2,,50000,75.6,5.7,4.2
2016,1,1,18:00,UTC,,1039.9,78,,,-8.3,,50000,78.7,6.8,5.1
2016,1,1,19:00,UTC,,1040.3,82,,,-9,,50000,75.1,6.4,4.8
2016,1,1,20:00,UTC,,1041,81,,,-9,,24223,79.2,7.2,4.8
2016,1,1,21:00,UTC,,1041.6,84,,,-9.9,,50000,76.7,5.9,4.8
2016,1,1,22:00,UTC,,1042.2,85,,,-10.4,,50000,74.1,5.8,4.5
2016,1,1,23:00,UTC,,1042.6,87,,,-11.1,,50000,74.6,5.3,4.2
2016,1,2,00:00,UTC,,1042.8,85,,,-11.6,,50000,83.3,5.3,3.8
2016,1,2,01:00,UTC,,1043.5,85,,,-12,,50000,78.2,5.6,4.1
2016,1,2,02:00,UTC,,1043.8,83,,,-11.9,,50000,82.3,5.4,3.8
2016,1,2,03:00,UTC,,1044.1,83,,,-12.1,,50000,82.8,5.2,3.9
2016,1,2,04:00,UTC,,1044.5,83,,,-12.2,,50000,85.9,6,3.9
2016,1,2,05:00,UTC,,1044.4,84,,,-12.7,,50000,76.7,4.9,3.6
2016,1,2,06:00,UTC,,1044.6,85,,,-12.8,,50000,80.3,4.2,3.1
2016,1,2,07:00,UTC,,1044.8,85,,,-13.1,,50000,82.8,3.6,2.3
2016,1,2,08:00,UTC,,1045.1,86,,,-13.9,,50000,79.7,3.6,2.8
2016,1,2,09:00,UTC,,1045.4,86,,,-14.2,,50000,78.7,3.1,2.6
2016,1,2,10:00,UTC,,1045.5,84,,,-13.4,,50000,77.7,4.3,3.5
2016,1,2,11:00,UTC,,1045.7,84,,,-12.9,,50000,77.2,3.4,2.6
2016,1,2,12:00,UTC,,1045.7,84,,,-13.4,,50000,77.2,3.1,2.4
2016,1,2,13:00,UTC,,1045.8,88,,,-15.3,,50000,73.1,2.3,1.9
2016,1,2,14:00,UTC,,1045.8,89,,,-15.3,,50000,72,2.1,1.7
2016,1,2,15:00,UTC,,1045.3,87,,,-16,,50000,69.4,1.6,1.3
2016,1,2,16:00,UTC,,1044.8,87,,,-15,,50000,67.9,3.9,3.4
2016,1,2,17:00,UTC,,1044,86,,,-14.1,,48928,68.4,3.8,3.1
2016,1,2,18:00,UTC,,1043.3,86,,,-14.3,,50000,80.8,3.1,2.1
2016,1,2,19:00,UTC,,1042.8,87,,,-14.3,,41156,84.9,2.6,1.3
2016,1,2,20:00,UTC,,1042.2,88,,,-13.7,,50000,83.3,2.5,1.9
2016,1,2,21:00,UTC,,1041.6,88,,,-13,,48768,71,3.3,2.4
2016,1,2,22:00,UTC,,1040.6,88,,,-12.5,,44830,73.1,1.6,1.1
2016,1,2,23:00,UTC,,1039.8,88,,,-11.8,,50000,79.7,3.1,2.1
2016,1,3,00:00,UTC,,1038.4,89,,,-11.3,,36527,101.9,2,1.4
2016,1,3,01:00,UTC,,1037.4,89,,,-10.6,,50000,67.4,2.5,1.6
2016,1,3,02:00,UTC,,1036.1,89,,,-10.3,,35223,68.9,1.5,0.7
2016,1,3,03:00,UTC,,1034.8,90,,,-10,,45115,67.9,2.6,2
2016,1,3,04:00,UTC,,1033.8,90,,,-10,,50000,38.6,1.2,0.7
2016,1,3,05:00,UTC,,1032.7,90,,,-9.7,,28353,7.2,1.6,1
2016,1,3,06:00,UTC,,1031.5,91,,,-9.1,,10422,1.5,2.1,1.2
2016,1,3,07:00,UTC,,1030.4,91,,,-8.1,,25255,180.6,2.1,1.3
2016,1,3,08:00,UTC,,1029,87,,,-7.5,,50000,6.7,4.4,2.8
2016,1,3,09:00,UTC,,1028,87,,,-7.3,,50000,3.1,4.1,2.6
2016,1,3,10:00,UTC,,1026.6,87,,,-7.2,,50000,13.9,5.9,3.1
2016,1,3,11:00,UTC,,1025.5,86,,,-6.9,,50000,15.9,5.5,2.8
2016,1,3,12:00,UTC,,1024.8,88,,,-7.4,,50000,27.8,4.8,2.9
2016,1,3,13:00,UTC,,1024.1,90,,,-7.9,,50000,21.6,3.6,2.1
2016,1,3,14:00,UTC,,1023.7,91,,,-8.1,,50000,20.1,2.4,1.5
2016,1,3,15:00,UTC,,1023.5,90,,,-8.9,,36215,21.6,3.2,1.6
2016,1,3,16:00,UTC,,1023.7,84,,,-8.7,,13770,42.2,4.8,3.1
2016,1,3,17:00,UTC,,1023.5,78,,,-8.7,,12851,45.8,9.9,6.6
2016,1,3,18:00,UTC,,1024.6,70,,,-11.8,,31380,54,12.1,8.5
2016,1,3,19:00,UTC,,1025.7,68,,,-13.6,,49956,56.6,12.2,9.3
2016,1,3,20:00,UTC,,1026.5,67,,,-14.9,,50000,47.8,8.2,5.8
2016,1,3,21:00,UTC,,1026.5,68,,,-15.8,,50000,39.6,6.8,4.3
2016,1,3,22:00,UTC,,1026.5,70,,,-16.3,,50000,44.8,7.2,5
2016,1,3,23:00,UTC,,1026.5,74,,,-16.9,,50000,43.7,6.2,4.2
2016,1,4,00:00,UTC,,1026.6,75,,,-17.3,,50000,46.3,6.9,4.4
2016,1,4,01:00,UTC,,1026.2,75,,,-17.6,,50000,45.8,5.9,3.8
2016,1,4,02:00,UTC,,1026.1,76,,,-17.9,,50000,43.7,5,2.8
2016,1,4,03:00,UTC,,1026,77,,,-18.1,,50000,37.6,4.3,2.2
2016,1,4,04:00,UTC,,1025.6,77,,,-18.3,,50000,44.2,4.8,2.4
2016,1,4,05:00,UTC,,1025.1,76,,,-18.2,,50000,38.6,4.7,2.2
2016,1,4,06:00,UTC,,1024.7,77,,,-18,,50000,39.6,4.1,2.6
2016,1,4,07:00,UTC,,1024.1,79,,,-17.9,,50000,32.4,4.3,2.2
2016,1,4,08:00,UTC,,1023.7,79,,,-17.5,,50000,30.4,4.5,2.5
2016,1,4,09:00,UTC,,1022.7,78,,,-17,,50000,30.9,4.9,2.3
2016,1,4,10:00,UTC,,1021.7,77,,,-16.4,,50000,26.8,3.1,1.7
2016,1,4,11:00,UTC,,1021,79,,,-16.1,,50000,25.7,3.7,1.8
2016,1,4,12:00,UTC,,1020.6,82,,,-15.9,,50000,18.5,3.3,2.2
2016,1,4,13:00,UTC,,1020.4,82,,,-15.2,,50000,26.8,4.2,2.8
2016,1,4,14:00,UTC,,1020.2,81,,,-14.9,,50000,27.3,4.1,2.4
2016,1,4,15:00,UTC,,1019.7,81,,,-15.3,,50000,25.2,3.5,2.3
2016,1,4,16:00,UTC,,1019.1,82,,,-15.3,,50000,31.9,4.5,2.3
2016,1,4,17:00,UTC,,1018.6,83,,,-13.1,,50000,34,5.4,3.4
2016,1,4,18:00,UTC,,1018.4,85,,,-13.1,,50000,22.1,4.1,2.7
2016,1,4,19:00,UTC,,1017.9,86,,,-13.3,,50000,17.5,3.4,2.4
2016,1,4,20:00,UTC,,1017.5,87,,,-14,,50000,6.7,3.8,2.6
2016,1,4,21:00,UTC,,1017,87,,,-13.8,,50000,7.7,4.5,3.1
2016,1,4,22:00,UTC,,1016.2,84,,,-12.9,,50000,13.4,5,3
2016,1,4,23:00,UTC,,1015.6,84,,,-13.6,,50000,4.6,5.1,3.5
2016,1,5,00:00,UTC,,1015.2,83,,,-13.2,,50000,4.6,5.7,3.8
2016,1,5,01:00,UTC,,1014.7,85,,,-12.4,,7490,9.8,6.1,3.6
2016,1,5,02:00,UTC,,1014.1,83,,,-12.7,,50000,11.8,7.6,4.4
2016,1,5,03:00,UTC,,1013.5,81,,,-12.9,,50000,13.4,5.5,3.6
2016,1,5,04:00,UTC,,1013,80,,,-12.8,,50000,14.4,5.5,3.4
2016,1,5,05:00,UTC,,1012.4,80,,,-13.2,,50000,13.9,6,3.3
2016,1,5,06:00,UTC,,1012.3,80,,,-13,,50000,18,5.8,3.6
2016,1,5,07:00,UTC,,1012.3,77,,,-12.7,,32734,28.8,4.9,3
2016,1,5,08:00,UTC,,1012.8,69,,,-13.3,,33221,48.4,9.2,6.6
2016,1,5,09:00,UTC,,1013.4,67,,,-15,,50000,61.2,6.9,5.2
2016,1,5,10:00,UTC,,1014,69,,,-15.6,,50000,49.9,5.6,3.9
2016,1,5,11:00,UTC,,1014,66,,,-16.1,,50000,50.4,5.9,4.6
2016,1,5,12:00,UTC,,1014,67,,,-16.1,,50000,45.3,6.3,4
2016,1,5,13:00,UTC,,1014.3,68,,,-16.5,,50000,38.6,6.2,2.9
2016,1,5,14:00,UTC,,1014.5,69,,,-17,,50000,42.7,5.5,3.5
2016,1,5,15:00,UTC,,1014.7,70,,,-17.6,,50000,39.6,4.5,2.4
2016,1,5,16:00,UTC,,1015.2,72,,,-18.2,,50000,38.1,3.2,2
2016,1,5,17:00,UTC,,1015.1,73,,,-18.7,,50000,38.6,4.3,2.6
2016,1,5,18:00,UTC,,1015.3,74,,,-19.1,,50000,42.2,3.6,2.2
2016,1,5,19:00,UTC,,1015.5,74,,,-19.6,,50000,44.2,4.7,2.7
2016,1,5,20:00,UTC,,1015.7,76,,,-20.2,,50000,38.1,3.7,2.3
2016,1,5,21:00,UTC,,1016.1,77,,,-20.7,,50000,43.7,3.7,2.6
2016,1,5,22:00,UTC,,1016,76,,,-21.4,,50000,41.2,3.8,2.6
2016,1,5,23:00,UTC,,1016,77,,,-22,,50000,43.7,3.8,2.4
2016,1,6,00:00,UTC,,1016,76,,,-22.5,,50000,40.6,5,2.8
2016,1,6,01:00,UTC,,1016.3,76,,,-22.9,,50000,41.2,4.9,2.3
2016,1,6,02:00,UTC,,1016.7,76,,,-23.3,,50000,40.6,3.1,2
2016,1,6,03:00,UTC,,1016.8,77,,,-23.5,,50000,37,2.9,1.7
2016,1,6,04:00,UTC,,1016.7,77,,,-24,,50000,36,3.6,2.2
2016,1,6,05:00,UTC,,1017,76,,,-24.2,,50000,39.1,2.8,1.9
2016,1,6,06:00,UTC,,1017.1,77,,,-24.3,,50000,27.8,3.7,2
2016,1,6,07:00,UTC,,1017.3,76,,,-24.6,,50000,30.9,3.6,2.2
2016,1,6,08:00,UTC,,1017.6,76,,,-25.2,,50000,27.3,3.2,1.6
2016,1,6,09:00,UTC,,1017.7,76,,,-25.3,,50000,29.3,3,1.4
2016,1,6,10:00,UTC,,1017.7,76,,,-25.3,,50000,29.3,3.2,1.7
2016,1,6,11:00,UTC,,1017.6,75,,,-25.4,,50000,33.4,3.3,2.1
2016,1,6,12:00,UTC,,1017.8,76,,,-25.5,,50000,22.1,2.1,0.9
2016,1,6,13:00,UTC,,1018.1,78,,,-25.5,,50000,18.5,3.3,1.6
2016,1,6,14:00,UTC,,1018,78,,,-25.9,,27897,19,2.7,1
2016,1,6,15:00,UTC,,1017.8,78,,,-25.6,,50000,14.4,2.7,1.2
2016,1,6,16:00,UTC,,1018.1,78,,,-25.7,,50000,10.3,3.4,1.9
2016,1,6,17:00,UTC,,1018,78,,,-25.6,,50000,16.5,2.6,1.4
2016,1,6,18:00,UTC,,1017.7,78,,,-26.2,,50000,17,2.4,0.9
2016,1,6,19:00,UTC,,1017.5,75,,,-27.7,,50000,24.7,1.1,0.5
2016,1,6,20:00,UTC,,1017.3,76,,,-28.8,,47690,134.3,0.6,0.3
2016,1,6,21:00,UTC,,1017.3,77,,,-28,,50000,150.2,1.9,1.6
2016,1,6,22:00,UTC,,1016.8,77,,,-27.9,,50000,180.6,2.2,1.4
2016,1,6,23:00,UTC,,1016.2,77,,,-26.3,,25046,182.6,2.1,1.2
2016,1,7,00:00,UTC,,1016.1,77,,,-26.6,,12115,17.5,2.6,1.1
2016,1,7,01:00,UTC,,1015.8,77,,,-26.6,,50000,183.7,2.2,1.4
2016,1,7,02:00,UTC,,1015.3,78,,,-26.6,,50000,6.2,2.9,1.9
2016,1,7,03:00,UTC,,1015,77,,,-26.9,,50000,3.6,2.9,1.9
2016,1,7,04:00,UTC,,1015,76,,,-28.5,,14312,37,1.3,0.5
2016,1,7,05:00,UTC,,1014.7,75,,,-29.5,,50000,170.3,1.8,1.2
2016,1,7,06:00,UTC,,1014.5,75,,,-29,,50000,160,2.2,1.8
2016,1,7,07:00,UTC,,1014.3,77,,,-27.7,,50000,1.5,2.8,1.7
2016,1,7,08:00,UTC,,1013.9,77,,,-27.7,,50000,176.5,2.3,1.5
2016,1,7,09:00,UTC,,1013.4,76,,,-26.8,,50000,177.5,2.2,1.4
2016,1,7,10:00,UTC,,1013.2,76,,,-26.3,,44607,175.9,3,1.8
2016,1,7,11:00,UTC,,1012.8,77,,,-26.3,,45986,177,2.5,1.7
2016,1,7,12:00,UTC,,1012.6,76,,,-26.9,,43392,170.8,1.6,1
2016,1,7,13:00,UTC,,1012.2,77,,,-26.2,,50000,173.4,2.1,1.2
2016,1,7,14:00,UTC,,1011.9,78,,,-26,,50000,180.6,2.4,1.5
2016,1,7,15:00,UTC,,1011.6,78,,,-26.4,,50000,182.6,2.5,1.4
2016,1,7,16:00,UTC,,1011.3,76,,,-26.3,,16886,175.9,2,1.3
2016,1,7,17:00,UTC,,1010.5,76,,,-27.4,,10521,148.7,1.1,0.9
2016,1,7,18:00,UTC,,1010.4,77,,,-27.3,,50000,168.2,2,1.2
2016,1,7,19:00,UTC,,1010,76,,,-27.8,,18261,161,1.5,1.2
2016,1,7,20:00,UTC,,1009.9,78,,,-26.1,,50000,146.1,2.1,1.9
2016,1,7,21:00,UTC,,1009.6,78,,,-25.4,,50000,164.1,2.9,2.2
2016,1,7,22:00,UTC,,1009.5,78,,,-24.3,,50000,169.8,3.3,2
2016,1,7,23:00,UTC,,1009.1,78,,,-24.3,,50000,163.1,2.2,1.4
2016,1,8,00:00,UTC,,1009,80,,,-22.8,,50000,158.4,2.6,2.1
2016,1,8,01:00,UTC,,1008.7,80,,,-22.8,,50000,150.7,2.1,1.8
2016,1,8,02:00,UTC,,1008.4,79,,,-24.3,,50000,138.9,2.2,1.9
2016,1,8,03:00,UTC,,1007.7,79,,,-24.2,,50000,145.1,2.5,2.2
2016,1,8,04:00,UTC,,1007.2,80,,,-22.6,,50000,143,2.9,2.4
2016,1,8,05:00,UTC,,1006.8,78,,,-23.6,,16585,135.3,2.6,2.2
2016,1,8,06:00,UTC,,1006.1,80,,,-22.2,,46006,128.1,2.4,2
2016,1,8,07:00,UTC,,1005.8,81,,,-22.1,,21914,111.6,1.9,1.3
2016,1,8,08:00,UTC,,1005.5,81,,,-20.5,,19716,108,1.6,0.9
2016,1,8,09:00,UTC,,1005.3,84,,,-15.9,,44444,138.9,8.9,6.2
2016,1,8,10:00,UTC,,1004.9,83,,,-15.2,,50000,145.1,8.6,6.6
2016,1,8,11:00,UTC,,1004.3,84,,,-14.6,,10597,132.2,5.8,4.2
2016,1,8,12:00,UTC,,1004,86,,,-13.1,,5078,133.8,7,4
2016,1,8,13:00,UTC,,1003.9,86,,,-12.1,,5365,143.5,7.5,4.9
2016,1,8,14:00,UTC,,1003.9,87,,,-12.3,,3402,152.8,3.5,2.6
2016,1,8,15:00,UTC,,1004,86,,,-14.5,,7874,12.9,2.3,1.6
2016,1,8,16:00,UTC,,1003.9,87,,,-15.9,,6204,46.3,0.9,0.5
2016,1,8,17:00,UTC,,1004.2,84,,,-17.7,,21538,41.2,1,0.6
2016,1,8,18:00,UTC,,1004.5,84,,,-18.7,,3223,59.7,0.9,0.4
2016,1,8,19:00,UTC,,1004.8,83,,,-19.1,,14286,44.8,0.6,0.4
2016,1,8,20:00,UTC,,1005.2,85,,,-17.9,,11650,92.1,1,0.7
2016,1,8,21:00,UTC,,1005.7,85,,,-16.6,,13125,79.2,0.9,0.6
2016,1,8,22:00,UTC,,1006,84,,,-17,,10503,63.8,1.1,0.8
2016,1,8,23:00,UTC,,1006.6,84,,,-16.8,,5571,8.2,0.8,0.5
2016,1,9,00:00,UTC,,1007.1,84,,,-17.5,,13836,58.1,0.6,0.5
2016,1,9,01:00,UTC,,1007.5,83,,,-19.3,,21462,56.6,0.9,0.6
2016,1,9,02:00,UTC,,1007.8,83,,,-19.7,,35163,84.4,1,0.7
2016,1,9,03:00,UTC,,1007.8,80,,,-21.4,,22220,67.4,0.8,0.4
2016,1,9,04:00,UTC,,1008.1,83,,,-20.3,,32382,81.3,1.5,1
2016,1,9,05:00,UTC,,1008.3,81,,,-21.2,,11983,42.7,1.4,0.7
2016,1,9,06:00,UTC,,1008.6,81,,,-21.5,,50000,74.6,1.9,1.2
2016,1,9,07:00,UTC,,1009,81,,,-21.4,,50000,68.9,1.6,1.2
2016,1,9,08:00,UTC,,1009.3,81,,,-21.2,,50000,72.5,2,1.5
2016,1,9,09:00,UTC,,1009.8,81,,,-21.2,,3021,74.6,2.3,1.9
2016,1,9,10:00,UTC,,1009.9,83,,,-18.6,,2761,77.2,3.1,2.1
2016,1,9,11:00,UTC,,1009.9,84,,,-17.2,,20671,79.2,2,1.5
2016,1,9,12:00,UTC,,1010,85,,,-15.9,,49134,88,2.1,1.6
2016,1,9,13:00,UTC,,1009.9,86,,,-14.8,,48206,90.5,2.7,1.7
2016,1,9,14:00,UTC,,1010.1,87,,,-13.7,,50000,93.1,2.2,1.5
2016,1,9,15:00,UTC,,1010.3,87,,,-13.3,,26762,78.2,3.7,2
2016,1,9,16:00,UTC,,1010.5,88,,,-12.8,,11969,90,3.2,2
2016,1,9,17:00,UTC,,1010.3,88,,,-12.2,,39426,102.9,3.4,2.6
2016,1,9,18:00,UTC,,1010.4,88,,,-12.1,,6358,101.3,4.6,3.3
2016,1,9,19:00,UTC,,1010.5,88,,,-12.5,,50000,86.4,3.3,2.5
2016,1,9,20:00,UTC,,1010.6,87,,,-12.5,,49356,88,3.8,2.7
2016,1,9,21:00,UTC,,1010.8,87,,,-12.6,,18574,86.4,3.9,2.8
2016,1,9,22:00,UTC,,1010.6,87,,,-12.7,,45608,86.9,3.7,2.6
2016,1,9,23:00,UTC,,1010.8,87,,,-12.7,,7981,86.9,6,2.9
2016,1,10,00:00,UTC,,1010.8,88,,,-12.6,,50000,88,3.4,2.4
2016,1,10,01:00,UTC,,1010.8,87,,,-12.1,,31352,86.9,4,2.4
2016,1,10,02:00,UTC,,1010.8,88,,,-11.1,,46216,96.2,4.3,3
2016,1,10,03:00,UTC,,1010.8,88,,,-10.8,,10203,98.3,5.1,3.9
2016,1,10,04:00,UTC,,1010.7,88,,,-11.2,,22548,99.3,6,4
2016,1,10,05:00,UTC,,1010.7,87,,,-11,,22535,100.8,5.7,4.2
2016,1,10,06:00,UTC,,1010.8,87,,,-10.9,,39410,97.2,4.3,3.3
2016,1,10,07:00,UTC,,1011,87,,,-10.7,,35545,96.2,5,3.7
2016,1,10,08:00,UTC,,1011.3,88,,,-10.7,,12091,98.8,4.6,3.3
2016,1,10,09:00,UTC,,1011.7,86,,,-11.6,,9442,95.2,5.1,3.4
2016,1,10,10:00,UTC,,1012,87,,,-12.3,,9171,84.4,2.9,2
2016,1,10,11:00,UTC,,1012.2,86,,,-11.2,,7864,99.8,4.2,3
2016,1,10,12:00,UTC,,1012.2,87,,,-11.4,,20462,93.1,4.1,2.7
2016,1,10,13:00,UTC,,1012.3,87,,,-11.6,,48459,87.5,3.6,2.6
2016,1,10,14:00,UTC,,1012.5,88,,,-12.7,,30962,89,2.6,1.9
2016,1,10,15:00,UTC,,1012.8,87,,,-12.8,,50000,89,4.1,2.8
2016,1,10,16:00,UTC,,1012.8,86,,,-12.9,,27249,80.8,2.7,1.9
2016,1,10,17:00,UTC,,1013,86,,,-13.3,,9273,76.7,3,2.1
2016,1,10,18:00,UTC,,1013.2,85,,,-14.5,,46604,75.1,3.8,2.8
2016,1,10,19:00,UTC,,1013.3,84,,,-16.9,,50000,71,3.4,2.6
2016,1,10,20:00,UTC,,1013.6,84,,,-17.2,,50000,69.4,3.1,2.7
2016,1,10,21:00,UTC,,1013.9,83,,,-18.6,,50000,64.8,4.2,3.7
2016,1,10,22:00,UTC,,1014,83,,,-19,,50000,67.4,3.4,3
2016,1,10,23:00,UTC,,1014.1,83,,,-19.8,,50000,65.3,4.3,3.8
2016,1,11,00:00,UTC,,1014.3,81,,,-20.2,,50000,60.2,4.3,4
2016,1,11,01:00,UTC,,1014.4,83,,,-17.7,,47987,61.2,4.7,4.1
2016,1,11,02:00,UTC,,1014.5,83,,,-17.3,,50000,60.7,4.5,3.8
2016,1,11,03:00,UTC,,1014.5,83,,,-17.1,,14162,62.8,4.7,4.2
2016,1,11,04:00,UTC,,1014.5,82,,,-17.6,,14238,60.7,4.9,4.1
2016,1,11,05:00,UTC,,1014.4,82,,,-18,,50000,63.3,5.2,4.4
2016,1,11,06:00,UTC,,1014.4,83,,,-19,,50000,68.9,4,3.4
2016,1,11,07:00,UTC,,1014.5,81,,,-18.2,,50000,67.9,5.9,4.2
2016,1,11,08:00,UTC,,1014.7,78,,,-18.6,,50000,64.3,5.8,4.9
2016,1,11,09:00,UTC,,1015.1,78,,,-18.8,,50000,66.9,5.1,4.1
2016,1,11,10:00,UTC,,1014.9,77,,,-18.5,,3535,58.6,5.6,4
2016,1,11,11:00,UTC,,1014.6,76,,,-17.9,,50000,54.5,4.4,3.6
2016,1,11,12:00,UTC,,1014.4,74,,,-17.5,,50000,50.9,4.4,2.9
2016,1,11,13:00,UTC,,1014.4,76,,,-17.4,,50000,40.1,4.3,2.4
2016,1,11,14:00,UTC,,1014,77,,,-16.8,,50000,42.7,5,2.8
2016,1,11,15:00,UTC,,1013.9,76,,,-15.6,,50000,47.8,5.9,3.9
2016,1,11,16:00,UTC,,1013.9,79,,,-15.1,,50000,46.8,5.3,3.1
2016,1,11,17:00,UTC,,1013.6,80,,,-14.3,,50000,40.1,5.7,3.8
2016,1,11,18:00,UTC,,1013,80,,,-13.6,,50000,45.8,6.7,4.6
2016,1,11,19:00,UTC,,1012.6,81,,,-13.9,,50000,43.7,7.6,4.7
2016,1,11,20:00,UTC,,1012.5,80,,,-13.6,,50000,45.8,8.1,5.5
2016,1,11,21:00,UTC,,1012.4,81,,,-13,,50000,42.2,5.7,4
2016,1,11,22:00,UTC,,1012.4,79,,,-12.9,,50000,40.6,7.8,4.8
2016,1,11,23:00,UTC,,1012.2,80,,,-13.1,,50000,42.2,7.6,4.8
2016,1,12,00:00,UTC,,1012.1,80,,,-12.9,,50000,45.3,9.3,5.6
2016,1,12,01:00,UTC,,1012.1,80,,,-12.6,,35413,42.7,8.5,5.4
2016,1,12,02:00,UTC,,1012.1,81,,,-12.3,,50000,45.8,8.3,5.2
2016,1,12,03:00,UTC,,1011.9,79,,,-12.1,,50000,47.3,8.6,5.8
2016,1,12,04:00,UTC,,1011.7,77,,,-12.1,,50000,46.8,10.4,6.2
2016,1,12,05:00,UTC,,1011.7,76,,,-12.3,,50000,46.8,7.9,5.2
2016,1,12,06:00,UTC,,1011.9,76,,,-12.3,,50000,46.3,9.4,4.9
2016,1,12,07:00,UTC,,1012,78,,,-12.9,,50000,43.7,8.1,5.1
2016,1,12,08:00,UTC,,1012.2,79,,,-13.2,,50000,42.2,7.2,4.7
2016,1,12,09:00,UTC,,1012.3,80,,,-13.2,,50000,40.1,6.8,4.4
2016,1,12,10:00,UTC,,1012.3,75,,,-13.9,,50000,39.1,6.9,4.3
2016,1,12,11:00,UTC,,1012.3,75,,,-14.5,,50000,38.6,5.7,3.6
2016,1,12,12:00,UTC,,1012.3,77,,,-15.1,,50000,35,5.1,3.5
2016,1,12,13:00,UTC,,1012.3,79,,,-15.1,,50000,35,6.7,4.3
2016,1,12,14:00,UTC,,1012.4,79,,,-15.8,,50000,33.4,6.7,4
2016,1,12,15:00,UTC,,1012.7,79,,,-16.9,,50000,35,7,4
2016,1,12,16:00,UTC,,1012.6,79,,,-17.3,,50000,35,6.6,3.4
2016,1,12,17:00,UTC,,1012.4,78,,,-17.3,,50000,35.5,6.9,4.1
2016,1,12,18:00,UTC,,1012.5,78,,,-17.4,,50000,36.5,6.9,4.1
2016,1,12,19:00,UTC,,1012.5,77,,,-17.5,,50000,35.5,8.3,4.4
2016,1,12,20:00,UTC,,1012.2,79,,,-17.7,,50000,26.8,5.6,3.4
2016,1,12,21:00,UTC,,1012.2,80,,,-17.5,,50000,25.2,6,3.5
2016,1,12,22:00,UTC,,1012.2,80,,,-17.1,,50000,25.7,6.3,3.4
2016,1,12,23:00,UTC,,1012,80,,,-16.6,,50000,20.1,5.8,3.7
2016,1,13,00:00,UTC,,1011.2,79,,,-16.7,,50000,18.5,7.2,3.7
2016,1,13,01:00,UTC,,1010.7,78,,,-16.1,,50000,18,6.8,4.3
2016,1,13,02:00,UTC,,1010.5,79,,,-15.7,,50000,17.5,6.5,4.1
2016,1,13,03:00,UTC,,1010,77,,,-15.9,,50000,15.4,7.1,4.4
2016,1,13,04:00,UTC,,1009.4,75,,,-16.5,,50000,13.4,6.6,4.6
2016,1,13,05:00,UTC,,1008.8,75,,,-16.8,,50000,10.3,7.4,4.5
2016,1,13,06:00,UTC,,1008,76,,,-17,,50000,6.2,6.7,4.5
2016,1,13,07:00,UTC,,1007.6,75,,,-16,,50000,3.6,6.2,4.2
2016,1,13,08:00,UTC,,1007.5,76,,,-15.5,,50000,8.2,7.3,4.8
2016,1,13,09:00,UTC,,1006.9,76,,,-15.1,,50000,9.3,8.4,5.2
2016,1,13,10:00,UTC,,1006.2,77,,,-14.8,,50000,8.2,7.5,4.7
2016,1,13,11:00,UTC,,1005.7,77,,,-14.4,,50000,7.2,9.2,5.4
2016,1,13,12:00,UTC,,1005.5,76,,,-14.1,,50000,10.3,7.3,4.7
2016,1,13,13:00,UTC,,1005.3,77,,,-14,,50000,6.7,7.6,5.3
2016,1,13,14:00,UTC,,1004.9,76,,,-14,,50000,9.8,10.7,5.8
2016,1,13,15:00,UTC,,1004.6,76,,,-13.4,,50000,9.8,8.4,5.1
2016,1,13,16:00,UTC,,1004.4,75,,,-12.8,,50000,9.3,8.8,5.7
2016,1,13,17:00,UTC,,1004,75,,,-12.4,,50000,7.2,9.9,5.7
2016,1,13,18:00,UTC,,1003.4,74,,,-11.7,,50000,6.2,11.3,6.6
2016,1,13,19:00,UTC,,1003.2,77,,,-12.3,,50000,2.6,10.7,5
2016,1,13,20:00,UTC,,1002.5,78,,,-12.7,,50000,4.1,9.1,5.6
2016,1,13,21:00,UTC,,1002.3,76,,,-12.5,,50000,6.2,9.6,6.5
2016,1,13,22:00,UTC,,1002.2,76,,,-12,,43014,6.7,9.3,5.5
2016,1,13,23:00,UTC,,1001.9,76,,,-11.7,,50000,5.1,9.3,6.4
2016,1,14,00:00,UTC,,1001.9,73,,,-10.8,,45935,5.7,9,5.7
2016,1,14,01:00,UTC,,1001.7,79,,,-11.4,,11108,185.2,8,4.6
2016,1,14,02:00,UTC,,1001.7,79,,,-11.2,,24068,2.6,7.9,4.5
2016,1,14,03:00,UTC,,1001.5,76,,,-10.6,,46759,2.6,8.2,4.9
2016,1,14,04:00,UTC,,1001.4,80,,,-11,,14692,180.6,7.7,3.9
2016,1,14,05:00,UTC,,1001.2,81,,,-10.9,,16613,182.1,7,3.7
2016,1,14,06:00,UTC,,1001.3,82,,,-10.7,,13682,181.1,7.1,3.9
2016,1,14,07:00,UTC,,1001.4,84,,,-10.6,,9983,181.6,7.4,3.9
2016,1,14,08:00,UTC,,1001.5,83,,,-10.7,,11561,178,6,3.4
2016,1,14,09:00,UTC,,1001.5,83,,,-10.5,,27972,179,6.5,3.7
2016,1,14,10:00,UTC,,1001.3,82,,,-10.2,,50000,180.1,6.6,3.6
2016,1,14,11:00,UTC,,1001.3,83,,,-10.6,,50000,174.4,5.5,3.6
2016,1,14,12:00,UTC,,1001.1,83,,,-10.3,,50000,175.4,6,3.5
2016,1,14,13:00,UTC,,1000.8,84,,,-10.2,,50000,171.8,6.1,3.7
2016,1,14,14:00,UTC,,1000.2,84,,,-9.5,,50000,173.4,7.7,4.6
2016,1,14,15:00,UTC,,999.9,84,,,-9.2,,50000,172.9,6.6,4.5
2016,1,14,16:00,UTC,,999.4,87,,,-9.3,,50000,172.3,5.9,4.1
2016,1,14,17:00,UTC,,999.1,88,,,-9.5,,50000,169.8,6.7,4
2016,1,14,18:00,UTC,,998.7,88,,,-8.7,,9669,171.3,5.6,3.9
2016,1,14,19:00,UTC,,998.5,89,,,-8.2,,19478,172.3,7.1,4.9
2016,1,14,20:00,UTC,,998.4,89,,,-8.1,,27602,173.9,7.5,4.9
2016,1,14,21:00,UTC,,998.8,89,,,-7.9,,9082,0.5,5.6,3.2
2016,1,14,22:00,UTC,,999.6,86,,,-8.8,,4782,31.9,6.1,3.3
2016,1,14,23:00,UTC,,1000.1,79,,,-11.1,,11023,24.2,6.4,3.6
2016,1,15,00:00,UTC,,1000.9,78,,,-12.1,,50000,26.2,5.2,2.8
2016,1,15,01:00,UTC,,1001.4,81,,,-13.9,,50000,25.2,2.7,1.7
2016,1,15,02:00,UTC,,1001.9,85,,,-15.7,,50000,17,2.6,1.4
2016,1,15,03:00,UTC,,1002.1,86,,,-17.6,,50000,12.9,3,2
2016,1,15,04:00,UTC,,1002.7,85,,,-17.4,,50000,13.4,2.3,1.5
2016,1,15,05:00,UTC,,1002.9,86,,,-18.2,,50000,0.5,1.6,1.1
2016,1,15,06:00,UTC,,1003.2,84,,,-18.3,,50000,11.3,2.6,1.8
2016,1,15,07:00,UTC,,1003.5,82,,,-17.3,,50000,6.2,2.8,1.9
2016,1,15,08:00,UTC,,1004.2,83,,,-18.1,,18627,178.5,1.8,0.9
2016,1,15,09:00,UTC,,1004.6,82,,,-17.5,,6198,171.8,2.8,1.9
2016,1,15,10:00,UTC,,1004.8,82,,,-16.7,,18471,181.6,2.8,1.8
2016,1,15,11:00,UTC,,1005.1,82,,,-16.5,,50000,3.1,3.3,2.1
2016,1,15,12:00,UTC,,1005.5,82,,,-16.2,,50000,175.4,2.7,1.4
2016,1,15,13:00,UTC,,1005.6,83,,,-16,,10395,166.7,3,2
2016,1,15,14:00,UTC,,1005.8,84,,,-15.6,,8701,165.1,3.8,2.5
2016,1,15,15:00,UTC,,1005.8,84,,,-14.5,,8466,169.3,4.6,3
2016,1,15,16:00,UTC,,1005.7,84,,,-13.9,,17810,172.3,4.5,2.9
2016,1,15,17:00,UTC,,1005.6,84,,,-13.8,,7325,173.4,5.1,2.9
2016,1,15,18:00,UTC,,1005.6,83,,,-13.9,,19771,170.8,3.7,2.3
2016,1,15,19:00,UTC,,1005.8,84,,,-13.7,,16083,176.5,3.9,2.1
2016,1,15,20:00,UTC,,1006,85,,,-13.2,,16315,174.9,4,2.4
2016,1,15,21:00,UTC,,1006.5,85,,,-12.9,,14766,180.1,3.9,2
2016,1,15,22:00,UTC,,1006.8,86,,,-12.8,,30350,176.5,3.4,2.1
2016,1,15,23:00,UTC,,1007.2,86,,,-12.1,,7347,181.1,3.8,2.1
2016,1,16,00:00,UTC,,1007.5,86,,,-12.2,,16660,182.1,4.4,2.1
2016,1,16,01:00,UTC,,1007.4,86,,,-13.1,,41133,176.5,2.8,1.5
2016,1,16,02:00,UTC,,1007.5,86,,,-13.1,,50000,172.3,3.6,2.1
2016,1,16,03:00,UTC,,1007.5,86,,,-12.2,,24305,172.9,3.2,2.1
2016,1,16,04:00,UTC,,1007.5,87,,,-11.5,,6432,168.7,2.6,1.8
2016,1,16,05:00,UTC,,1007.3,88,,,-11.4,,13638,146.1,2.1,1.8
2016,1,16,06:00,UTC,,1006.9,90,,,-10.4,,9698,141,1.7,1.4
2016,1,16,07:00,UTC,,1006.7,90,,,-10.1,,7181,131.2,1.4,1.1
2016,1,16,08:00,UTC,,1006.7,90,,,-10.4,,6838,165.1,1.2,0.8
2016,1,16,09:00,UTC,,1006.6,91,,,-9.3,,8186,161,1.4,1.1
2016,1,16,10:00,UTC,,1006.8,91,,,-8.9,,6216,6.7,1.4,0.7
2016,1,16,11:00,UTC,,1006.8,90,,,-8.9,,10808,14.9,2.4,1.3
2016,1,16,12:00,UTC,,1007.1,88,,,-10,,7647,23.7,2.7,1.6
2016,1,16,13:00,UTC,,1007.4,87,,,-11.6,,20165,30.4,2.9,1.9
2016,1,16,14:00,UTC,,1007.6,88,,,-13,,8698,44.8,2.9,1.8
2016,1,16,15:00,UTC,,1008,86,,,-14.2,,45806,39.1,3.3,2.2
2016,1,16,16:00,UTC,,1008.6,84,,,-15.3,,50000,45.3,4.1,2.8
2016,1,16,17:00,UTC,,1009.3,83,,,-16.8,,50000,47.8,4.4,3.1
2016,1,16,18:00,UTC,,1009.7,82,,,-17.9,,50000,47.3,3.7,2.4
2016,1,16,19:00,UTC,,1009.8,80,,,-18.3,,27002,45.8,4.5,2.9
2016,1,16,20:00,UTC,,1010.1,79,,,-18.8,,50000,48.4,5,3.7
2016,1,16,21:00,UTC,,1010.7,79,,,-19.5,,48365,45.3,4.3,3.1
2016,1,16,22:00,UTC,,1011,78,,,-20.1,,50000,48.9,5.5,3.9
2016,1,16,23:00,UTC,,1011.4,78,,,-20.9,,50000,44.2,4.4,2.9
2016,1,17,00:00,UTC,,1011.8,77,,,-22.1,,50000,43.7,3.9,2.6
2016,1,17,01:00,UTC,,1011.8,78,,,-23,,50000,38.1,3.2,1.9
2016,1,17,02:00,UTC,,1012,77,,,-23.7,,50000,34.5,3.6,2.4
2016,1,17,03:00,UTC,,1012.2,76,,,-24.2,,50000,33.4,2.7,1.9
2016,1,17,04:00,UTC,,1012.1,77,,,-24.9,,50000,27.3,2.6,1.6
2016,1,17,05:00,UTC,,1012.2,78,,,-25.5,,50000,24.7,2.8,1.3
2016,1,17,06:00,UTC,,1012.1,77,,,-25.6,,50000,14.4,3.3,1.6
2016,1,17,07:00,UTC,,1012.1,77,,,-25.7,,50000,12.9,3.7,1.7
2016,1,17,08:00,UTC,,1012.3,77,,,-25.7,,50000,13.9,3,1.7
2016,1,17,09:00,UTC,,1012.1,76,,,-25.3,,50000,28.8,3.4,1.7
2016,1,17,10:00,UTC,,1012.2,75,,,-24.9,,50000,26.8,2.7,1.6
2016,1,17,11:00,UTC,,1012,75,,,-24.6,,50000,19,2.8,1.6
2016,1,17,12:00,UTC,,1011.7,76,,,-24.5,,50000,12.3,3.3,1.7
2016,1,17,13:00,UTC,,1011.4,77,,,-25,,50000,8.7,3.2,1.5
2016,1,17,14:00,UTC,,1011.1,78,,,-25.9,,50000,12.3,2.9,1.6
2016,1,17,15:00,UTC,,1011,79,,,-25.6,,50000,18.5,1.9,0.8
2016,1,17,16:00,UTC,,1010.5,78,,,-26.6,,50000,4.1,2.1,1.3
2016,1,17,17:00,UTC,,1010.4,78,,,-27.5,,50000,177.5,1.1,0.7
2016,1,17,18:00,UTC,,1010,78,,,-27.4,,50000,161.5,2,1.5
2016,1,17,19:00,UTC,,1009.8,77,,,-26.8,,50000,178.5,2.6,1.5
2016,1,17,20:00,UTC,,1009.6,77,,,-26.6,,50000,178,2.7,1.6
2016,1,17,21:00,UTC,,1009,77,,,-26.1,,9848,176.5,2.8,1.7
2016,1,17,22:00,UTC,,1008.7,79,,,-25.4,,50000,173.4,3.4,1.9
2016,1,17,23:00,UTC,,1008.3,78,,,-26.3,,41110,178,1.4,0.8
2016,1,18,00:00,UTC,,1007.7,78,,,-23.5,,21220,153.8,3.1,2.5
2016,1,18,01:00,UTC,,1007.5,80,,,-22.2,,10803,149.2,2.3,1.9
2016,1,18,02:00,UTC,,1006.8,80,,,-21.5,,12166,162.6,2.6,1.8
2016,1,18,03:00,UTC,,1006.3,81,,,-20.6,,9980,173.9,1.6,1
2016,1,18,04:00,UTC,,1006.1,81,,,-20.2,,9768,175.4,1.1,0.7
2016,1,18,05:00,UTC,,1005.8,80,,,-22.2,,7512,139.4,1,0.7
2016,1,18,06:00,UTC,,1005.8,80,,,-21.6,,11254,118.3,0.6,0.4
2016,1,18,07:00,UTC,,1006,80,,,-20.6,,10774,113.7,0.7,0.3
2016,1,18,08:00,UTC,,1006.1,81,,,-21.4,,41023,98.8,0.6,0.3
2016,1,18,09:00,UTC,,1006.3,80,,,-22.7,,26989,89,0.9,0.6
2016,1,18,10:00,UTC,,1006.3,81,,,-22.7,,50000,71,1.1,0.7
2016,1,18,11:00,UTC,,1006.3,81,,,-23.3,,6675,56.6,1.1,0.8
2016,1,18,12:00,UTC,,1006.4,80,,,-22.8,,50000,95.7,1,0.8
2016,1,18,13:00,UTC,,1006.3,79,,,-24.9,,13573,53,0.6,0.3
2016,1,18,14:00,UTC,,1006.4,78,,,-26.1,,7676,75.1,1.1,0.7
2016,1,18,15:00,UTC,,1006.6,77,,,-26.9,,50000,94.7,0.9,0.6
2016,1,18,16:00,UTC,,1006.7,78,,,-26.2,,10961,67.9,1.7,1.5
2016,1,18,17:00,UTC,,1006.7,78,,,-25.9,,45179,64.8,2,1.2
2016,1,18,18:00,UTC,,1006.8,77,,,-25.9,,11350,91.6,1.2,0.7
2016,1,18,19:00,UTC,,1007.2,77,,,-27.2,,23167,49.4,1,0.8
2016,1,18,20:00,UTC,,1007.3,77,,,-26.8,,11459,68.4,2.3,1.8
2016,1,18,21:00,UTC,,1007.3,77,,,-27.1,,15966,72,3.2,2
2016,1,18,22:00,UTC,,1007.4,76,,,-27.8,,50000,70,2.5,2
2016,1,18,23:00,UTC,,1007.5,76,,,-28.1,,6625,67.9,2.5,2.2
2016,1,19,00:00,UTC,,1007.5,75,,,-28.8,,50000,66.4,2.5,2
2016,1,19,01:00,UTC,,1007.6,76,,,-29,,50000,70,3.3,2.9
2016,1,19,02:00,UTC,,1007.5,76,,,-28.7,,48217,65.8,2.8,2.4
2016,1,19,03:00,UTC,,1007.6,76,,,-28.5,,46275,67.4,3.3,2.9
2016,1,19,04:00,UTC,,1007.8,75,,,-28.4,,42842,66.9,3.4,2.7
2016,1,19,05:00,UTC,,1007.8,75,,,-28.4,,18526,66.4,3.6,3.3
2016,1,19,06:00,UTC,,1008.1,76,,,-27.9,,30621,66.4,4.5,4
2016,1,19,07:00,UTC,,1008.4,76,,,-27.9,,41319,67.9,3.8,3.3
2016,1,19,08:00,UTC,,1008.9,77,,,-26.8,,20043,67.4,3.5,3.1
2016,1,19,09:00,UTC,,1008.9,77,,,-26.2,,15857,68.9,4.3,3.3
2016,1,19,10:00,UTC,,1009,77,,,-27,,27973,62.2,4,3.4
2016,1,19,11:00,UTC,,1009.1,77,,,-26,,50000,64.8,4.9,4.4
2016,1,19,12:00,UTC,,1009.3,77,,,-25.5,,50000,64.8,4.8,4
2016,1,19,13:00,UTC,,1009.4,77,,,-25.2,,50000,66.4,6.8,5.5
2016,1,19,14:00,UTC,,1009.6,77,,,-25.6,,50000,66.4,6,5
2016,1,19,15:00,UTC,,1009.6,77,,,-25.9,,7893,71.5,4,3.2
2016,1,19,16:00,UTC,,1009.6,77,,,-26.1,,50000,67.4,6,4.9
2016,1,19,17:00,UTC,,1009.6,77,,,-26.1,,50000,65.8,6,5
2016,1,19,18:00,UTC,,1010,77,,,-25.9,,50000,65.3,5.1,4.5
2016,1,19,19:00,UTC,,1010,77,,,-25.7,,50000,65.3,4.9,4.3
2016,1,19,20:00,UTC,,1010.4,77,,,-25.8,,42714,67.4,5.2,4.4
2016,1,19,21:00,UTC,,1010.4,77,,,-25.8,,11833,62.2,6.9,5.5
2016,1,19,22:00,UTC,,1010.4,78,,,-25.2,,12290,65.3,6.3,5.3
2016,1,19,23:00,UTC,,1010.1,78,,,-24.9,,12678,65.3,8.2,6.7
2016,1,20,00:00,UTC,,1010.1,78,,,-24.5,,18233,63.8,5.9,5.1
2016,1,20,01:00,UTC,,1010,78,,,-24.1,,28169,63.8,6.8,5.6
2016,1,20,02:00,UTC,,1009.9,78,,,-24.1,,50000,64.8,5.5,4.6
2016,1,20,03:00,UTC,,1009.8,79,,,-23.5,,16355,63.3,5.9,5.1
2016,1,20,04:00,UTC,,1009.8,79,,,-23.2,,35390,60.7,6.6,5.4
2016,1,20,05:00,UTC,,1010,79,,,-23.3,,46577,57.1,5.8,4.9
2016,1,20,06:00,UTC,,1010,79,,,-23.7,,50000,55.6,6.2,4.8
2016,1,20,07:00,UTC,,1010.4,78,,,-23.8,,50000,52.5,4.9,3.9
2016,1,20,08:00,UTC,,1010.7,78,,,-23.5,,50000,57.6,5.9,4.9
2016,1,20,09:00,UTC,,1011,78,,,-23.6,,50000,51.4,4.4,3.7
2016,1,20,10:00,UTC,,1011.2,79,,,-23.2,,50000,48.4,4.7,3.1
2016,1,20,11:00,UTC,,1011.3,79,,,-22,,50000,59.2,5.2,4.2
2016,1,20,12:00,UTC,,1011.2,79,,,-21.6,,15099,48.4,4.6,3.4
2016,1,20,13:00,UTC,,1011.5,80,,,-21.3,,38221,45.8,3.6,2.7
2016,1,20,14:00,UTC,,1011.9,79,,,-21.5,,17368,48.9,3.5,2.8
2016,1,20,15:00,UTC,,1012.3,79,,,-21,,38435,54,3.5,2.8
2016,1,20,16:00,UTC,,1012.6,80,,,-20.6,,22363,43.2,2.6,1.7
2016,1,20,17:00,UTC,,1012.9,79,,,-20.3,,50000,45.8,2.7,1.9
2016,1,20,18:00,UTC,,1013.4,80,,,-21.7,,50000,17.5,2.1,1.4
2016,1,20,19:00,UTC,,1013.7,79,,,-22.5,,48950,30.4,3.4,1.7
2016,1,20,20:00,UTC,,1014,80,,,-23.5,,50000,32.4,1.7,1.1
2016,1,20,21:00,UTC,,1014.3,79,,,-25.2,,50000,18,1.2,0.9
2016,1,20,22:00,UTC,,1014.6,79,,,-25.5,,50000,22.6,1.6,1.1
2016,1,20,23:00,UTC,,1015,78,,,-25.6,,50000,23.1,1.9,1
2016,1,21,00:00,UTC,,1015.6,78,,,-26.8,,50000,9.8,2.4,1.4
2016,1,21,01:00,UTC,,1015.6,77,,,-27,,50000,19,1.1,0.7
2016,1,21,02:00,UTC,,1015.8,77,,,-27.4,,50000,31.4,1.1,0.9
2016,1,21,03:00,UTC,,1016.2,76,,,-27.6,,50000,17.5,1.4,0.9
2016,1,21,04:00,UTC,,1016.5,76,,,-28.6,,50000,58.1,1.5,1.2
2016,1,21,05:00,UTC,,1016.9,76,,,-29.5,,50000,47.3,0.9,0.4
2016,1,21,06:00,UTC,,1017.3,76,,,-29.6,,50000,65.8,0.5,0.3
2016,1,21,07:00,UTC,,1017.7,74,,,-30.6,,50000,169.8,0.8,0.5
2016,1,21,08:00,UTC,,1018,75,,,-30,,50000,75.6,1,0.5
2016,1,21,09:00,UTC,,1018.8,75,,,-29.6,,50000,41.2,0.8,0.5
2016,1,21,10:00,UTC,,1018.7,75,,,-28.4,,50000,60.2,2.6,2.3
2016,1,21,11:00,UTC,,1019.1,76,,,-27.3,,50000,63.3,2.1,1.7
2016,1,21,12:00,UTC,,1019.4,76,,,-26.8,,50000,73.1,1.7,1.3
2016,1,21,13:00,UTC,,1019.7,76,,,-27.4,,50000,72,2.1,1.8
2016,1,21,14:00,UTC,,1019.8,76,,,-28.4,,50000,71.5,1.7,1.5
2016,1,21,15:00,UTC,,1020,76,,,-28.2,,21149,68.9,2,1.7
2016,1,21,16:00,UTC,,1020.2,76,,,-27.9,,50000,73.1,2.8,2.1
2016,1,21,17:00,UTC,,1020.2,75,,,-28.4,,50000,71,4.2,2.9
2016,1,21,18:00,UTC,,1020.4,75,,,-28.3,,50000,67.9,2.3,2.1
2016,1,21,19:00,UTC,,1020.4,76,,,-28.5,,5376,66.9,3.3,2.8
2016,1,21,20:00,UTC,,1020.5,77,,,-28.3,,50000,70,2.9,2.1
2016,1,21,21:00,UTC,,1020.6,76,,,-28.3,,50000,72,3.3,2.7
2016,1,21,22:00,UTC,,1020.6,77,,,-28,,50000,74.6,3.4,2.4
2016,1,21,23:00,UTC,,1020.2,78,,,-25.5,,50000,80.8,5,3.9
2016,1,22,00:00,UTC,,1020,78,,,-25.5,,19798,75.6,4.1,2.9
2016,1,22,01:00,UTC,,1019.8,78,,,-24,,26060,66.4,3.9,3.4
2016,1,22,02:00,UTC,,1019.3,80,,,-21.5,,50000,81.3,5.8,4.1
2016,1,22,03:00,UTC,,1018.6,81,,,-20,,36334,80.8,6.1,4.8
2016,1,22,04:00,UTC,,1018.3,82,,,-18.6,,14946,78.7,5.7,4.5
2016,1,22,05:00,UTC,,1018.2,84,,,-17.3,,13774,77.2,5.6,4.4
2016,1,22,06:00,UTC,,1018,85,,,-16.3,,13806,77.2,6.1,4.7
2016,1,22,07:00,UTC,,1018.1,86,,,-14.6,,25563,81.3,6.4,4.5
2016,1,22,08:00,UTC,,1018.1,87,,,-13.8,,30336,80.3,6.1,4.6
2016,1,22,09:00,UTC,,1018.1,88,,,-12.6,,50000,77.2,5.5,4.3
2016,1,22,10:00,UTC,,1018.1,89,,,-11.3,,40869,78.2,5.8,4.5
2016,1,22,11:00,UTC,,1017.9,89,,,-11,,45831,78.2,4.9,3.8
2016,1,22,12:00,UTC,,1017.9,91,,,-9.8,,50000,82.8,4.4,2.9
2016,1,22,13:00,UTC,,1017.5,93,,,-7.1,,32661,91.6,6.3,3.8
2016,1,22,14:00,UTC,,1017.5,94,,,-5.8,,50000,102.4,6.3,3.5
2016,1,22,15:00,UTC,,1017.9,95,,,-5.3,,50000,104.4,7.7,4.7
2016,1,22,16:00,UTC,,1017.8,95,,,-5,,50000,102.9,6.4,4.6
2016,1,22,17:00,UTC,,1017.6,94,,,-4.5,,50000,104.9,7.2,5.1
2016,1,22,18:00,UTC,,1017.5,92,,,-4.2,,50000,106,6.6,4.3
2016,1,22,19:00,UTC,,1017.4,92,,,-3.6,,50000,101.3,6,4.4
2016,1,22,20:00,UTC,,1017.6,91,,,-3.6,,50000,103.9,6.7,4.5
2016,1,22,21:00,UTC,,1017.5,90,,,-4,,50000,95.7,5.5,3.8
2016,1,22,22:00,UTC,,1017.5,91,,,-3.7,,33645,100.8,6.7,4.4
2016,1,22,23:00,UTC,,1017.5,91,,,-3.6,,50000,96.7,5.1,3.7
2016,1,23,00:00,UTC,,1017.7,91,,,-3.2,,50000,106.5,4.8,3.2
2016,1,23,01:00,UTC,,1017.8,90,,,-3.1,,50000,104.4,5.6,3.7
2016,1,23,02:00,UTC,,1017.9,91,,,-3.3,,50000,103.4,4.8,3.2
2016,1,23,03:00,UTC,,1018,91,,,-3.5,,50000,101.9,4.7,3
2016,1,23,04:00,UTC,,1018.1,90,,,-3.6,,50000,104.9,5.7,3.5
2016,1,23,05:00,UTC,,1018.6,91,,,-4.1,,50000,94.7,4,2.7
2016,1,23,06:00,UTC,,1018.7,89,,,-4.1,,50000,107,5.2,3.6
2016,1,23,07:00,UTC,,1018.9,90,,,-4.3,,50000,101.9,4.8,2.9
2016,1,23,08:00,UTC,,1019.2,89,,,-4.2,,50000,99.3,3.6,2.4
2016,1,23,09:00,UTC,,1019.3,91,,,-4.3,,50000,80.3,3.3,2.2
2016,1,23,10:00,UTC,,1019.4,92,,,-4.5,,50000,78.2,4.7,3.4
2016,1,23,11:00,UTC,,1019.4,90,,,-4.6,,50000,79.7,5.3,3.9
2016,1,23,12:00,UTC,,1019.4,91,,,-5,,50000,76.1,4.2,3.5
2016,1,23,13:00,UTC,,1019.6,92,,,-5,,15765,74.6,4.1,3.3
2016,1,23,14:00,UTC,,1019.3,93,,,-4.9,,50000,75.1,4.5,3.6
2016,1,23,15:00,UTC,,1019.4,93,,,-4.7,,50000,75.1,4.7,3.9
2016,1,23,16:00,UTC,,1019.1,93,,,-4.1,,41683,81.3,6.4,3.7
2016,1,23,17:00,UTC,,1019.3,94,,,-5.9,,23681,74.6,4.6,3.5
2016,1,23,18:00,UTC,,1019.1,95,,,-6.1,,25309,77.2,4.6,3.7
2016,1,23,19:00,UTC,,1019,94,,,-6.6,,37396,79.7,4.6,3.7
2016,1,23,20:00,UTC,,1018.7,94,,,-7,,48181,78.7,4.7,3.8
2016,1,23,21:00,UTC,,1018.3,94,,,-7.1,,50000,77.7,4.1,3.4
2016,1,23,22:00,UTC,,1018,93,,,-6.5,,49204,81.8,4.5,3.4
2016,1,23,23:00,UTC,,1017.8,92,,,-5.8,,50000,81.8,5.2,4.1
2016,1,24,00:00,UTC,,1017.5,91,,,-5.2,,50000,84.4,5.1,3.9
2016,1,24,01:00,UTC,,1017.3,91,,,-4.8,,50000,84.4,4.9,3.6
2016,1,24,02:00,UTC,,1017.1,92,,,-4.6,,50000,85.4,4.9,3.7
2016,1,24,03:00,UTC,,1016.8,92,,,-4.4,,23482,84.9,4.3,3.3
2016,1,24,04:00,UTC,,1016.3,92,,,-4,,50000,89,4.6,3.3
2016,1,24,05:00,UTC,,1015.7,92,,,-4.2,,50000,80.3,4.1,2.9
2016,1,24,06:00,UTC,,1015.5,93,,,-4.2,,50000,78.2,3.6,2.6
2016,1,24,07:00,UTC,,1015.3,93,,,-4.3,,50000,74.1,3.2,2.5
2016,1,24,08:00,UTC,,1015.3,93,,,-4.3,,50000,75.6,3.2,2.7
2016,1,24,09:00,UTC,,1015.1,92,,,-4,,50000,79.2,4.8,2.3
2016,1,24,10:00,UTC,,1014.7,93,,,-4.2,,50000,75.6,3.5,2.8
2016,1,24,11:00,UTC,,1014.3,93,,,-4.1,,50000,79.7,2.8,2
2016,1,24,12:00,UTC,,1014,93,,,-3.9,,50000,83.9,3.5,1.9
2016,1,24,13:00,UTC,,1013.6,93,,,-4,,46878,79.7,3.4,2.6
2016,1,24,14:00,UTC,,1013.4,94,,,-4.3,,8387,76.7,3.3,2.4
2016,1,24,15:00,UTC,,1012.9,95,,,-4.2,,10972,79.7,3,2.3
2016,1,24,16:00,UTC,,1012.6,96,,,-4.2,,11521,78.2,3.1,2.4
2016,1,24,17:00,UTC,,1012.3,97,,,-4.4,,10208,63.8,3.1,2.8
2016,1,24,18:00,UTC,,1012.1,96,,,-4.4,,8818,75.6,3.2,2.6
2016,1,24,19:00,UTC,,1011.8,95,,,-4.6,,11257,73.1,3.1,2.7
2016,1,24,20:00,UTC,,1011.6,96,,,-4.9,,11551,69.4,2.7,2.3
2016,1,24,21:00,UTC,,1011.5,96,,,-4.9,,7761,67.9,3.3,2.8
2016,1,24,22:00,UTC,,1011.2,96,,,-5,,7849,67.9,3.2,2.8
2016,1,24,23:00,UTC,,1011,95,,,-5.1,,44586,61.2,3.4,2.9
2016,1,25,00:00,UTC,,1010.8,95,,,-4.8,,50000,56.6,2.7,1.9
2016,1,25,01:00,UTC,,1010.6,95,,,-5,,41577,47.8,2.3,1.7
2016,1,25,02:00,UTC,,1010.8,95,,,-5,,48685,49.9,1.3,0.8
2016,1,25,03:00,UTC,,1011.1,95,,,-4.9,,11752,28.3,2.7,1.4
2016,1,25,04:00,UTC,,1011.3,95,,,-4.7,,42841,25.2,2.3,1.5
2016,1,25,05:00,UTC,,1011.6,94,,,-5,,44694,28.8,2.1,1.3
2016,1,25,06:00,UTC,,1011.6,94,,,-5.5,,16837,21.1,2.5,1.6
2016,1,25,07:00,UTC,,1012.2,95,,,-6.8,,17882,3.6,1.1,0.7
2016,1,25,08:00,UTC,,1012.6,95,,,-7.4,,32176,7.7,1.2,0.8
2016,1,25,09:00,UTC,,1012.8,94,,,-6.6,,43941,37.6,0.9,0.4
2016,1,25,10:00,UTC,,1013.2,93,,,-6.3,,35596,25.2,1.6,1.1
2016,1,25,11:00,UTC,,1013.3,92,,,-6.2,,33406,68.4,0.9,0.4
2016,1,25,12:00,UTC,,1013.5,91,,,-6.1,,50000,112.1,0.7,0.4
2016,1,25,13:00,UTC,,1013.8,92,,,-6.1,,50000,78.7,0.7,0.3
2016,1,25,14:00,UTC,,1013.7,93,,,-6.2,,27928,66.4,2.2,1.8
2016,1,25,15:00,UTC,,1013.7,96,,,-5.7,,15716,107,3.5,2.6
2016,1,25,16:00,UTC,,1013.1,95,,,-5.4,,42390,101.3,3.4,2.2
2016,1,25,17:00,UTC,,1012.6,95,,,-5.5,,40335,107,4,2.9
2016,1,25,18:00,UTC,,1012,96,,,-5.7,,24245,93.1,4.5,2.7
2016,1,25,19:00,UTC,,1011.8,96,,,-5.8,,15593,100.8,4.7,3.1
2016,1,25,20:00,UTC,,1011.4,95,,,-6.2,,15664,94.1,6,3.9
2016,1,25,21:00,UTC,,1010.6,95,,,-6.4,,50000,92.6,5.1,3.8
2016,1,25,22:00,UTC,,1009.9,94,,,-6.8,,50000,86.4,5.3,3.6
2016,1,25,23:00,UTC,,1009.2,93,,,-7.2,,50000,84.9,5.7,4
2016,1,26,00:00,UTC,,1007.6,93,,,-7.1,,50000,80.8,6.5,4.8
2016,1,26,01:00,UTC,,1006.3,93,,,-6.8,,50000,77.7,7.6,5.5
2016,1,26,02:00,UTC,,1004.3,92,,,-6.4,,50000,74.6,9.9,6.9
2016,1,26,03:00,UTC,,1002.7,91,,,-5.9,,50000,74.1,8.7,7.3
2016,1,26,04:00,UTC,,1000.6,91,,,-5.4,,6494,73.1,9.6,6.9
2016,1,26,05:00,UTC,,998.1,91,,,-5,,4483,71,11.2,8.2
2016,1,26,06:00,UTC,,996,92,,,-4.7,,6745,72,10.8,7.8
2016,1,26,07:00,UTC,,994.8,92,,,-4.1,,8503,77.7,8.6,6.5
2016,1,26,08:00,UTC,,992.9,93,,,-3.9,,2515,74.1,8.7,6.9
2016,1,26,09:00,UTC,,991.5,93,,,-3.6,,2568,75.6,9.5,6.4
2016,1,26,10:00,UTC,,989.9,95,,,-3.2,,6630,76.7,8.4,5.8
2016,1,26,11:00,UTC,,988.4,96,,,-2.5,,3429,77.7,8.4,6
2016,1,26,12:00,UTC,,987.4,95,,,-2.3,,4413,77.7,8,5.9
2016,1,26,13:00,UTC,,986.8,96,,,-2.1,,8892,80.8,6.1,4.7
2016,1,26,14:00,UTC,,986.6,97,,,-1.2,,12121,93.1,5.6,3.8
2016,1,26,15:00,UTC,,987.3,94,,,-0.5,,50000,135.3,10.2,6.7
2016,1,26,16:00,UTC,,987.7,96,,,-1.1,,38601,138.9,9.2,6.5
2016,1,26,17:00,UTC,,987.9,94,,,-1.1,,50000,137.9,7.9,5.4
2016,1,26,18:00,UTC,,987.9,91,,,-1.2,,50000,130.2,5.9,4
2016,1,26,19:00,UTC,,988.5,92,,,-1.8,,50000,124,4.3,3
2016,1,26,20:00,UTC,,989.4,94,,,-2.3,,50000,121.4,5.3,3.5
2016,1,26,21:00,UTC,,989.5,94,,,-2.2,,50000,120.4,5.6,3.7
2016,1,26,22:00,UTC,,989.5,95,,,-2.7,,50000,117.3,5,3.3
2016,1,26,23:00,UTC,,989.5,96,,,-2.7,,50000,112.7,4.9,3.6
2016,1,27,00:00,UTC,,989.6,96,,,-2.7,,50000,112.1,5.2,3.2
2016,1,27,01:00,UTC,,989.4,96,,,-2.7,,50000,110.1,4.7,3.1
2016,1,27,02:00,UTC,,989,96,,,-3,,50000,93.6,3.4,2.5
2016,1,27,03:00,UTC,,989.1,96,,,-2.7,,50000,95.2,5.1,3.7
2016,1,27,04:00,UTC,,988.6,96,,,-2.1,,50000,92.1,5.2,3.9
2016,1,27,05:00,UTC,,987.9,96,,,-1.9,,50000,83.3,5.6,4.2
2016,1,27,06:00,UTC,,987.4,96,,,-1.6,,50000,74.1,6.2,4.8
2016,1,27,07:00,UTC,,987.4,96,,,-1.3,,50000,73.1,6.4,5
2016,1,27,08:00,UTC,,987.5,95,,,-0.7,,36928,74.6,6.1,4.7
2016,1,27,09:00,UTC,,987.2,94,,,-0.2,,50000,74.6,6,4.5
2016,1,27,10:00,UTC,,987,95,,,0.2,,47985,74.6,5.8,4.5
2016,1,27,11:00,UTC,,986.5,97,,,0.4,,11879,75.1,6.9,5.4
2016,1,27,12:00,UTC,,986.4,96,,,0.5,,25588,78.2,6,4.4
2016,1,27,13:00,UTC,,985.9,97,,,0.5,,13172,75.1,6.3,4.8
2016,1,27,14:00,UTC,,985.6,98,,,0.5,,11481,77.2,6.6,4.5
2016,1,27,15:00,UTC,,985.4,98,,,0.6,,30981,79.7,5.5,4
2016,1,27,16:00,UTC,,985.1,97,,,0.6,,17767,80.8,4.1,3.2
2016,1,27,17:00,UTC,,985.2,98,,,0.6,,37039,85.4,4.4,3.3
2016,1,27,18:00,UTC,,985.3,98,,,0.6,,49146,86.9,4,3
2016,1,27,19:00,UTC,,985.3,98,,,0.7,,13499,95.2,5.4,3.1
2016,1,27,20:00,UTC,,985.4,98,,,0.4,,14002,126,5.7,3.5
2016,1,27,21:00,UTC,,985.1,98,,,0.2,,50000,106.5,3.5,2.6
2016,1,27,22:00,UTC,,985.2,95,,,0.2,,45814,106.5,5.2,3.5
2016,1,27,23:00,UTC,,985.5,96,,,0.1,,15367,110.1,4,1.9
2016,1,28,00:00,UTC,,985.8,98,,,0,,50000,100.3,3,2.2
2016,1,28,01:00,UTC,,985.3,99,,,0,,8605,93.6,2.9,2.3
2016,1,28,02:00,UTC,,985,99,,,0,,50000,99.3,2.6,1.7
2016,1,28,03:00,UTC,,984.9,98,,,0,,21878,113.7,2,1.2
2016,1,28,04:00,UTC,,984.8,99,,,-0.2,,14049,110.6,0.8,0.4
2016,1,28,05:00,UTC,,984.4,99,,,-0.6,,1777,48.9,0.6,0.3
2016,1,28,06:00,UTC,,984.3,99,,,-0.8,,4080,7.2,1.8,1
2016,1,28,07:00,UTC,,984.3,100,,,-0.4,,12360,36,1.6,0.8
2016,1,28,08:00,UTC,,984.2,100,,,-0.3,,5151,16.5,2.4,1.4
2016,1,28,09:00,UTC,,984.1,100,,,0,,8090,23.1,3.6,1.9
2016,1,28,10:00,UTC,,984,100,,,0,,39335,17.5,3.1,1.9
2016,1,28,11:00,UTC,,983.4,98,,,-0.1,,50000,13.9,5.2,2.8
2016,1,28,12:00,UTC,,983,96,,,-0.5,,50000,11.3,4.4,2.8
2016,1,28,13:00,UTC,,983,96,,,-0.5,,42964,9.8,4.7,3
2016,1,28,14:00,UTC,,983,93,,,-0.9,,50000,6.2,6,3.3
2016,1,28,15:00,UTC,,983.4,95,,,-1.6,,50000,182.6,3.8,2.2
2016,1,28,16:00,UTC,,983.9,95,,,-2.5,,50000,179.5,6.1,2.7
2016,1,28,17:00,UTC,,984.3,96,,,-3.3,,50000,178.5,4.9,2.9
2016,1,28,18:00,UTC,,985,98,,,-3.9,,8518,176.5,5,2.8
2016,1,28,19:00,UTC,,985.2,98,,,-4.6,,19456,180.1,5.6,3.4
2016,1,28,20:00,UTC,,985.6,97,,,-4.7,,10480,171.3,4.8,3
2016,1,28,21:00,UTC,,986,96,,,-5.1,,50000,166.2,4.8,2.9
2016,1,28,22:00,UTC,,986.5,94,,,-6.5,,50000,157.9,3.8,2.8
2016,1,28,23:00,UTC,,987.2,93,,,-7.8,,50000,162,5,3.3
2016,1,29,00:00,UTC,,987.7,92,,,-8.9,,50000,154.8,3.5,2.2
2016,1,29,01:00,UTC,,988.5,92,,,-9,,50000,136.8,3.6,2.9
2016,1,29,02:00,UTC,,988.6,92,,,-9.8,,50000,132.2,3.5,2.8
2016,1,29,03:00,UTC,,988.5,91,,,-11,,50000,127.1,2.3,1.9
2016,1,29,04:00,UTC,,989,91,,,-10.5,,50000,126.6,2.3,1.7
2016,1,29,05:00,UTC,,989.4,91,,,-11,,50000,108,2.6,2
2016,1,29,06:00,UTC,,989.2,90,,,-12.4,,50000,82.8,2.3,1.6
2016,1,29,07:00,UTC,,989.1,91,,,-11.5,,35744,77.7,2.8,2.1
2016,1,29,08:00,UTC,,989.3,90,,,-12,,50000,77.2,2.3,1.8
2016,1,29,09:00,UTC,,989.4,91,,,-9.8,,50000,83.9,2.4,1.8
2016,1,29,10:00,UTC,,989.6,95,,,-6.4,,50000,97.2,4.5,2.9
2016,1,29,11:00,UTC,,989.4,96,,,-4.8,,50000,94.1,4.4,2.8
2016,1,29,12:00,UTC,,988.7,95,,,-5.4,,50000,77.2,3.9,2.8
2016,1,29,13:00,UTC,,988.5,95,,,-5.2,,50000,82.3,5.6,4.3
2016,1,29,14:00,UTC,,988.3,95,,,-5.6,,50000,80.3,5.4,4.1
2016,1,29,15:00,UTC,,987.6,95,,,-5.3,,50000,84.4,4.6,3.5
2016,1,29,16:00,UTC,,987.1,96,,,-3.8,,50000,87.5,7.3,4.4
2016,1,29,17:00,UTC,,986.1,97,,,-3.1,,50000,84.4,6.9,4.3
2016,1,29,18:00,UTC,,984.4,97,,,-2.8,,12032,73.6,6.5,4.7
2016,1,29,19:00,UTC,,982.5,97,,,-2.6,,50000,65.8,7,5.8
2016,1,29,20:00,UTC,,981,96,,,-1.9,,50000,68.4,8.8,6.7
2016,1,29,21:00,UTC,,979.1,96,,,-1.5,,50000,71.5,10.7,7.1
2016,1,29,22:00,UTC,,976.3,96,,,-1.2,,50000,66.4,10.6,8.6
2016,1,29,23:00,UTC,,973.6,95,,,-0.4,,12437,65.8,11.4,9
2016,1,30,00:00,UTC,,971.9,97,,,-0.1,,7856,66.9,12.2,9.3
2016,1,30,01:00,UTC,,970.4,98,,,0.2,,8620,69.4,10.6,8.4
2016,1,30,02:00,UTC,,969.9,97,,,0.7,,13305,78.7,10.8,7.1
2016,1,30,03:00,UTC,,969.6,96,,,1.2,,50000,87.5,9,6.3
2016,1,30,04:00,UTC,,969.4,94,,,1.4,,50000,90,7.6,5.2
2016,1,30,05:00,UTC,,969.5,92,,,1.4,,50000,91.1,8.3,5.6
2016,1,30,06:00,UTC,,969.5,91,,,1.7,,50000,94.1,9.5,5.9
2016,1,30,07:00,UTC,,969.9,86,,,2.1,,16037,104.9,10.9,6.9
2016,1,30,08:00,UTC,,970.4,86,,,2.2,,30203,117.3,12.2,8
2016,1,30,09:00,UTC,,970.4,75,,,2.9,,50000,109.6,10.4,7
2016,1,30,10:00,UTC,,970.9,64,,,3.6,,50000,113.2,13.4,8.3
2016,1,30,11:00,UTC,,971.4,59,,,4.1,,50000,119.9,17.8,9.3
2016,1,30,12:00,UTC,,972.2,59,,,3.6,,50000,111.1,11.2,7.3
2016,1,30,13:00,UTC,,972.5,61,,,3,,50000,106,10.6,6.4
2016,1,30,14:00,UTC,,972.9,72,,,1.7,,50000,96.7,7,4.5
2016,1,30,15:00,UTC,,972.7,77,,,1.1,,50000,95.7,6.9,4.9
2016,1,30,16:00,UTC,,972.3,82,,,1.3,,50000,89.5,6.8,4.7
2016,1,30,17:00,UTC,,971.3,82,,,1.8,,50000,82.8,7.3,5
2016,1,30,18:00,UTC,,970.2,87,,,1.7,,18756,80.3,7.2,5
2016,1,30,19:00,UTC,,969.4,95,,,1,,16325,85.4,9.3,5.6
2016,1,30,20:00,UTC,,969.1,95,,,1.1,,41463,90,7.3,4.7
2016,1,30,21:00,UTC,,968.5,92,,,1.3,,50000,86.9,7.8,5.1
2016,1,30,22:00,UTC,,968.3,91,,,1.3,,50000,88,7.2,4.5
2016,1,30,23:00,UTC,,968.6,97,,,0.6,,10009,100.3,7.8,4.4
2016,1,31,00:00,UTC,,968.8,98,,,0.4,,15168,105.5,6.2,4.2
2016,1,31,01:00,UTC,,969.2,96,,,0.5,,50000,112.7,7.6,4.9
2016,1,31,02:00,UTC,,969.8,91,,,0.6,,50000,109.1,11.6,6.5
2016,1,31,03:00,UTC,,970.1,91,,,0.6,,50000,109.6,8.7,5
2016,1,31,04:00,UTC,,970.4,90,,,0.5,,19470,110.1,9.2,5.9
2016,1,31,05:00,UTC,,970.8,88,,,0.6,,50000,111.6,8.1,5.5
2016,1,31,06:00,UTC,,971.1,86,,,0.6,,50000,112.7,9.5,5.6
2016,1,31,07:00,UTC,,971.7,87,,,0.6,,50000,116.3,7.7,5.4
2016,1,31,08:00,UTC,,972.1,87,,,0.4,,50000,116.8,7.5,5.5
2016,1,31,09:00,UTC,,972.5,87,,,0.2,,50000,116.8,8.4,5.4
2016,1,31,10:00,UTC,,972.9,86,,,0,,50000,117.8,6.7,4.5
2016,1,31,11:00,UTC,,973.3,84,,,0.1,,50000,117.3,7,4.9
2016,1,31,12:00,UTC,,973.6,84,,,-0.1,,50000,119.4,7.4,5.3
2016,1,31,13:00,UTC,,974.2,83,,,-0.3,,50000,118.3,7.5,5.1
2016,1,31,14:00,UTC,,974.7,88,,,-1,,50000,115.2,6.2,4.1
2016,1,31,15:00,UTC,,975.2,87,,,-1.2,,50000,119.4,6,4.3
2016,1,31,16:00,UTC,,975.2,86,,,-1.4,,50000,116.8,6.3,4.5
2016,1,31,17:00,UTC,,975.5,94,,,-1.6,,3516,130.7,6.7,4.4
2016,1,31,18:00,UTC,,975.8,97,,,-1.2,,6048,127.6,6.5,4.3
2016,1,31,19:00,UTC,,976.1,97,,,-0.8,,4428,134.3,8.4,6
2016,1,31,20:00,UTC,,976.7,98,,,-0.7,,8079,140.4,7,5.1
2016,1,31,21:00,UTC,,977.3,97,,,-0.9,,8628,137.4,8,5.8
2016,1,31,22:00,UTC,,978,95,,,-1.3,,11140,138.9,8.5,6.3
2016,1,31,23:00,UTC,,978.6,86,,,-1.1,,50000,138.4,7.3,5.2
2016,2,1,00:00,UTC,,979.2,86,,,-1.3,,50000,137.4,6.9,5
2016,2,1,01:00,UTC,,979.6,83,,,-1.3,,50000,134.8,6.5,5
2016,2,1,02:00,UTC,,980.3,84,,,-2.6,,50000,132.7,7,5.1
2016,2,1,03:00,UTC,,980.6,85,,,-2.7,,50000,133.8,7.4,5.2
2016,2,1,04:00,UTC,,981,88,,,-2.9,,50000,134.8,9.4,6.4
2016,2,1,05:00,UTC,,981.2,87,,,-3.3,,50000,134.8,7.9,5.4
2016,2,1,06:00,UTC,,981.7,86,,,-3.7,,50000,134.8,7.5,5.5
2016,2,1,07:00,UTC,,982.3,87,,,-3.7,,50000,131.2,6.8,5.1
2016,2,1,08:00,UTC,,982.9,91,,,-4.2,,50000,116.3,5.3,3.7
2016,2,1,09:00,UTC,,983.3,91,,,-4,,50000,123.5,5,3.8
2016,2,1,10:00,UTC,,983.5,87,,,-2.9,,50000,127.6,5.6,4.2
2016,2,1,11:00,UTC,,983.7,87,,,-2.2,,46656,119.4,6.6,4.2
2016,2,1,12:00,UTC,,983.9,86,,,-2.3,,50000,120.4,5.7,3.8
2016,2,1,13:00,UTC,,984,89,,,-2.4,,50000,115.7,6.4,4.2
2016,2,1,14:00,UTC,,984,90,,,-3.1,,50000,109.6,5,3.7
2016,2,1,15:00,UTC,,983.6,91,,,-2.5,,50000,108,7.2,3.9
2016,2,1,16:00,UTC,,983.3,91,,,-3,,50000,102.9,5.6,4
2016,2,1,17:00,UTC,,982.8,92,,,-3.5,,50000,100.8,5.6,4
2016,2,1,18:00,UTC,,982.4,92,,,-3.9,,50000,96.7,4.7,3.3
2016,2,1,19:00,UTC,,982.3,92,,,-4.4,,50000,88.5,3.6,2.8
2016,2,1,20:00,UTC,,981.9,87,,,-4.1,,50000,91.6,5.8,4
2016,2,1,21:00,UTC,,981.5,90,,,-4.9,,50000,83.3,5.1,3.4
2016,2,1,22:00,UTC,,980.7,90,,,-5,,50000,86.4,6,3.8
2016,2,1,23:00,UTC,,980.2,90,,,-5.6,,50000,78.2,4.1,3.2
2016,2,2,00:00,UTC,,979.6,88,,,-3.7,,50000,82.3,6.7,4.6
2016,2,2,01:00,UTC,,979.2,89,,,-4.4,,50000,71.5,4.8,3.6
2016,2,2,02:00,UTC,,978.5,92,,,-4.1,,50000,63.8,6.1,5
2016,2,2,03:00,UTC,,977.5,93,,,-3.8,,11286,63.3,6.5,5.7
2016,2,2,04:00,UTC,,976.6,93,,,-3.4,,21951,65.3,7.4,6.1
2016,2,2,05:00,UTC,,975.7,94,,,-3.1,,3531,62.8,7.5,6.1
2016,2,2,06:00,UTC,,975,93,,,-3,,5813,58.1,7.5,5.7
2016,2,2,07:00,UTC,,974.6,93,,,-2.9,,5182,58.1,7,5.2
2016,2,2,08:00,UTC,,974.2,93,,,-3,,7424,53.5,5.9,4.1
2016,2,2,09:00,UTC,,973.9,92,,,-2.8,,5297,53,6.1,4.3
2016,2,2,10:00,UTC,,973.7,92,,,-2.6,,8770,47.8,4.9,3.4
2016,2,2,11:00,UTC,,973.6,91,,,-2.2,,45388,45.3,4,2.8
2016,2,2,12:00,UTC,,973.7,91,,,-2.1,,50000,41.7,4.1,2.6
2016,2,2,13:00,UTC,,973.7,91,,,-2.1,,50000,43.2,3.5,2.2
2016,2,2,14:00,UTC,,973.7,92,,,-2.2,,50000,38.6,3.2,2
2016,2,2,15:00,UTC,,974,92,,,-2.3,,50000,31.4,1.9,1.1
2016,2,2,16:00,UTC,,974.2,94,,,-2.7,,44062,18,1.4,0.8
2016,2,2,17:00,UTC,,974.4,95,,,-2.8,,50000,13.4,1.9,1.2
2016,2,2,18:00,UTC,,974.8,95,,,-2.8,,50000,17.5,3,0.8
2016,2,2,19:00,UTC,,975.2,93,,,-2.6,,50000,171.8,1.7,1.2
2016,2,2,20:00,UTC,,975.3,94,,,-2.8,,50000,178.5,2.1,1.3
2016,2,2,21:00,UTC,,975.7,96,,,-3.2,,50000,177,1.8,1
2016,2,2,22:00,UTC,,976.4,96,,,-3.1,,48798,169.8,1.6,1
2016,2,2,23:00,UTC,,976.5,95,,,-3.7,,50000,158.4,1.9,1.5
2016,2,3,00:00,UTC,,977,96,,,-3.5,,35172,152.8,2.3,2
2016,2,3,01:00,UTC,,977.2,96,,,-3.5,,28460,155.9,2.8,2.3
2016,2,3,02:00,UTC,,977.4,96,,,-3.6,,26807,163.1,2.4,1.8
2016,2,3,03:00,UTC,,977.8,96,,,-3.7,,41559,154.3,2.8,2.2
2016,2,3,04:00,UTC,,978.2,96,,,-3.9,,14905,156.4,3.8,2.8
2016,2,3,05:00,UTC,,978.7,95,,,-4.2,,31104,157.4,4.2,3.4
2016,2,3,06:00,UTC,,979.1,95,,,-4.4,,15367,156.4,4.5,3.7
2016,2,3,07:00,UTC,,979.5,95,,,-4.4,,15253,160.5,3,2.1
2016,2,3,08:00,UTC,,980,95,,,-4.2,,48284,161.5,3.7,2.8
2016,2,3,09:00,UTC,,980.5,94,,,-4.3,,50000,159.5,4.4,3
2016,2,3,10:00,UTC,,981.1,92,,,-4.1,,50000,161.5,4.1,2.7
2016,2,3,11:00,UTC,,981.5,91,,,-4.1,,50000,163.6,5.1,3.5
2016,2,3,12:00,UTC,,982.1,92,,,-5.5,,50000,160,4.8,3.1
2016,2,3,13:00,UTC,,983,96,,,-6.9,,30667,155.4,4,2.9
2016,2,3,14:00,UTC,,983.4,95,,,-6.4,,43265,139.9,1.4,0.9
2016,2,3,15:00,UTC,,984,95,,,-6.2,,50000,131.2,2.5,1.4
2016,2,3,16:00,UTC,,984.3,94,,,-5.8,,50000,131.2,5.5,3.3
2016,2,3,17:00,UTC,,984.8,94,,,-6,,37320,142.5,5.9,4.5
2016,2,3,18:00,UTC,,985.1,96,,,-6.6,,8500,149.7,4.8,3.6
2016,2,3,19:00,UTC,,985.6,95,,,-6.2,,50000,151.2,4.5,3.4
2016,2,3,20:00,UTC,,986,94,,,-6.4,,50000,154.3,2.8,1.8
2016,2,3,21:00,UTC,,986.3,94,,,-6.6,,7536,184.7,0.6,0.2
2016,2,3,22:00,UTC,,986.3,94,,,-6.9,,45299,22.6,0.7,0.4
2016,2,3,23:00,UTC,,986.4,95,,,-5.2,,50000,132.2,3.4,2.2
2016,2,4,00:00,UTC,,986.4,94,,,-4.9,,50000,124,3.8,2.2
2016,2,4,01:00,UTC,,986.6,94,,,-4.9,,50000,109.1,5,2.9
2016,2,4,02:00,UTC,,986.5,93,,,-5.6,,50000,105.5,6,4
2016,2,4,03:00,UTC,,986.8,93,,,-6.1,,50000,106.5,4.4,2.6
2016,2,4,04:00,UTC,,986.9,93,,,-6.6,,50000,97.7,5.9,4.2
2016,2,4,05:00,UTC,,987,92,,,-7.1,,50000,102.4,4.4,2.9
2016,2,4,06:00,UTC,,987.2,92,,,-7.2,,50000,91.1,3.8,2.4
2016,2,4,07:00,UTC,,987.3,92,,,-7.2,,50000,90,3.1,2.2
2016,2,4,08:00,UTC,,987.6,92,,,-7.4,,50000,91.1,3.5,2.4
2016,2,4,09:00,UTC,,987.9,93,,,-7.5,,50000,63.8,4.2,2.5
2016,2,4,10:00,UTC,,987.9,92,,,-7.3,,50000,50.9,3.2,1.9
2016,2,4,11:00,UTC,,988.4,92,,,-6.9,,34845,53,1.5,1
2016,2,4,12:00,UTC,,988.8,91,,,-6.7,,50000,55,2.9,1.8
2016,2,4,13:00,UTC,,989.1,91,,,-7,,49749,40.6,2,1.4
2016,2,4,14:00,UTC,,989.6,91,,,-7.1,,50000,73.1,2.7,1.3
2016,2,4,15:00,UTC,,990.2,93,,,-7.1,,50000,13.9,2.1,1
2016,2,4,16:00,UTC,,990.5,91,,,-7.2,,40110,59.7,2.7,1.2
2016,2,4,17:00,UTC,,991,93,,,-7.3,,21892,13.4,3.3,1.6
2016,2,4,18:00,UTC,,991.3,90,,,-7.3,,50000,23.1,2.2,1.2
2016,2,4,19:00,UTC,,991.9,90,,,-7.5,,50000,7.2,2.7,1.5
2016,2,4,20:00,UTC,,992.5,91,,,-7.7,,50000,2.6,3.4,1.9
2016,2,4,21:00,UTC,,992.9,92,,,-7.4,,50000,178.5,2.8,1.6
2016,2,4,22:00,UTC,,993.5,94,,,-7.2,,50000,184.7,3.1,1.9
2016,2,4,23:00,UTC,,994.1,92,,,-7.4,,50000,171.8,2.8,1.7
2016,2,5,00:00,UTC,,994.6,87,,,-7.3,,50000,8.7,3.3,1.9
2016,2,5,01:00,UTC,,995.2,87,,,-7.5,,20607,172.3,2.5,1.5
2016,2,5,02:00,UTC,,995.8,90,,,-7.7,,50000,167.7,5.4,3.1
2016,2,5,03:00,UTC,,996.2,88,,,-9.6,,50000,167.7,4,2.9
2016,2,5,04:00,UTC,,996.9,85,,,-10.2,,50000,165.7,4.1,3.1
2016,2,5,05:00,UTC,,997.5,89,,,-11.8,,50000,169.8,5.1,3.3
2016,2,5,06:00,UTC,,997.9,89,,,-12.9,,50000,169.8,4.6,2.8
2016,2,5,07:00,UTC,,998.7,89,,,-13.8,,50000,166.7,4.3,2.7
2016,2,5,08:00,UTC,,999.5,88,,,-14.8,,50000,151.8,3,2.5
2016,2,5,09:00,UTC,,1000.2,87,,,-13.7,,50000,153.8,3.2,2.3
2016,2,5,10:00,UTC,,1000.7,88,,,-11.8,,50000,150.2,3.5,2.8
2016,2,5,11:00,UTC,,1001.2,88,,,-10.3,,50000,140.4,3.8,2.5
2016,2,5,12:00,UTC,,1001.8,87,,,-9.1,,50000,140.4,4.8,3.6
2016,2,5,13:00,UTC,,1002.4,88,,,-8.7,,38911,150.2,5.1,3.5
2016,2,5,14:00,UTC,,1002.8,86,,,-9.1,,50000,161.5,3.5,2.3
2016,2,5,15:00,UTC,,1003.6,87,,,-9.1,,50000,161.5,2.7,1.9
2016,2,5,16:00,UTC,,1004.3,88,,,-8.9,,50000,146.6,0.8,0.5
2016,2,5,17:00,UTC,,1004.8,89,,,-8.5,,50000,120.9,1.4,0.8
2016,2,5,18:00,UTC,,1005.1,90,,,-8.1,,50000,139.9,1,0.7
2016,2,5,19:00,UTC,,1005.5,91,,,-7.7,,50000,93.1,1.1,0.7
2016,2,5,20:00,UTC,,1005.7,92,,,-7.6,,50000,82.8,1.2,0.6
2016,2,5,21:00,UTC,,1005.8,91,,,-7.7,,45814,71,2.5,1.7
2016,2,5,22:00,UTC,,1006.5,91,,,-7.2,,50000,84.4,3.1,1.4
2016,2,5,23:00,UTC,,1006.6,92,,,-7.2,,50000,72.5,1.9,1.5
2016,2,6,00:00,UTC,,1007,93,,,-5.7,,50000,110.6,2.3,1.8
2016,2,6,01:00,UTC,,1007.3,86,,,-4.4,,50000,115.2,3.3,2.5
2016,2,6,02:00,UTC,,1007.7,87,,,-4.2,,50000,112.7,3.4,2.8
2016,2,6,03:00,UTC,,1007.6,85,,,-4.1,,50000,121.9,2.5,1.9
2016,2,6,04:00,UTC,,1007.6,88,,,-4.4,,50000,103.4,3.1,2
2016,2,6,05:00,UTC,,1007.6,92,,,-4.5,,50000,90.5,2.6,1.6
2016,2,6,06:00,UTC,,1007.5,92,,,-4.5,,50000,87.5,2.7,2
2016,2,6,07:00,UTC,,1007.5,88,,,-4.6,,50000,79.7,4,3
2016,2,6,08:00,UTC,,1007.8,86,,,-5.2,,50000,89.5,4.9,3.3
2016,2,6,09:00,UTC,,1007.8,85,,,-5.7,,50000,82.3,5.4,4
2016,2,6,10:00,UTC,,1007.2,85,,,-5.5,,48028,74.6,6.1,4.6
2016,2,6,11:00,UTC,,1006.4,85,,,-5.4,,48360,74.1,8.3,5.8
2016,2,6,12:00,UTC,,1005.5,85,,,-5.1,,50000,70,9.2,6.8
2016,2,6,13:00,UTC,,1004.4,86,,,-4.8,,50000,67.9,9.3,6.8
2016,2,6,14:00,UTC,,1003.2,87,,,-4.8,,25610,68.9,9.5,6.8
2016,2,6,15:00,UTC,,1002.1,89,,,-5.1,,10229,67.4,10.9,7.9
2016,2,6,16:00,UTC,,1000.4,91,,,-4.9,,5615,66.4,11.7,8.5
2016,2,6,17:00,UTC,,999.4,91,,,-4.6,,7610,71,9.5,7.2
2016,2,6,18:00,UTC,,998.3,89,,,-4.5,,14162,69.4,10.3,7.9
2016,2,6,19:00,UTC,,997.4,92,,,-4.4,,3398,71.5,9.9,7.6
2016,2,6,20:00,UTC,,996,91,,,-4.4,,5889,68.4,12.2,9.3
2016,2,6,21:00,UTC,,995.3,92,,,-4.4,,3813,71,11.4,8.5
2016,2,6,22:00,UTC,,994.3,92,,,-4,,7138,73.6,9.6,7.4
2016,2,6,23:00,UTC,,993.8,93,,,-3.4,,9622,75.1,9.4,7.1
2016,2,7,00:00,UTC,,993.3,95,,,-3.1,,10569,75.1,9,7.1
2016,2,7,01:00,UTC,,992.8,97,,,-2.4,,9688,78.7,7.7,5.4
2016,2,7,02:00,UTC,,992.7,98,,,-1.6,,8628,81.3,6.2,4.9
2016,2,7,03:00,UTC,,992.5,99,,,-0.7,,13880,85.4,5.3,4
2016,2,7,04:00,UTC,,992.9,99,,,0.4,,50000,106,4.7,3.4
2016,2,7,05:00,UTC,,993.4,97,,,0.2,,50000,124,6.8,4.7
2016,2,7,06:00,UTC,,993.7,97,,,-0.3,,50000,118.8,7.3,4.3
2016,2,7,07:00,UTC,,994.4,97,,,-0.4,,18157,119.9,5.8,3.3
2016,2,7,08:00,UTC,,994.8,97,,,-0.1,,50000,116.8,5.1,3.4
2016,2,7,09:00,UTC,,994.8,96,,,0.2,,50000,108,4.1,2.8
2016,2,7,10:00,UTC,,995.1,95,,,0.6,,50000,102.4,5,3.3
2016,2,7,11:00,UTC,,994.9,95,,,0.8,,50000,93.6,4.5,3
2016,2,7,12:00,UTC,,994.8,95,,,1,,50000,85.4,4.1,2.9
2016,2,7,13:00,UTC,,994,97,,,0.7,,23160,68.9,4.7,3.7
2016,2,7,14:00,UTC,,993.2,98,,,0.9,,25233,72,6.8,4.8
2016,2,7,15:00,UTC,,992,98,,,1,,10341,68.9,7.2,5.7
2016,2,7,16:00,UTC,,991.3,98,,,1.5,,10759,81.8,7.5,5.2
2016,2,7,17:00,UTC,,990.8,99,,,1.9,,8892,82.8,7.5,5.4
2016,2,7,18:00,UTC,,990.9,99,,,2.5,,14034,90.5,7,4.7
2016,2,7,19:00,UTC,,990.8,98,,,2.8,,15785,91.6,7.7,4.8
2016,2,7,20:00,UTC,,990.7,95,,,3.2,,28722,92.1,7.7,4.9
2016,2,7,21:00,UTC,,990.4,94,,,3.3,,20556,91.1,8.4,5.1
2016,2,7,22:00,UTC,,990.1,93,,,3.3,,23022,91.6,8,5.1
2016,2,7,23:00,UTC,,989.7,93,,,3.2,,23186,88.5,7,5
2016,2,8,00:00,UTC,,989.4,93,,,3.3,,20950,88,6.5,4.8
2016,2,8,01:00,UTC,,988.7,93,,,3.4,,21183,87.5,8.7,5.5
2016,2,8,02:00,UTC,,987.6,91,,,3.3,,26806,88,8.6,5.8
2016,2,8,03:00,UTC,,986.7,90,,,3.2,,44803,82.8,9.2,6.1
2016,2,8,04:00,UTC,,986.3,92,,,3,,27844,83.9,9.2,6.5
2016,2,8,05:00,UTC,,986.5,92,,,3,,15469,89,8.8,5.9
2016,2,8,06:00,UTC,,986.1,94,,,2.8,,13423,85.9,8.3,5.6
2016,2,8,07:00,UTC,,986,94,,,2.9,,15085,86.9,9.1,5.9
2016,2,8,08:00,UTC,,986.3,93,,,3.1,,24531,89,8.7,5.5
2016,2,8,09:00,UTC,,986.5,90,,,3.2,,32492,88.5,7.6,5
2016,2,8,10:00,UTC,,986.5,88,,,3.4,,50000,89.5,6.4,4.4
2016,2,8,11:00,UTC,,986.4,87,,,3.4,,50000,88,7.1,4.8
2016,2,8,12:00,UTC,,986.2,86,,,3.7,,50000,86.4,7.9,5.5
2016,2,8,13:00,UTC,,986.1,85,,,3.5,,50000,86.9,5.4,4
2016,2,8,14:00,UTC,,985.9,86,,,3.2,,50000,86.4,6.9,4.1
2016,2,8,15:00,UTC,,986,86,,,3.1,,50000,84.9,9.9,4.6
2016,2,8,16:00,UTC,,985.8,88,,,2.6,,50000,85.4,6.9,4.4
2016,2,8,17:00,UTC,,986.2,87,,,2.7,,50000,91.6,6.6,4.2
2016,2,8,18:00,UTC,,986.2,86,,,2.8,,50000,89,5.8,3.8
2016,2,8,19:00,UTC,,986.3,88,,,2.2,,50000,88.5,6.6,4.5
2016,2,8,20:00,UTC,,986.5,88,,,2,,50000,90,6.5,3.9
2016,2,8,21:00,UTC,,986.5,88,,,1.7,,50000,83.9,4,2.9
2016,2,8,22:00,UTC,,986.6,85,,,2.4,,50000,87.5,7,4.7
2016,2,8,23:00,UTC,,986.4,83,,,2.4,,50000,85.9,7,5
2016,2,9,00:00,UTC,,985.8,83,,,2.4,,50000,79.2,6.3,4.7
2016,2,9,01:00,UTC,,985,86,,,2.3,,42957,77.7,8.6,5.3
2016,2,9,02:00,UTC,,984.5,92,,,1.9,,46540,76.1,7.8,5.8
2016,2,9,03:00,UTC,,983.9,93,,,2.2,,37605,78.7,9.1,6.3
2016,2,9,04:00,UTC,,983.6,94,,,2,,7131,76.1,9.4,6.9
2016,2,9,05:00,UTC,,983.2,92,,,1.9,,50000,76.7,9.6,6.8
2016,2,9,06:00,UTC,,983.3,92,,,2,,24950,79.2,9.9,6.6
2016,2,9,07:00,UTC,,983.1,90,,,2.2,,47952,77.7,9.1,6.2
2016,2,9,08:00,UTC,,983.2,93,,,1.9,,50000,77.7,8.9,5.8
2016,2,9,09:00,UTC,,983,91,,,2.1,,50000,78.2,7.7,5.7
2016,2,9,10:00,UTC,,982.6,91,,,2.1,,50000,72.5,6.7,4.9
2016,2,9,11:00,UTC,,982.4,92,,,2,,45300,74.6,6.6,5.2
2016,2,9,12:00,UTC,,982,95,,,1.4,,31512,73.6,6.9,5.2
2016,2,9,13:00,UTC,,981.4,98,,,0.3,,3524,66.4,5.9,4.7
2016,2,9,14:00,UTC,,980.9,99,,,0.5,,36514,68.4,7.2,5.6
2016,2,9,15:00,UTC,,980.7,98,,,0.6,,10079,74.6,6.1,4.2
2016,2,9,16:00,UTC,,980.9,98,,,0.5,,14924,78.2,5.4,4
2016,2,9,17:00,UTC,,980.9,99,,,0.4,,8196,84.4,5.1,3.9
2016,2,9,18:00,UTC,,981.2,99,,,0.9,,50000,86.4,4.3,3
2016,2,9,19:00,UTC,,981.5,98,,,1.3,,50000,91.1,5.6,3.4
2016,2,9,20:00,UTC,,981.6,98,,,1.4,,50000,85.4,2.7,2
2016,2,9,21:00,UTC,,981.7,99,,,1.4,,47574,75.6,2.8,2
2016,2,9,22:00,UTC,,981.6,99,,,1.4,,20589,67.4,3.9,2.7
2016,2,9,23:00,UTC,,981.7,98,,,1.8,,25510,76.1,5.5,3.7
2016,2,10,00:00,UTC,,981.9,98,,,1.2,,16397,78.7,4.1,3
2016,2,10,01:00,UTC,,982.1,98,,,1.1,,13965,83.9,4.3,3.1
2016,2,10,02:00,UTC,,982.5,98,,,1,,27445,83.3,3.6,2.8
2016,2,10,03:00,UTC,,983.2,99,,,1.1,,31350,90.5,4.6,3.1
2016,2,10,04:00,UTC,,983.6,98,,,1.1,,50000,90,3.4,2.4
2016,2,10,05:00,UTC,,984.3,98,,,1.5,,10368,91.6,3.7,2.6
2016,2,10,06:00,UTC,,985.1,99,,,1.6,,21790,89,4.1,2.8
2016,2,10,07:00,UTC,,985.9,99,,,1.7,,15985,91.1,4.7,3.2
2016,2,10,08:00,UTC,,986.9,97,,,1.6,,36327,95.2,4.2,3
2016,2,10,09:00,UTC,,988,98,,,1.8,,20469,92.6,4.2,3
2016,2,10,10:00,UTC,,988.9,99,,,2.3,,10171,95.7,6.2,4.2
2016,2,10,11:00,UTC,,989.6,94,,,2.3,,50000,94.1,7.2,4.7
2016,2,10,12:00,UTC,,990.3,94,,,2.3,,50000,93.6,4.5,3.2
2016,2,10,13:00,UTC,,990.3,94,,,2.4,,50000,83.3,4,3.1
2016,2,10,14:00,UTC,,990.7,95,,,2.2,,50000,80.8,5.8,4
2016,2,10,15:00,UTC,,991.1,94,,,1.8,,50000,67.9,3.5,2.7
2016,2,10,16:00,UTC,,991.2,96,,,1.9,,50000,67.4,6.1,3.7
2016,2,10,17:00,UTC,,991.1,97,,,1.4,,50000,63.8,5.1,4.1
2016,2,10,18:00,UTC,,990.8,96,,,1.8,,50000,57.1,4.6,3.7
2016,2,10,19:00,UTC,,990.6,95,,,2.1,,46753,50.4,4.6,3.4
2016,2,10,20:00,UTC,,989.9,97,,,1.8,,14517,45.3,4.4,3.1
2016,2,10,21:00,UTC,,989.2,96,,,1.3,,20434,49.9,6.5,4.4
2016,2,10,22:00,UTC,,988.8,97,,,0.7,,11049,49.4,5.2,4
2016,2,10,23:00,UTC,,988.4,97,,,0.7,,12422,56.6,6.3,4.7
2016,2,11,00:00,UTC,,987.8,98,,,0.3,,9705,60.2,6.5,5
2016,2,11,01:00,UTC,,988,98,,,0.6,,50000,66.4,5.8,4.5
2016,2,11,02:00,UTC,,988,98,,,0.9,,15367,71,6.3,5
2016,2,11,03:00,UTC,,988.1,98,,,1.2,,50000,81.3,6,4.4
2016,2,11,04:00,UTC,,988.3,97,,,1.7,,50000,79.2,6.3,4.6
2016,2,11,05:00,UTC,,988.8,97,,,1.9,,50000,81.3,6.9,5
2016,2,11,06:00,UTC,,989.1,96,,,2.1,,37631,81.8,6.8,5
2016,2,11,07:00,UTC,,990,97,,,2,,50000,81.8,5.8,4.3
2016,2,11,08:00,UTC,,990.7,97,,,2.2,,50000,84.9,5.3,3.3
2016,2,11,09:00,UTC,,991.2,96,,,2.4,,50000,85.9,4.6,3.3
2016,2,11,10:00,UTC,,991.6,95,,,2.4,,50000,82.8,5.5,3.8
2016,2,11,11:00,UTC,,991.8,96,,,2.2,,48989,78.2,4.1,3.1
2016,2,11,12:00,UTC,,991.9,97,,,2.2,,9366,79.2,4.6,3.4
2016,2,11,13:00,UTC,,992.2,98,,,2,,8566,82.8,4.4,3.3
2016,2,11,14:00,UTC,,992.2,98,,,1.9,,15245,70.5,3.9,2.8
2016,2,11,15:00,UTC,,992.6,97,,,1.8,,50000,77.7,5.2,3.5
2016,2,11,16:00,UTC,,993.1,97,,,1.6,,50000,78.7,4.8,3.3
2016,2,11,17:00,UTC,,993.7,97,,,1.3,,42131,82.8,7.1,3.4
2016,2,11,18:00,UTC,,994,97,,,1.1,,32383,81.8,3.7,2.8
2016,2,11,19:00,UTC,,994,98,,,0.7,,50000,71.5,3.1,2.3
2016,2,11,20:00,UTC,,994.7,98,,,0.6,,10690,75.1,4.4,3.2
2016,2,11,21:00,UTC,,995,99,,,0.3,,10927,73.1,3.7,2.7
2016,2,11,22:00,UTC,,995.3,99,,,0.3,,13232,67.9,2.8,2.4
2016,2,11,23:00,UTC,,995.4,99,,,0.2,,11588,63.3,2.8,2.4
2016,2,12,00:00,UTC,,995.5,99,,,0.3,,18984,61.2,3,2.5
2016,2,12,01:00,UTC,,995.8,99,,,0.4,,12282,45.8,2.4,1.7
2016,2,12,02:00,UTC,,995.5,99,,,0.3,,8020,36,2.6,1.7
2016,2,12,03:00,UTC,,995.5,99,,,0.2,,8380,25.7,2.4,1.6
2016,2,12,04:00,UTC,,995.5,100,,,0.2,,9528,31.4,3.7,2
2016,2,12,05:00,UTC,,995.3,99,,,0.4,,7991,48.4,4.4,3.1
2016,2,12,06:00,UTC,,995.3,99,,,0.2,,4922,53,5.7,4.3
2016,2,12,07:00,UTC,,995.5,99,,,0.3,,5595,53.5,6.1,4.5
2016,2,12,08:00,UTC,,995.8,99,,,0.3,,3035,52.5,5.4,4.1
2016,2,12,09:00,UTC,,995.9,99,,,0.4,,4530,52.5,5.1,4
2016,2,12,10:00,UTC,,995.8,99,,,0.3,,4823,53,5.9,4.5
2016,2,12,11:00,UTC,,995.6,97,,,0.2,,7042,52.5,6.5,4.8
2016,2,12,12:00,UTC,,995.5,98,,,0.1,,3808,51.4,8,4.9
2016,2,12,13:00,UTC,,995.4,99,,,0,,2683,49.9,7.1,4.5
2016,2,12,14:00,UTC,,995.4,99,,,-0.1,,6074,45.8,5.7,4
2016,2,12,15:00,UTC,,995.3,99,,,-0.2,,4088,43.2,5.8,3.7
2016,2,12,16:00,UTC,,995.3,99,,,-0.3,,13393,42.2,5.3,3.6
2016,2,12,17:00,UTC,,995,99,,,-0.3,,29277,44.2,6.4,3.6
2016,2,12,18:00,UTC,,994.7,98,,,-0.2,,50000,41.2,5.7,3.5
2016,2,12,19:00,UTC,,994.4,98,,,-0.2,,7155,38.1,5.4,3.5
2016,2,12,20:00,UTC,,994.2,98,,,-0.1,,50000,40.1,6.1,3.9
2016,2,12,21:00,UTC,,994.2,98,,,-0.2,,8532,42.7,5.6,3.5
2016,2,12,22:00,UTC,,994.1,99,,,-0.1,,10803,42.7,5.3,3.7
2016,2,12,23:00,UTC,,994.1,98,,,-0.2,,14919,45.3,6.3,3.9
2016,2,13,00:00,UTC,,994.1,98,,,-0.4,,50000,42.7,5.5,3.4
2016,2,13,01:00,UTC,,994.3,98,,,-0.1,,8079,47.8,5.3,3.8
2016,2,13,02:00,UTC,,994.7,99,,,0.1,,11548,55,5.7,4.6
2016,2,13,03:00,UTC,,995.3,99,,,0.2,,8590,65.8,6.8,5.5
2016,2,13,04:00,UTC,,996.1,98,,,0.2,,50000,76.7,6.4,4.8
2016,2,13,05:00,UTC,,997,96,,,0,,50000,82.3,8.9,5.7
2016,2,13,06:00,UTC,,998.1,91,,,-0.9,,50000,85.4,7.9,5.2
2016,2,13,07:00,UTC,,999.2,87,,,-1.9,,50000,78.2,7.4,5.2
2016,2,13,08:00,UTC,,1000,90,,,-1.8,,50000,75.1,4.4,3.3
2016,2,13,09:00,UTC,,1000.7,93,,,-1.7,,50000,65.8,5.1,3.8
2016,2,13,10:00,UTC,,1001.1,93,,,-1.5,,50000,56.1,5.5,4.3
2016,2,13,11:00,UTC,,1001.3,94,,,-1.3,,50000,59.7,5.6,4.7
2016,2,13,12:00,UTC,,1001.4,95,,,-0.9,,8219,55.6,5.3,4
2016,2,13,13:00,UTC,,1001.4,97,,,-0.7,,5056,54.5,5.2,4
2016,2,13,14:00,UTC,,1001.6,95,,,-0.7,,50000,62.8,6,5
2016,2,13,15:00,UTC,,1002.2,93,,,-0.5,,50000,71,6.5,4.5
2016,2,13,16:00,UTC,,1002.7,87,,,-1.3,,50000,77.2,4.3,2.9
2016,2,13,17:00,UTC,,1003.2,90,,,-1.5,,50000,81.3,5.4,3.5
2016,2,13,18:00,UTC,,1003.8,93,,,-1.6,,50000,78.2,4.9,3.4
2016,2,13,19:00,UTC,,1004.3,93,,,-2.5,,50000,80.8,5.7,3.5
2016,2,13,20:00,UTC,,1005,94,,,-3.6,,50000,76.1,4.7,3.8
2016,2,13,21:00,UTC,,1005.6,93,,,-3.9,,50000,78.2,5.4,3.7
2016,2,13,22:00,UTC,,1006.4,92,,,-3.8,,20629,78.7,5.8,4.1
2016,2,13,23:00,UTC,,1006.7,92,,,-5.2,,50000,72,4.4,3.3
2016,2,14,00:00,UTC,,1006.8,94,,,-6.5,,50000,70.5,4.9,4.1
2016,2,14,01:00,UTC,,1006.7,93,,,-5.8,,50000,71,5.4,4.6
2016,2,14,02:00,UTC,,1006.3,95,,,-6.8,,50000,63.3,4.9,4.3
2016,2,14,03:00,UTC,,1006,95,,,-7.4,,50000,54.5,4.7,3.1
2016,2,14,04:00,UTC,,1005.3,94,,,-5.1,,50000,47.3,5.5,4
2016,2,14,05:00,UTC,,1004.7,94,,,-3.1,,49354,47.3,6.4,4.3
2016,2,14,06:00,UTC,,1004,95,,,-2.2,,19001,45.8,5.8,4.2
2016,2,14,07:00,UTC,,1003.6,93,,,-1.1,,50000,51.4,7.8,5
2016,2,14,08:00,UTC,,1003.5,95,,,-0.3,,50000,62.2,8.5,6.4
2016,2,14,09:00,UTC,,1003.2,93,,,0.5,,50000,64.8,8.2,6.4
2016,2,14,10:00,UTC,,1002.9,91,,,0.8,,40547,62.8,8.5,6.6
2016,2,14,11:00,UTC,,1002.5,90,,,0.9,,50000,62.2,9.2,7.2
2016,2,14,12:00,UTC,,1002.4,88,,,0.9,,38635,65.3,8.8,7.2
2016,2,14,13:00,UTC,,1002,95,,,0.4,,4786,59.7,8.6,6.7
2016,2,14,14:00,UTC,,1001.5,97,,,0.3,,4846,58.1,9.7,6
2016,2,14,15:00,UTC,,1001.6,97,,,0.2,,4505,63.3,8,6.2
2016,2,14,16:00,UTC,,1001.7,98,,,0.2,,7838,64.8,7.1,5.8
2016,2,14,17:00,UTC,,1001.7,98,,,0.1,,8496,65.8,6.2,4.8
2016,2,14,18:00,UTC,,1002.2,98,,,0.2,,40046,68.9,5.9,4.6
2016,2,14,19:00,UTC,,1002.3,97,,,0.2,,44057,71.5,4.9,3.7
2016,2,14,20:00,UTC,,1002.5,97,,,0.2,,21098,71,5.6,3.7
2016,2,14,21:00,UTC,,1002.7,97,,,0.2,,48409,68.9,4.8,3.6
2016,2,14,22:00,UTC,,1002.8,97,,,0.2,,49929,68.9,5.4,4
2016,2,14,23:00,UTC,,1003.1,97,,,0.1,,45821,73.1,5,3.5
2016,2,15,00:00,UTC,,1003.3,98,,,0.1,,22609,75.1,4.7,3.1
2016,2,15,01:00,UTC,,1003.3,98,,,-0.4,,20784,68.9,3.2,2.6
2016,2,15,02:00,UTC,,1003.4,99,,,-0.3,,36729,69.4,3.4,2.8
2016,2,15,03:00,UTC,,1003.6,99,,,-0.4,,22336,72,3,2.2
2016,2,15,04:00,UTC,,1003.3,99,,,-0.4,,14887,66.4,2.8,2.4
2016,2,15,05:00,UTC,,1003.5,99,,,-0.4,,14743,70,2.6,2.1
2016,2,15,06:00,UTC,,1003.8,99,,,-0.4,,13907,81.8,3.3,1.6
2016,2,15,07:00,UTC,,1004,99,,,-0.2,,12135,86.4,5,1.1
2016,2,15,08:00,UTC,,1004.3,99,,,-0.2,,16154,119.4,2.1,1.3
2016,2,15,09:00,UTC,,1004.5,98,,,-0.1,,17180,128.1,1.2,0.7
2016,2,15,10:00,UTC,,1004.8,99,,,-0.3,,7302,130.7,2.4,1.6
2016,2,15,11:00,UTC,,1004.9,98,,,-0.1,,27000,135.8,2.4,1.3
2016,2,15,12:00,UTC,,1005,99,,,-0.1,,2002,139.4,3.6,2.5
2016,2,15,13:00,UTC,,1005.4,99,,,-1.7,,2721,135.3,6.7,5
2016,2,15,14:00,UTC,,1005.7,99,,,-2.5,,2939,134.8,7.8,5.6
2016,2,15,15:00,UTC,,1006.2,97,,,-3.6,,50000,136.3,7.7,5.6
2016,2,15,16:00,UTC,,1006.7,97,,,-3.9,,7944,134.8,7.4,5.8
2016,2,15,17:00,UTC,,1007.2,97,,,-4.4,,4823,132.7,7,5.5
2016,2,15,18:00,UTC,,1007.7,97,,,-3.6,,4209,132.2,8.1,5.2
2016,2,15,19:00,UTC,,1007.8,96,,,-4.1,,15059,134.3,7.8,5.5
2016,2,15,20:00,UTC,,1008.2,95,,,-4.4,,50000,132.2,6.2,4.6
2016,2,15,21:00,UTC,,1008.7,94,,,-5.3,,50000,135.3,8,5.1
2016,2,15,22:00,UTC,,1009.3,91,,,-8.4,,50000,133.8,5.1,3.6
2016,2,15,23:00,UTC,,1009.7,91,,,-7.8,,50000,138.9,6.9,5.2
2016,2,16,00:00,UTC,,1010.4,90,,,-7.9,,50000,141,6.6,5.6
2016,2,16,01:00,UTC,,1011.1,90,,,-8.5,,50000,138.4,4.5,3.4
2016,2,16,02:00,UTC,,1011.3,90,,,-9.3,,50000,130.7,4.1,3.4
2016,2,16,03:00,UTC,,1011.9,90,,,-8.8,,50000,137.4,4.6,3.4
2016,2,16,04:00,UTC,,1012.3,90,,,-10.1,,50000,143.5,2.9,2.1
2016,2,16,05:00,UTC,,1012.9,89,,,-9.3,,50000,139.9,4.3,3.6
2016,2,16,06:00,UTC,,1013.6,89,,,-9.4,,50000,137.9,4.9,3.5
2016,2,16,07:00,UTC,,1014.3,89,,,-8.8,,50000,138.9,5.1,4.2
2016,2,16,08:00,UTC,,1015,88,,,-8.9,,50000,141,4.8,3.9
2016,2,16,09:00,UTC,,1015.9,86,,,-7.1,,50000,138.9,4.9,3.9
2016,2,16,10:00,UTC,,1016.7,85,,,-6.6,,50000,142.5,5.5,4.2
2016,2,16,11:00,UTC,,1017.1,84,,,-6.1,,47469,141,6.6,5.2
2016,2,16,12:00,UTC,,1017.9,83,,,-5.9,,49828,141,6.3,4.9
2016,2,16,13:00,UTC,,1019,83,,,-5.7,,50000,134.8,6,4.5
2016,2,16,14:00,UTC,,1019.7,84,,,-5.9,,50000,134.8,7.2,5.3
2016,2,16,15:00,UTC,,1019.5,87,,,-6.9,,50000,130.2,3.6,2.6
2016,2,16,16:00,UTC,,1020.3,90,,,-7.7,,50000,131.7,2.6,2
2016,2,16,17:00,UTC,,1021.2,90,,,-7,,50000,129.1,4.2,3.4
2016,2,16,18:00,UTC,,1021.8,92,,,-7,,50000,137.9,4.6,3.7
2016,2,16,19:00,UTC,,1021.8,91,,,-7.1,,50000,129.1,3.6,2.9
2016,2,16,20:00,UTC,,1021.5,95,,,-9.5,,50000,103.4,2.8,1.9
2016,2,16,21:00,UTC,,1021.7,93,,,-10,,50000,95.7,2.7,1.7
2016,2,16,22:00,UTC,,1021.7,91,,,-10.3,,50000,107,2.7,2.3
2016,2,16,23:00,UTC,,1022.1,92,,,-9.1,,50000,110.6,3.3,2.4
2016,2,17,00:00,UTC,,1022.4,93,,,-8.6,,50000,101.9,4.5,3
2016,2,17,01:00,UTC,,1021.9,93,,,-8.9,,50000,85.9,3.8,3
2016,2,17,02:00,UTC,,1021.8,91,,,-11,,50000,65.3,2.6,2.2
2016,2,17,03:00,UTC,,1021.6,93,,,-8.5,,50000,77.2,4.5,3.8
2016,2,17,04:00,UTC,,1021.3,92,,,-8.5,,50000,68.9,4,3.4
2016,2,17,05:00,UTC,,1021,92,,,-7.4,,50000,74.1,4.9,3.3
2016,2,17,06:00,UTC,,1020.6,92,,,-6.2,,50000,80.3,6.5,4.4
2016,2,17,07:00,UTC,,1020.3,92,,,-6.3,,50000,77.2,7.1,4.7
2016,2,17,08:00,UTC,,1019.9,93,,,-5.4,,50000,76.1,8.4,5.8
2016,2,17,09:00,UTC,,1019.3,93,,,-4.7,,50000,76.1,7.7,5.9
2016,2,17,10:00,UTC,,1018.6,93,,,-4,,22388,77.7,8.5,5.6
2016,2,17,11:00,UTC,,1018.1,91,,,-3.2,,35810,79.7,9.7,6.1
2016,2,17,12:00,UTC,,1018.2,91,,,-2.8,,41546,79.2,8,5.4
2016,2,17,13:00,UTC,,1018.1,92,,,-2.4,,14415,77.7,6.6,4.7
2016,2,17,14:00,UTC,,1017.9,94,,,-2.2,,7684,78.7,8.6,6.6
2016,2,17,15:00,UTC,,1018,95,,,-1.9,,14331,84.9,6.3,4.2
2016,2,17,16:00,UTC,,1018.1,96,,,-1.2,,50000,82.8,6.6,3.8
2016,2,17,17:00,UTC,,1018.1,95,,,-0.6,,50000,85.4,5.8,3.9
2016,2,17,18:00,UTC,,1018.2,94,,,-0.1,,50000,90,4.4,3
2016,2,17,19:00,UTC,,1018.3,91,,,0.5,,50000,97.7,6.1,4
2016,2,17,20:00,UTC,,1018.7,91,,,0.7,,50000,100.8,6.3,4.4
2016,2,17,21:00,UTC,,1019,90,,,0.8,,50000,102.9,7,4.6
2016,2,17,22:00,UTC,,1019.1,90,,,0.7,,50000,97.7,6.5,4.2
2016,2,17,23:00,UTC,,1019.4,89,,,0.3,,50000,97.7,5.6,4.1
2016,2,18,00:00,UTC,,1019.6,90,,,-0.6,,50000,92.6,5.9,4.3
2016,2,18,01:00,UTC,,1020.1,88,,,-0.8,,50000,96.7,7.3,5.1
2016,2,18,02:00,UTC,,1020.4,86,,,-0.7,,50000,95.2,7.6,4.8
2016,2,18,03:00,UTC,,1020.4,86,,,-1.4,,50000,94.1,7.5,5.1
2016,2,18,04:00,UTC,,1020.5,85,,,-1.2,,50000,95.2,7.4,5.1
2016,2,18,05:00,UTC,,1020.1,85,,,-1.6,,50000,91.6,6.7,4.2
2016,2,18,06:00,UTC,,1020.6,87,,,-2.1,,50000,88,7.6,5.7
2016,2,18,07:00,UTC,,1020.8,87,,,-3.9,,50000,81.3,7.9,5.4
2016,2,18,08:00,UTC,,1020.8,88,,,-4.6,,50000,81.3,6.3,4.8
2016,2,18,09:00,UTC,,1020.8,87,,,-4.7,,50000,79.2,6.9,5
2016,2,18,10:00,UTC,,1020.4,85,,,-4.4,,50000,76.7,7.4,5.2
2016,2,18,11:00,UTC,,1019.9,80,,,-3.8,,50000,75.6,7.6,5.5
2016,2,18,12:00,UTC,,1019.3,76,,,-3.2,,50000,77.7,6.2,4.6
2016,2,18,13:00,UTC,,1018,73,,,-2.8,,50000,72.5,6.1,4.7
2016,2,18,14:00,UTC,,1017.1,76,,,-2.8,,50000,68.4,8.6,6
2016,2,18,15:00,UTC,,1015.9,74,,,-2.6,,50000,70,7.7,5.2
2016,2,18,16:00,UTC,,1015.5,79,,,-2.5,,12583,78.2,7,4.7
2016,2,18,17:00,UTC,,1014.9,90,,,-2.9,,8208,75.6,7,5.2
2016,2,18,18:00,UTC,,1014.3,89,,,-2.8,,50000,78.2,6.9,5
2016,2,18,19:00,UTC,,1014.1,92,,,-2.7,,25379,81.8,6.1,4.2
2016,2,18,20:00,UTC,,1013.9,93,,,-2.5,,21845,81.8,5.6,4
2016,2,18,21:00,UTC,,1013.6,94,,,-2.3,,9016,83.3,5.6,3.7
2016,2,18,22:00,UTC,,1013.4,93,,,-2.1,,25648,80.8,5.2,4
2016,2,18,23:00,UTC,,1013.3,91,,,-1.9,,50000,79.7,5.6,4
2016,2,19,00:00,UTC,,1013,90,,,-1.7,,50000,79.7,6.3,4.3
2016,2,19,01:00,UTC,,1012.7,94,,,-1.8,,16296,75.1,5.9,3.9
2016,2,19,02:00,UTC,,1012.6,95,,,-1.5,,9885,76.1,5.3,4
2016,2,19,03:00,UTC,,1012.1,94,,,-1.2,,13235,79.7,6,4.2
2016,2,19,04:00,UTC,,1011.6,93,,,-0.8,,50000,85.4,5.9,3.9
2016,2,19,05:00,UTC,,1011.5,94,,,-0.6,,27276,80.8,6.1,4.4
2016,2,19,06:00,UTC,,1011.6,97,,,-0.5,,14593,81.3,6.2,4.4
2016,2,19,07:00,UTC,,1011.6,97,,,-0.3,,12870,81.8,6.3,4.4
2016,2,19,08:00,UTC,,1011.6,96,,,0,,27241,82.8,5.8,4.2
2016,2,19,09:00,UTC,,1011.7,95,,,0.5,,48543,85.9,7.4,4.9
2016,2,19,10:00,UTC,,1011.9,92,,,0.8,,50000,87.5,6.8,4.7
2016,2,19,11:00,UTC,,1011.7,93,,,0.7,,2027,91.6,7.7,4.6
2016,2,19,12:00,UTC,,1011.4,92,,,0.9,,48551,89,5.5,3.9
2016,2,19,13:00,UTC,,1011.3,96,,,0.3,,50000,91.6,5.1,3.7
2016,2,19,14:00,UTC,,1011.3,92,,,0.2,,50000,88,4.5,2.8
2016,2,19,15:00,UTC,,1011.2,89,,,0.3,,50000,89,5.4,3.6
2016,2,19,16:00,UTC,,1010.9,94,,,0.1,,50000,84.9,5.1,3.6
2016,2,19,17:00,UTC,,1010.9,88,,,0.3,,42847,92.6,6.7,4.4
2016,2,19,18:00,UTC,,1010.8,86,,,0.1,,50000,93.1,6.8,4.8
2016,2,19,19:00,UTC,,1010.7,86,,,-0.1,,50000,88.5,9,4.9
2016,2,19,20:00,UTC,,1010.6,86,,,-0.3,,50000,88.5,6.8,5
2016,2,19,21:00,UTC,,1010.2,87,,,-0.6,,50000,83.9,6.3,4.6
2016,2,19,22:00,UTC,,1009.8,89,,,-0.7,,50000,81.8,6.9,5
2016,2,19,23:00,UTC,,1009.6,85,,,-0.6,,50000,88,6.5,4.5
2016,2,20,00:00,UTC,,1009.4,87,,,-0.8,,50000,89,5.9,4.1
2016,2,20,01:00,UTC,,1009.3,88,,,-1.1,,50000,88,5.6,3.8
2016,2,20,02:00,UTC,,1009.3,88,,,-1.2,,50000,90,5.3,3.5
2016,2,20,03:00,UTC,,1009.2,88,,,-0.9,,50000,87.5,5.2,3.6
2016,2,20,04:00,UTC,,1009.1,86,,,-0.8,,50000,86.4,5.5,4
2016,2,20,05:00,UTC,,1008.8,88,,,-0.7,,49308,82.3,5.8,4.4
2016,2,20,06:00,UTC,,1008.8,88,,,-0.6,,50000,83.9,5.6,3.9
2016,2,20,07:00,UTC,,1008.7,90,,,-0.6,,50000,82.8,5.5,3.6
2016,2,20,08:00,UTC,,1008.8,88,,,-0.5,,50000,81.8,6.1,4.5
2016,2,20,09:00,UTC,,1008.8,84,,,-0.3,,48150,85.4,6.6,4.8
2016,2,20,10:00,UTC,,1008.7,79,,,-0.3,,50000,86.9,7.8,5.1
2016,2,20,11:00,UTC,,1008.4,79,,,-0.5,,50000,78.7,5.9,4.5
2016,2,20,12:00,UTC,,1007.6,80,,,-0.7,,48389,71,7.7,4.9
2016,2,20,13:00,UTC,,1006.9,83,,,-0.4,,50000,67.9,6.8,5.2
2016,2,20,14:00,UTC,,1006.1,86,,,0,,50000,65.8,7.3,6
2016,2,20,15:00,UTC,,1005.4,88,,,0.2,,47238,64.8,7.1,5.8
2016,2,20,16:00,UTC,,1004.6,90,,,0,,50000,69.4,8.1,6.2
2016,2,20,17:00,UTC,,1003.7,88,,,-0.2,,42305,67.9,8.7,6.6
2016,2,20,18:00,UTC,,1002.7,90,,,-0.6,,12355,66.9,8.7,6.9
2016,2,20,19:00,UTC,,1001.8,92,,,-0.7,,14179,65.3,9.6,7.1
2016,2,20,20:00,UTC,,1001.1,94,,,-0.8,,7302,65.3,8,6.4
2016,2,20,21:00,UTC,,1000.1,93,,,-0.6,,9251,67.4,8.7,6.9
2016,2,20,22:00,UTC,,999.4,91,,,-0.4,,12707,70,9.6,7.3
2016,2,20,23:00,UTC,,998.8,91,,,-0.5,,8698,71.5,10,7.1
2016,2,21,00:00,UTC,,998,92,,,-0.8,,8921,69.4,9.4,7.2
2016,2,21,01:00,UTC,,997.1,92,,,-1,,14157,68.9,10.5,7.2
2016,2,21,02:00,UTC,,996.5,93,,,-1.1,,7750,69.4,10.4,7.4
2016,2,21,03:00,UTC,,996,91,,,-1.2,,13877,69.4,11.2,8
2016,2,21,04:00,UTC,,995.6,90,,,-1,,49977,71.5,11.7,8.2
2016,2,21,05:00,UTC,,995,86,,,-0.7,,31727,71.5,11.7,8.3
2016,2,21,06:00,UTC,,994.5,91,,,-0.9,,6560,68.9,10.6,8.2
2016,2,21,07:00,UTC,,994.1,92,,,-1,,5267,65.8,11.4,8.7
2016,2,21,08:00,UTC,,993.9,90,,,-0.8,,8477,69.4,13.1,9.5
2016,2,21,09:00,UTC,,993.5,86,,,-0.4,,24649,71.5,14.1,9.4
2016,2,21,10:00,UTC,,993.5,84,,,-0.2,,50000,69.4,11.4,8.3
2016,2,21,11:00,UTC,,993.2,88,,,-0.3,,10156,69.4,11.4,8.8
2016,2,21,12:00,UTC,,993,83,,,0.1,,50000,70.5,10.9,8.5
2016,2,21,13:00,UTC,,992.9,82,,,0.3,,50000,71,11.7,8.3
2016,2,21,14:00,UTC,,993.2,82,,,0.2,,50000,71,11.2,8.1
2016,2,21,15:00,UTC,,993.2,83,,,0.2,,50000,72,10.9,8.1
2016,2,21,16:00,UTC,,993.3,84,,,0.2,,50000,73.1,10.3,7.6
2016,2,21,17:00,UTC,,993,85,,,0.2,,50000,74.1,11,7.9
2016,2,21,18:00,UTC,,993.2,86,,,0.1,,39361,74.1,10.7,7.9
2016,2,21,19:00,UTC,,993,88,,,-0.2,,15124,70.5,11.3,8.5
2016,2,21,20:00,UTC,,993,89,,,-0.5,,48673,67.9,11.2,8.2
2016,2,21,21:00,UTC,,992.9,86,,,-0.6,,50000,68.9,10.6,8
2016,2,21,22:00,UTC,,992.4,85,,,-0.8,,50000,65.8,9.8,7.7
2016,2,21,23:00,UTC,,992.1,83,,,-1.1,,50000,65.3,9.7,7.4
2016,2,22,00:00,UTC,,991.7,83,,,-1.4,,50000,62.8,9.7,7.1
2016,2,22,01:00,UTC,,991.1,84,,,-1.8,,50000,62.8,8.7,6.3
2016,2,22,02:00,UTC,,990.6,85,,,-2.3,,49018,59.7,8.8,6.5
2016,2,22,03:00,UTC,,990.2,89,,,-2.8,,13305,56.6,8.4,6.4
2016,2,22,04:00,UTC,,989.6,90,,,-3,,8884,55,7.8,5.9
2016,2,22,05:00,UTC,,989.1,90,,,-3.1,,11485,52,7.2,5.2
2016,2,22,06:00,UTC,,988.6,90,,,-3.1,,8917,51.4,7.1,5.1
2016,2,22,07:00,UTC,,988.2,91,,,-3.2,,6860,46.8,7.1,4.2
2016,2,22,08:00,UTC,,987.9,88,,,-3,,11266,47.8,6.6,4.8
2016,2,22,09:00,UTC,,987.7,87,,,-3,,5872,49.9,7.1,5.1
2016,2,22,10:00,UTC,,987.4,85,,,-3.1,,10006,47.3,7.7,5.5
2016,2,22,11:00,UTC,,987,85,,,-3.2,,5823,47.8,7.2,5.3
2016,2,22,12:00,UTC,,986.6,86,,,-3.4,,9165,50.4,7.5,4.8
2016,2,22,13:00,UTC,,986.5,87,,,-3.5,,5892,47.3,5.8,4
2016,2,22,14:00,UTC,,986.3,87,,,-3.5,,5851,38.6,4.1,2.8
2016,2,22,15:00,UTC,,986,88,,,-3.9,,6651,39.1,5,2.7
2016,2,22,16:00,UTC,,986,91,,,-4.3,,7522,32.9,3.6,2.2
2016,2,22,17:00,UTC,,985.8,91,,,-4.6,,8532,30.9,3.1,2
2016,2,22,18:00,UTC,,985.6,92,,,-4.8,,11137,31.4,3,1.9
2016,2,22,19:00,UTC,,985.2,92,,,-5.2,,10331,23.7,3.5,1.9
2016,2,22,20:00,UTC,,984.9,92,,,-5.4,,9258,22.1,3,2.1
2016,2,22,21:00,UTC,,984.7,92,,,-5.6,,12503,23.1,3.5,2.1
2016,2,22,22:00,UTC,,984.3,92,,,-5.9,,11042,22.6,2.5,1.6
2016,2,22,23:00,UTC,,984,93,,,-6.1,,10613,11.8,1.7,0.9
2016,2,23,00:00,UTC,,983.6,93,,,-6.2,,8357,1,1.7,0.9
2016,2,23,01:00,UTC,,983.3,94,,,-6.5,,8925,178,1.5,0.9
2016,2,23,02:00,UTC,,983.1,94,,,-7.7,,13686,180.6,1.4,0.8
2016,2,23,03:00,UTC,,983.1,94,,,-7.4,,16044,180.6,1.3,0.9
2016,2,23,04:00,UTC,,983.1,93,,,-7.3,,7329,170.8,1.3,0.8
2016,2,23,05:00,UTC,,983,93,,,-7.7,,4000,161,1.4,1.1
2016,2,23,06:00,UTC,,983,93,,,-8.6,,15534,152.8,1.2,1
2016,2,23,07:00,UTC,,983.3,93,,,-9.5,,4965,165.7,1.8,1.2
2016,2,23,08:00,UTC,,983.4,91,,,-9.4,,12860,145.1,1.8,1.3
2016,2,23,09:00,UTC,,983.9,89,,,-9.4,,32889,127.6,2.5,2.2
2016,2,23,10:00,UTC,,984.2,89,,,-8.9,,25935,133.2,3.1,2
2016,2,23,11:00,UTC,,984.4,94,,,-7.9,,12120,132.7,4.3,3.2
2016,2,23,12:00,UTC,,985,93,,,-7.6,,14694,126.6,5.2,3.5
2016,2,23,13:00,UTC,,985.1,92,,,-7,,37717,133.8,4.1,3.1
2016,2,23,14:00,UTC,,985.4,89,,,-6.5,,50000,132.2,5.2,2.5
2016,2,23,15:00,UTC,,985.8,88,,,-6.1,,36943,121.9,3.2,1.9
2016,2,23,16:00,UTC,,986,89,,,-6.4,,14876,106.5,3.8,1.8
2016,2,23,17:00,UTC,,986.1,92,,,-7.2,,24216,89,2.5,1.8
2016,2,23,18:00,UTC,,986.2,92,,,-7.6,,49085,88,2.9,2.1
2016,2,23,19:00,UTC,,986.2,91,,,-6.4,,50000,89,4.4,3.1
2016,2,23,20:00,UTC,,986.2,90,,,-6.1,,50000,92.1,4.8,3.5
2016,2,23,21:00,UTC,,986.6,88,,,-6.2,,50000,92.6,5.2,3.4
2016,2,23,22:00,UTC,,986.5,87,,,-5.9,,18855,86.9,5.4,4.2
2016,2,23,23:00,UTC,,986.3,87,,,-6,,50000,84.9,5.8,4.3
2016,2,24,00:00,UTC,,986.3,89,,,-6.7,,50000,83.3,5,3.7
2016,2,24,01:00,UTC,,986.5,90,,,-7,,50000,79.2,5.3,4.1
2016,2,24,02:00,UTC,,986.3,89,,,-6.2,,50000,83.3,6.9,4.7
2016,2,24,03:00,UTC,,986.3,89,,,-6.2,,50000,79.2,6.6,4.9
2016,2,24,04:00,UTC,,986.1,91,,,-6.3,,50000,78.2,6.2,4.7
2016,2,24,05:00,UTC,,985.6,91,,,-6,,50000,76.7,7,5.6
2016,2,24,06:00,UTC,,985.8,91,,,-5.4,,50000,80.3,5.9,4.4
2016,2,24,07:00,UTC,,985.8,91,,,-4.8,,28538,77.7,5.7,4.4
2016,2,24,08:00,UTC,,986.2,91,,,-4.3,,21411,81.3,4.4,3.2
2016,2,24,09:00,UTC,,986.2,92,,,-3.7,,13593,82.8,5.5,3.8
2016,2,24,10:00,UTC,,986.5,93,,,-3.4,,6956,81.3,4.4,3.1
2016,2,24,11:00,UTC,,986.7,91,,,-2.7,,48096,85.9,5,3
2016,2,24,12:00,UTC,,987.2,90,,,-2.3,,47133,122.4,4.6,2.6
2016,2,24,13:00,UTC,,987.8,93,,,-3.6,,21031,130.7,4.7,3.5
2016,2,24,14:00,UTC,,988.2,94,,,-6.1,,7297,137.9,5.3,4
2016,2,24,15:00,UTC,,988.9,95,,,-6.3,,7392,134.3,4.2,2.7
2016,2,24,16:00,UTC,,989.5,94,,,-6.4,,4304,138.9,4.2,3.1
2016,2,24,17:00,UTC,,989.9,94,,,-6.4,,836,143,3.6,2.4
2016,2,24,18:00,UTC,,990,94,,,-6.9,,1978,147.6,2.6,2
2016,2,24,19:00,UTC,,990.1,94,,,-6.8,,3479,93.6,1.4,0.9
2016,2,24,20:00,UTC,,990.4,94,,,-6.6,,50000,183.7,1.5,0.9
2016,2,24,21:00,UTC,,990.2,95,,,-5.9,,25687,30.4,1.9,1.2
2016,2,24,22:00,UTC,,990.2,95,,,-5.2,,37205,19.5,1.7,0.9
2016,2,24,23:00,UTC,,989.9,96,,,-3.7,,50000,68.4,5.2,3.3
2016,2,25,00:00,UTC,,989.6,96,,,-3.6,,10837,58.1,6.5,5.2
2016,2,25,01:00,UTC,,988.8,96,,,-3.5,,1435,59.2,7.5,6.1
2016,2,25,02:00,UTC,,988.7,96,,,-3.1,,2711,73.6,5.2,4.1
2016,2,25,03:00,UTC,,989.3,94,,,-5.4,,45207,117.8,7.4,5
2016,2,25,04:00,UTC,,990.2,94,,,-6.3,,44529,123,6.3,4
2016,2,25,05:00,UTC,,990.7,93,,,-8,,16228,126,5.1,3.2
2016,2,25,06:00,UTC,,991.1,93,,,-8.5,,6047,113.2,4.6,3
2016,2,25,07:00,UTC,,991.6,92,,,-8.4,,21126,97.2,4.1,2.7
2016,2,25,08:00,UTC,,991.9,92,,,-7.9,,31536,94.7,4.1,2.5
2016,2,25,09:00,UTC,,992.2,91,,,-7.1,,9266,90,3.6,2.4
2016,2,25,10:00,UTC,,992.5,89,,,-6.9,,15312,112.7,5.6,3.6
2016,2,25,11:00,UTC,,992.8,85,,,-7.5,,17742,120.9,5.1,3.3
2016,2,25,12:00,UTC,,993,83,,,-7,,30218,103.9,6.1,3.7
2016,2,25,13:00,UTC,,993.4,84,,,-6.9,,33309,113.2,5.4,3.5
2016,2,25,14:00,UTC,,993.6,85,,,-6.8,,12737,104.4,3.6,2.7
2016,2,25,15:00,UTC,,993.9,89,,,-6.9,,6952,98.3,4.4,2.3
2016,2,25,16:00,UTC,,994.3,90,,,-7.5,,5691,107.5,2.7,1.7
2016,2,25,17:00,UTC,,994.7,90,,,-7.6,,5919,97.7,2.6,1.7
2016,2,25,18:00,UTC,,995.1,90,,,-7.8,,13426,87.5,2.5,1.7
2016,2,25,19:00,UTC,,995.3,90,,,-7.8,,8201,89.5,3.5,2.4
2016,2,25,20:00,UTC,,995.5,89,,,-8.5,,13452,88.5,4.4,3.2
2016,2,25,21:00,UTC,,996,89,,,-9.3,,36929,93.1,3.6,2.5
2016,2,25,22:00,UTC,,996.1,91,,,-11.1,,17948,79.7,2.9,2.6
2016,2,25,23:00,UTC,,996.2,90,,,-14,,33389,72,3.8,3.1
2016,2,26,00:00,UTC,,996.5,89,,,-14.7,,20992,62.8,3.7,3
2016,2,26,01:00,UTC,,996.6,88,,,-15.6,,11338,62.2,3.8,3.4
2016,2,26,02:00,UTC,,996.7,88,,,-14.9,,7735,67.4,2.8,2.5
2016,2,26,03:00,UTC,,996.6,87,,,-16.1,,39614,63.3,2.5,2.3
2016,2,26,04:00,UTC,,996.8,85,,,-17.5,,45459,45.8,1.9,1.3
2016,2,26,05:00,UTC,,996.6,87,,,-15.4,,39231,51.4,1.6,1
2016,2,26,06:00,UTC,,996.5,86,,,-17.1,,50000,14.4,2.9,2.3
2016,2,26,07:00,UTC,,996.5,86,,,-15.8,,43344,28.3,2.4,1.4
2016,2,26,08:00,UTC,,996.4,87,,,-14.2,,39902,19.5,3.2,2.1
2016,2,26,09:00,UTC,,996.3,88,,,-12.3,,47713,9.3,3.5,2.4
2016,2,26,10:00,UTC,,995.9,89,,,-10.2,,50000,15.9,4.1,2.4
2016,2,26,11:00,UTC,,995.5,88,,,-9.1,,50000,22.1,4.9,3.1
2016,2,26,12:00,UTC,,995.3,87,,,-8.2,,50000,18.5,5.6,3.1
2016,2,26,13:00,UTC,,995.1,84,,,-7.7,,50000,22.6,5.6,3
2016,2,26,14:00,UTC,,995,85,,,-7.2,,50000,15.4,6.2,3.5
2016,2,26,15:00,UTC,,994.6,89,,,-7.1,,7000,17.5,6.4,4
2016,2,26,16:00,UTC,,994.4,90,,,-7.1,,10902,19,6.9,4.3
2016,2,26,17:00,UTC,,994.4,89,,,-7,,20652,15.4,6.3,3.7
2016,2,26,18:00,UTC,,994.2,89,,,-6.9,,13181,16.5,5.7,3.7
2016,2,26,19:00,UTC,,994.3,89,,,-7.6,,50000,12.3,5.2,3.1
2016,2,26,20:00,UTC,,994.4,89,,,-8,,50000,8.7,5.1,3.4
2016,2,26,21:00,UTC,,994.7,89,,,-7.6,,50000,7.2,4.3,2.5
2016,2,26,22:00,UTC,,994.9,90,,,-7.5,,15276,0.5,2.4,1.5
2016,2,26,23:00,UTC,,995.3,90,,,-7.8,,10888,181.1,3.1,1.6
2016,2,27,00:00,UTC,,995.4,90,,,-8.2,,9646,177.5,2.4,1.5
2016,2,27,01:00,UTC,,995.6,90,,,-8.4,,13264,175.9,2.2,1.2
2016,2,27,02:00,UTC,,996,91,,,-8.3,,48458,171.3,1.9,1.2
2016,2,27,03:00,UTC,,996.1,91,,,-7.9,,50000,171.3,1.8,1.1
2016,2,27,04:00,UTC,,996.5,92,,,-7.7,,50000,155.4,3.3,2.4
2016,2,27,05:00,UTC,,996.9,90,,,-9,,50000,162,3.2,2.5
2016,2,27,06:00,UTC,,997.3,89,,,-9.2,,50000,127.6,2.4,1.8
2016,2,27,07:00,UTC,,997.8,88,,,-9.4,,50000,141,5,3.7
2016,2,27,08:00,UTC,,998.4,88,,,-9,,50000,136.8,3.1,2.3
2016,2,27,09:00,UTC,,998.8,88,,,-8.6,,46976,129.1,3.7,2.8
2016,2,27,10:00,UTC,,999.3,92,,,-7.6,,14888,132.2,5.5,4.2
2016,2,27,11:00,UTC,,999.8,91,,,-7.1,,23152,137.9,6.9,4.7
2016,2,27,12:00,UTC,,1000.3,87,,,-8,,46270,143,7.2,5.8
2016,2,27,13:00,UTC,,1000.8,88,,,-7.9,,10753,139.9,3.8,2.9
2016,2,27,14:00,UTC,,1001.1,86,,,-7.9,,50000,130.2,1.8,1.3
2016,2,27,15:00,UTC,,1001.2,91,,,-9.4,,26709,67.9,1.3,0.7
2016,2,27,16:00,UTC,,1001.4,94,,,-11.3,,9207,55.6,2.4,1.7
2016,2,27,17:00,UTC,,1001.7,92,,,-11,,30237,62.2,3.5,3
2016,2,27,18:00,UTC,,1001.9,91,,,-9.1,,30277,67.9,4.2,3.4
2016,2,27,19:00,UTC,,1002,89,,,-8.3,,47943,62.8,4.6,4
2016,2,27,20:00,UTC,,1002,87,,,-8.1,,49953,67.9,4.9,3.9
2016,2,27,21:00,UTC,,1002.1,87,,,-8.1,,41644,62.2,3.9,3.4
2016,2,27,22:00,UTC,,1002.5,88,,,-8.4,,50000,62.2,4,3.4
2016,2,27,23:00,UTC,,1002.9,88,,,-8,,44403,57.6,4.6,3.5
2016,2,28,00:00,UTC,,1003.2,87,,,-8,,50000,53.5,4.2,3.1
2016,2,28,01:00,UTC,,1003.7,88,,,-8,,47146,28.8,2.1,1.2
2016,2,28,02:00,UTC,,1004,88,,,-8.1,,21565,40.1,2.6,1.6
2016,2,28,03:00,UTC,,1004.8,89,,,-8.1,,50000,18.5,1.3,0.7
2016,2,28,04:00,UTC,,1005.6,89,,,-8.2,,50000,11.3,1.2,0.7
2016,2,28,05:00,UTC,,1006.3,89,,,-8.4,,16782,2.6,1.8,1.1
2016,2,28,06:00,UTC,,1007.1,89,,,-8.6,,7057,6.2,1.6,1.2
2016,2,28,07:00,UTC,,1008,89,,,-8.4,,12903,3.6,1.4,0.9
2016,2,28,08:00,UTC,,1008.8,87,,,-8.2,,8104,178,1.6,0.9
2016,2,28,09:00,UTC,,1009.8,85,,,-8,,4205,173.9,1.9,1.1
2016,2,28,10:00,UTC,,1010.7,84,,,-8.8,,10871,176.5,3.3,2.4
2016,2,28,11:00,UTC,,1011.4,84,,,-8.9,,10831,157.9,4.1,2.9
2016,2,28,12:00,UTC,,1012.1,84,,,-9.9,,15934,153.8,4.9,3.6
2016,2,28,13:00,UTC,,1012.8,84,,,-9.9,,5633,152.8,3.4,2.7
2016,2,28,14:00,UTC,,1013.3,83,,,-10,,47949,139.9,3.1,2
2016,2,28,15:00,UTC,,1014,86,,,-12,,50000,144,5.9,4
2016,2,28,16:00,UTC,,1014.7,89,,,-13.3,,39620,138.9,3.7,3.1
2016,2,28,17:00,UTC,,1015.3,88,,,-14.5,,12166,133.2,1.9,1.4
2016,2,28,18:00,UTC,,1015.8,89,,,-14.3,,50000,104.4,2.1,1.5
2016,2,28,19:00,UTC,,1016.3,85,,,-17.3,,50000,97.2,1.6,1.2
2016,2,28,20:00,UTC,,1016.5,86,,,-16.7,,48625,100.3,2,1.6
2016,2,28,21:00,UTC,,1017,85,,,-16.5,,50000,81.8,2.3,1.6
2016,2,28,22:00,UTC,,1017,86,,,-16.1,,50000,80.8,2.1,1.5
2016,2,28,23:00,UTC,,1017,85,,,-17.1,,50000,71,3.2,2.2
2016,2,29,00:00,UTC,,1017.1,85,,,-17.5,,50000,74.1,3,2.4
2016,2,29,01:00,UTC,,1017.1,85,,,-17.3,,50000,73.1,2.7,2.1
2016,2,29,02:00,UTC,,1017.2,84,,,-17.4,,50000,78.2,2.2,1.8
2016,2,29,03:00,UTC,,1017.4,85,,,-16.6,,50000,74.1,2.4,1.9
2016,2,29,04:00,UTC,,1017.4,85,,,-17,,50000,72,2.6,2
2016,2,29,05:00,UTC,,1017.9,84,,,-17.3,,50000,73.1,4.1,2.4
2016,2,29,06:00,UTC,,1018.1,84,,,-17.5,,50000,71,2.3,1.8
2016,2,29,07:00,UTC,,1018.6,85,,,-16.1,,9117,77.2,2.8,2
2016,2,29,08:00,UTC,,1019,87,,,-13.3,,44182,75.6,2.3,1.7
2016,2,29,09:00,UTC,,1019.3,88,,,-11.5,,50000,76.1,3.2,2.7
2016,2,29,10:00,UTC,,1019.5,89,,,-9.8,,28662,75.1,2.9,2.3
2016,2,29,11:00,UTC,,1019.5,88,,,-8.4,,48435,77.2,3,2.4
2016,2,29,12:00,UTC,,1019.5,79,,,-6.7,,43903,79.7,2.8,2
2016,2,29,13:00,UTC,,1019.5,79,,,-5.1,,50000,100.8,4.7,2.7
2016,2,29,14:00,UTC,,1019.8,80,,,-5.4,,50000,94.7,2.7,1.8
2016,2,29,15:00,UTC,,1019.7,85,,,-6.2,,50000,83.3,2.6,2
2016,2,29,16:00,UTC,,1019.8,90,,,-6.6,,50000,86.9,3.2,2.5
2016,2,29,17:00,UTC,,1020,92,,,-7.8,,50000,81.8,3.7,2.6
2016,2,29,18:00,UTC,,1019.9,93,,,-7.5,,50000,81.3,3,2.5
2016,2,29,19:00,UTC,,1019.8,93,,,-8,,49105,69.4,2.6,1.7
2016,2,29,20:00,UTC,,1019.4,93,,,-7.7,,50000,82.3,2.3,1.9
2016,2,29,21:00,UTC,,1019.4,94,,,-5.3,,50000,99.8,3.3,2.5
2016,2,29,22:00,UTC,,1019.5,94,,,-5.5,,50000,97.7,3.4,2.5
2016,2,29,23:00,UTC,,1019.3,95,,,-5.7,,50000,99.8,3.7,2.8
2016,3,1,00:00,UTC,,1019.5,94,,,-5.5,,50000,95.7,4.5,3.1
2016,3,1,01:00,UTC,,1019,94,,,-4.2,,50000,106.5,6.4,3.9
2016,3,1,02:00,UTC,,1019,93,,,-3.1,,50000,117.8,5.4,3.3
2016,3,1,03:00,UTC,,1019,93,,,-2.9,,50000,110.1,3.7,2.4
2016,3,1,04:00,UTC,,1018.7,90,,,-2.9,,50000,102.9,4.5,3.4
2016,3,1,05:00,UTC,,1018.6,90,,,-3.8,,50000,95.7,4.3,3
2016,3,1,06:00,UTC,,1018.6,92,,,-4.8,,50000,87.5,3.3,2.3
2016,3,1,07:00,UTC,,1018.6,92,,,-5.1,,50000,85.9,4.6,3.3
2016,3,1,08:00,UTC,,1018.3,91,,,-4.8,,50000,86.9,5.5,3.6
2016,3,1,09:00,UTC,,1018.1,86,,,-3.5,,47936,82.8,5.3,3.9
2016,3,1,10:00,UTC,,1017.9,80,,,-2.3,,35803,78.7,5.1,3.5
2016,3,1,11:00,UTC,,1017.7,74,,,-1.1,,34018,83.3,5.5,3.8
2016,3,1,12:00,UTC,,1017.1,71,,,-0.3,,49386,88,4.7,2.8
2016,3,1,13:00,UTC,,1016.7,68,,,0.2,,46316,91.1,4.2,2.8
2016,3,1,14:00,UTC,,1016.3,69,,,-0.1,,50000,89,4.4,2.8
2016,3,1,15:00,UTC,,1015.8,72,,,-0.8,,50000,81.3,4.9,3.6
2016,3,1,16:00,UTC,,1015.6,78,,,-2.2,,50000,77.2,4.8,3.5
2016,3,1,17:00,UTC,,1015.3,79,,,-2.3,,50000,77.7,5.4,4.4
2016,3,1,18:00,UTC,,1015.3,82,,,-2.7,,50000,77.7,5.1,4
2016,3,1,19:00,UTC,,1015.1,83,,,-3.4,,50000,79.2,6,4.2
2016,3,1,20:00,UTC,,1015,87,,,-4.2,,50000,75.1,4.5,3.8
2016,3,1,21:00,UTC,,1015.2,88,,,-4.6,,50000,76.7,5.2,3.8
2016,3,1,22:00,UTC,,1014.9,86,,,-4.3,,50000,74.1,6,4.8
2016,3,1,23:00,UTC,,1014.4,85,,,-4.3,,50000,74.6,5.3,4.2
2016,3,2,00:00,UTC,,1014.2,84,,,-4.9,,50000,77.2,5.7,4.2
2016,3,2,01:00,UTC,,1013.9,89,,,-7.6,,50000,68.4,4.3,3.6
2016,3,2,02:00,UTC,,1013.5,89,,,-8.6,,50000,65.3,4.4,3.9
2016,3,2,03:00,UTC,,1013.1,89,,,-6.8,,50000,70,5.5,4.3
2016,3,2,04:00,UTC,,1012.9,87,,,-6.4,,50000,66.9,5.4,4.3
2016,3,2,05:00,UTC,,1012.7,82,,,-5.4,,50000,74.6,7.4,5.6
2016,3,2,06:00,UTC,,1012.6,82,,,-5.8,,50000,73.6,8.4,6
2016,3,2,07:00,UTC,,1012.6,82,,,-6.3,,50000,72.5,7.7,5.9
2016,3,2,08:00,UTC,,1012.5,82,,,-6,,50000,70.5,7.6,5.5
2016,3,2,09:00,UTC,,1012,77,,,-5,,50000,70,7.4,5.3
2016,3,2,10:00,UTC,,1011.8,73,,,-4.4,,46724,64.3,8.8,6.8
2016,3,2,11:00,UTC,,1011.3,69,,,-3.5,,39106,65.3,10.2,8.2
2016,3,2,12:00,UTC,,1011,68,,,-3.4,,50000,66.4,9.6,7.3
2016,3,2,13:00,UTC,,1010.6,70,,,-4,,48158,62.2,8.3,6.5
2016,3,2,14:00,UTC,,1010.5,70,,,-4.4,,50000,62.8,8.1,6.4
2016,3,2,15:00,UTC,,1010.5,75,,,-6,,50000,56.1,8,6.1
2016,3,2,16:00,UTC,,1010.3,80,,,-6.9,,50000,56.1,8,6.7
2016,3,2,17:00,UTC,,1010.3,83,,,-8.2,,50000,63.3,7,5.6
2016,3,2,18:00,UTC,,1010.3,84,,,-8.3,,50000,59.7,6.3,5.3
2016,3,2,19:00,UTC,,1010.5,86,,,-8.1,,50000,51.4,4.4,3.3
2016,3,2,20:00,UTC,,1010.5,89,,,-9.2,,50000,55.6,4.1,3.4
2016,3,2,21:00,UTC,,1010.7,88,,,-8.2,,50000,65.8,5.7,3.9
2016,3,2,22:00,UTC,,1010.7,87,,,-7.9,,50000,64.3,6.7,5.2
2016,3,2,23:00,UTC,,1010.9,86,,,-7.7,,50000,65.3,5.8,4.7
2016,3,3,00:00,UTC,,1011.2,89,,,-8.4,,50000,53.5,4.4,3.2
2016,3,3,01:00,UTC,,1011.2,89,,,-8.8,,50000,56.1,5.6,3.8
2016,3,3,02:00,UTC,,1011.4,88,,,-8.7,,50000,57.1,5.9,4.6
2016,3,3,03:00,UTC,,1011.8,89,,,-10.2,,50000,59.7,4.5,3.4
2016,3,3,04:00,UTC,,1011.9,89,,,-10.2,,50000,53.5,5,3.8
2016,3,3,05:00,UTC,,1011.8,89,,,-10.8,,50000,55.6,5.6,4.1
2016,3,3,06:00,UTC,,1011.9,88,,,-10.6,,50000,59.2,4.5,3.8
2016,3,3,07:00,UTC,,1011.9,84,,,-9,,50000,66.4,9.5,6
2016,3,3,08:00,UTC,,1012.1,81,,,-8.8,,50000,63.8,7.7,6
2016,3,3,09:00,UTC,,1012.3,79,,,-7.9,,50000,63.8,7.4,5.8
2016,3,3,10:00,UTC,,1012.3,74,,,-5.9,,44345,64.8,8,5.9
2016,3,3,11:00,UTC,,1012.4,72,,,-5,,50000,65.8,7.9,6.3
2016,3,3,12:00,UTC,,1012.6,71,,,-4.7,,49291,68.9,6.1,5
2016,3,3,13:00,UTC,,1012.4,72,,,-4.6,,50000,66.4,6.4,4.9
2016,3,3,14:00,UTC,,1012.3,74,,,-5.1,,50000,61.2,4.6,4.2
2016,3,3,15:00,UTC,,1012.2,74,,,-5.4,,50000,61.7,5.6,4.8
2016,3,3,16:00,UTC,,1012.4,75,,,-5.5,,50000,71,6.3,4.5
2016,3,3,17:00,UTC,,1012.6,80,,,-7.3,,50000,66.4,4.7,3.5
2016,3,3,18:00,UTC,,1012.9,80,,,-7.1,,50000,66.9,7.5,5.6
2016,3,3,19:00,UTC,,1013.4,81,,,-6.7,,50000,68.9,6.3,5
2016,3,3,20:00,UTC,,1014,81,,,-6,,50000,78.2,8,5.9
2016,3,3,21:00,UTC,,1014.3,82,,,-5.8,,50000,78.2,6.7,4.8
2016,3,3,22:00,UTC,,1014.9,84,,,-6.3,,50000,88,6.9,5.2
2016,3,3,23:00,UTC,,1015.6,83,,,-7.1,,50000,86.9,8.7,4.9
2016,3,4,00:00,UTC,,1016,84,,,-7.7,,50000,84.9,7.4,5.5
2016,3,4,01:00,UTC,,1016,85,,,-7.7,,50000,76.7,5.2,3.9
2016,3,4,02:00,UTC,,1016,86,,,-7.3,,50000,73.1,5.8,4.1
2016,3,4,03:00,UTC,,1016.1,88,,,-7.1,,45684,72,5.8,4.4
2016,3,4,04:00,UTC,,1016,84,,,-6.7,,50000,70.5,5.8,4.5
2016,3,4,05:00,UTC,,1016.4,85,,,-6.4,,50000,68.4,5.4,4.1
2016,3,4,06:00,UTC,,1016.5,86,,,-6.7,,49020,63.3,6.9,5.1
2016,3,4,07:00,UTC,,1016.8,82,,,-6.5,,50000,64.8,6.4,4.8
2016,3,4,08:00,UTC,,1016.9,81,,,-6.1,,50000,66.4,7.5,5.6
2016,3,4,09:00,UTC,,1017.1,82,,,-5.6,,50000,64.8,7.2,5.3
2016,3,4,10:00,UTC,,1017.3,82,,,-5.1,,50000,65.3,6.6,5.2
2016,3,4,11:00,UTC,,1017.1,82,,,-4.7,,50000,65.8,7.2,5.3
2016,3,4,12:00,UTC,,1016.6,81,,,-4.3,,46634,61.2,6,5
2016,3,4,13:00,UTC,,1016.5,81,,,-4.1,,50000,62.8,6.9,5.5
2016,3,4,14:00,UTC,,1016.2,80,,,-3.7,,50000,60.7,5.5,4.4
2016,3,4,15:00,UTC,,1016.2,81,,,-3.4,,50000,60.7,6.7,5.2
2016,3,4,16:00,UTC,,1016.1,83,,,-3.6,,49403,59.2,5.8,4.5
2016,3,4,17:00,UTC,,1016,85,,,-3.6,,43539,61.7,5.6,4.6
2016,3,4,18:00,UTC,,1015.8,88,,,-3.7,,35871,60.2,6,4.4
2016,3,4,19:00,UTC,,1015.6,89,,,-3.6,,47406,59.7,5.4,4.6
2016,3,4,20:00,UTC,,1015.5,89,,,-3.5,,40258,63.3,5.9,4.9
2016,3,4,21:00,UTC,,1015.5,88,,,-3.4,,50000,62.2,5.5,4.7
2016,3,4,22:00,UTC,,1015.3,89,,,-3.4,,29172,59.7,4.5,4
2016,3,4,23:00,UTC,,1015.1,90,,,-3,,31330,62.8,5.7,4.6
2016,3,5,00:00,UTC,,1014.8,89,,,-2.7,,45743,65.8,8.4,6
2016,3,5,01:00,UTC,,1014.6,90,,,-2.7,,13638,66.4,6.1,4.9
2016,3,5,02:00,UTC,,1014,91,,,-2.9,,15814,60.7,5.6,4.7
2016,3,5,03:00,UTC,,1013.6,91,,,-2.9,,37124,55,5.3,3.8
2016,3,5,04:00,UTC,,1013.6,92,,,-3,,10020,56.6,5,3.7
2016,3,5,05:00,UTC,,1013.1,91,,,-3.1,,29536,55.6,6.4,4.5
2016,3,5,06:00,UTC,,1012.8,91,,,-3.1,,12111,58.1,6,4.9
2016,3,5,07:00,UTC,,1012.6,90,,,-3,,42482,62.8,6.2,5.1
2016,3,5,08:00,UTC,,1012.5,89,,,-2.8,,13772,63.3,7,5.3
2016,3,5,09:00,UTC,,1012.3,88,,,-2.7,,29340,63.3,6.6,5.3
2016,3,5,10:00,UTC,,1012.5,85,,,-2.2,,40908,74.6,5,3.5
2016,3,5,11:00,UTC,,1012.1,86,,,-2.1,,50000,66.9,5.8,4.7
2016,3,5,12:00,UTC,,1011.9,86,,,-1.9,,50000,62.2,5.4,4.6
2016,3,5,13:00,UTC,,1011.9,85,,,-1.6,,22565,63.3,5.5,4.4
2016,3,5,14:00,UTC,,1011.7,84,,,-1.4,,50000,63.8,5.2,4
2016,3,5,15:00,UTC,,1011.5,87,,,-1.8,,49245,63.3,4.4,3.8
2016,3,5,16:00,UTC,,1011.7,87,,,-1.8,,50000,64.3,4.5,3.5
2016,3,5,17:00,UTC,,1011.6,93,,,-2,,10142,62.8,4.4,3.6
2016,3,5,18:00,UTC,,1011.6,94,,,-2.3,,11452,60.7,3.9,3.3
2016,3,5,19:00,UTC,,1011.6,95,,,-2.6,,18848,61.7,2.9,2.5
2016,3,5,20:00,UTC,,1011.9,95,,,-2.7,,7639,70.5,2.8,1.9
2016,3,5,21:00,UTC,,1011.9,95,,,-2.9,,14968,58.6,2.4,2.2
2016,3,5,22:00,UTC,,1011.9,96,,,-2.9,,13137,62.2,2.1,1.8
2016,3,5,23:00,UTC,,1011.8,97,,,-2.8,,14634,59.7,2.7,2.2
2016,3,6,00:00,UTC,,1011.6,97,,,-3,,17367,60.7,3,2.5
2016,3,6,01:00,UTC,,1011.7,97,,,-2.5,,26868,68.4,2.1,1.5
2016,3,6,02:00,UTC,,1011.4,96,,,-2.3,,46754,57.6,2.8,1.9
2016,3,6,03:00,UTC,,1011.3,96,,,-2.7,,37197,43.7,1.4,0.6
2016,3,6,04:00,UTC,,1011.3,97,,,-4.5,,1008,47.3,1,0.7
2016,3,6,05:00,UTC,,1011.4,97,,,-8.8,,843,17,1.1,0.7
2016,3,6,06:00,UTC,,1011.6,94,,,-7.8,,49080,5.1,0.8,0.5
2016,3,6,07:00,UTC,,1011.5,95,,,-5.2,,3190,17.5,1.3,0.7
2016,3,6,08:00,UTC,,1011.8,96,,,-4.1,,602,55,3.3,2.4
2016,3,6,09:00,UTC,,1012,97,,,-3.1,,909,63.8,3.5,2.7
2016,3,6,10:00,UTC,,1011.9,98,,,-1.9,,12369,68.4,3.3,2.3
2016,3,6,11:00,UTC,,1011.6,98,,,-1.2,,50000,48.4,4.7,3.1
2016,3,6,12:00,UTC,,1011.3,87,,,-0.1,,50000,35.5,3.5,2
2016,3,6,13:00,UTC,,1011.1,83,,,0.4,,50000,22.6,2.6,1.4
2016,3,6,14:00,UTC,,1010.8,78,,,0.9,,50000,48.9,5.8,3.7
2016,3,6,15:00,UTC,,1010.5,79,,,0.9,,50000,46.3,4.6,3.3
2016,3,6,16:00,UTC,,1010.6,80,,,0.7,,50000,47.8,3.9,3
2016,3,6,17:00,UTC,,1010.5,79,,,0.6,,50000,48.4,4.2,3
2016,3,6,18:00,UTC,,1010.5,82,,,0.4,,50000,42.2,3.3,2.1
2016,3,6,19:00,UTC,,1010.6,82,,,0.6,,50000,47.3,5.1,3.7
2016,3,6,20:00,UTC,,1010.7,82,,,0.5,,50000,52.5,7,5
2016,3,6,21:00,UTC,,1010.7,83,,,0.2,,20345,52.5,6.7,4.4
2016,3,6,22:00,UTC,,1010.5,86,,,-0.2,,11683,49.9,6.6,4.3
2016,3,6,23:00,UTC,,1010.5,83,,,-0.1,,50000,49.9,5.9,3.9
2016,3,7,00:00,UTC,,1010,83,,,-0.3,,50000,46.8,5.4,3.6
2016,3,7,01:00,UTC,,1009.6,84,,,-0.5,,50000,47.8,6.8,3.7
2016,3,7,02:00,UTC,,1009.7,85,,,-0.8,,46932,49.9,5.4,3.8
2016,3,7,03:00,UTC,,1009.4,85,,,-0.8,,50000,52.5,6,4.5
2016,3,7,04:00,UTC,,1009.3,84,,,-0.9,,50000,51.4,5.8,4.4
2016,3,7,05:00,UTC,,1009,84,,,-1.1,,50000,49.9,5.9,4.2
2016,3,7,06:00,UTC,,1009,83,,,-1.3,,50000,53,7.4,4.7
2016,3,7,07:00,UTC,,1008.8,85,,,-1.4,,14962,54.5,6.8,4.9
2016,3,7,08:00,UTC,,1008.6,86,,,-1.2,,48582,54,7.3,5
2016,3,7,09:00,UTC,,1008.4,85,,,-0.9,,50000,58.1,7.3,5.9
2016,3,7,10:00,UTC,,1008.4,84,,,-0.5,,50000,57.1,6.5,5.3
2016,3,7,11:00,UTC,,1008.1,85,,,-0.3,,42296,50.9,5.7,4.4
2016,3,7,12:00,UTC,,1007.8,87,,,-0.2,,35548,58.6,9.4,5.7
2016,3,7,13:00,UTC,,1007.6,84,,,0.1,,50000,61.7,8.4,6.7
2016,3,7,14:00,UTC,,1007.5,86,,,0.2,,50000,60.2,6.4,4.9
2016,3,7,15:00,UTC,,1007.4,86,,,0.3,,50000,60.7,6.2,5.1
2016,3,7,16:00,UTC,,1007.3,84,,,0.6,,50000,59.7,5.7,4.7
2016,3,7,17:00,UTC,,1007.2,85,,,0.5,,50000,53,4.8,3.8
2016,3,7,18:00,UTC,,1007.3,86,,,0.6,,50000,55.6,5.4,4.2
2016,3,7,19:00,UTC,,1007.5,94,,,0.1,,7288,59.7,5.1,4.1
2016,3,7,20:00,UTC,,1007.5,97,,,-0.2,,8196,61.7,4.9,3.8
2016,3,7,21:00,UTC,,1007.5,98,,,-0.2,,14543,65.3,4.4,3.4
2016,3,7,22:00,UTC,,1007.8,97,,,-0.2,,23529,65.3,4.2,3.1
2016,3,7,23:00,UTC,,1008.2,96,,,0.1,,44156,79.2,6.5,3.5
2016,3,8,00:00,UTC,,1008.3,96,,,0.4,,50000,78.7,4.9,3.5
2016,3,8,01:00,UTC,,1008.7,98,,,0.4,,8518,78.7,4.5,3.3
2016,3,8,02:00,UTC,,1009,98,,,0.8,,23371,80.8,4.4,3.3
2016,3,8,03:00,UTC,,1009.2,96,,,1,,40022,80.8,4.7,3.3
2016,3,8,04:00,UTC,,1009.3,94,,,1.1,,50000,81.8,4.7,3.3
2016,3,8,05:00,UTC,,1009.6,93,,,1.2,,50000,80.8,5.7,4.1
2016,3,8,06:00,UTC,,1010,94,,,1,,47350,78.2,4.5,3.6
2016,3,8,07:00,UTC,,1010.3,93,,,1.2,,48755,80.3,6.3,3.8
2016,3,8,08:00,UTC,,1010.7,87,,,1.7,,50000,87.5,4.2,3
2016,3,8,09:00,UTC,,1010.7,86,,,1.8,,47443,73.6,4.3,2.7
2016,3,8,10:00,UTC,,1010.5,80,,,2.6,,50000,73.6,6.7,4.1
2016,3,8,11:00,UTC,,1010.5,79,,,2.7,,50000,76.7,5.7,4
2016,3,8,12:00,UTC,,1010.6,76,,,3,,50000,76.1,5.5,4.2
2016,3,8,13:00,UTC,,1010.4,77,,,2.9,,50000,73.6,5.2,3.8
2016,3,8,14:00,UTC,,1010.4,73,,,3,,50000,70.5,4.1,3.1
2016,3,8,15:00,UTC,,1010.6,75,,,2.8,,50000,73.6,4.2,2.7
2016,3,8,16:00,UTC,,1011,79,,,2.3,,32790,81.8,2.8,2.2
2016,3,8,17:00,UTC,,1010.9,93,,,1,,32200,66.9,1.3,0.9
2016,3,8,18:00,UTC,,1011.2,91,,,1.2,,50000,81.8,1.6,1
2016,3,8,19:00,UTC,,1011.3,94,,,0.8,,40242,56.6,2,1.4
2016,3,8,20:00,UTC,,1011.2,94,,,1.1,,29186,85.9,5.4,3.5
2016,3,8,21:00,UTC,,1011.3,95,,,1.2,,44891,63.8,4.2,2.4
2016,3,8,22:00,UTC,,1011.3,93,,,0.8,,40725,67.4,2.7,2.3
2016,3,8,23:00,UTC,,1011.3,93,,,0.9,,48767,72.5,3.2,2.4
2016,3,9,00:00,UTC,,1011.3,95,,,0.3,,36299,67.9,3.4,2.8
2016,3,9,01:00,UTC,,1011.5,95,,,0,,22554,72,3.4,2.6
2016,3,9,02:00,UTC,,1011.5,96,,,-0.4,,20343,66.4,3.9,3
2016,3,9,03:00,UTC,,1011.9,96,,,-0.9,,28748,67.9,3.5,2.8
2016,3,9,04:00,UTC,,1012.1,97,,,-1.6,,12895,64.8,4.7,3.9
2016,3,9,05:00,UTC,,1012.1,98,,,-1.8,,29382,61.2,4.5,3.9
2016,3,9,06:00,UTC,,1012.1,96,,,-1.6,,36579,60.2,3.4,2.9
2016,3,9,07:00,UTC,,1012.4,95,,,-1.3,,33381,65.8,2,1.4
2016,3,9,08:00,UTC,,1012.5,94,,,-0.7,,40855,70,1.8,1.4
2016,3,9,09:00,UTC,,1012.4,91,,,-0.3,,46665,63.8,1.3,1
2016,3,9,10:00,UTC,,1012.8,89,,,0.3,,50000,53.5,2,1.7
2016,3,9,11:00,UTC,,1013.3,82,,,1.5,,43858,78.2,1.2,0.4
2016,3,9,12:00,UTC,,1013.8,82,,,1.4,,50000,94.7,1.2,0.7
2016,3,9,13:00,UTC,,1014.2,84,,,1.5,,50000,155.9,1.2,0.8
2016,3,9,14:00,UTC,,1014.6,86,,,1.2,,50000,144,3.3,2.8
2016,3,9,15:00,UTC,,1015.2,95,,,0.2,,10429,144,2.6,2
2016,3,9,16:00,UTC,,1015.7,97,,,-0.3,,7833,143,2,1.3
2016,3,9,17:00,UTC,,1016.4,98,,,-0.1,,6995,123,1.6,1.1
2016,3,9,18:00,UTC,,1016.9,98,,,0,,7529,109.1,2.5,1.7
2016,3,9,19:00,UTC,,1017,98,,,-1,,3121,94.7,2,1.5
2016,3,9,20:00,UTC,,1017.5,99,,,-0.6,,7761,84.4,2.6,1.9
2016,3,9,21:00,UTC,,1018,99,,,-0.3,,9126,92.6,2.8,2
2016,3,9,22:00,UTC,,1018.4,99,,,-0.4,,8340,79.2,2.7,1.9
2016,3,9,23:00,UTC,,1018.5,99,,,-0.5,,7911,80.3,4.1,2.4
2016,3,10,00:00,UTC,,1019,98,,,-0.4,,10218,85.4,3.6,2.5
2016,3,10,01:00,UTC,,1019.3,98,,,-0.3,,7903,88,2.5,1.8
2016,3,10,02:00,UTC,,1019.6,98,,,-0.1,,9756,96.7,2.3,1.7
2016,3,10,03:00,UTC,,1020.1,98,,,-0.1,,11998,102.9,3.1,2.3
2016,3,10,04:00,UTC,,1020.5,97,,,-0.2,,15928,100.3,2.4,1.8
2016,3,10,05:00,UTC,,1021,97,,,-0.1,,16705,95.7,3.1,2.2
2016,3,10,06:00,UTC,,1021.4,97,,,0.1,,37007,108.5,4.4,2.4
2016,3,10,07:00,UTC,,1021.9,94,,,0.3,,47443,112.7,4.8,2.7
2016,3,10,08:00,UTC,,1022.4,91,,,0.6,,50000,116.3,4.8,3.1
2016,3,10,09:00,UTC,,1022.8,90,,,0.8,,46556,113.7,4.7,2.8
2016,3,10,10:00,UTC,,1023.1,88,,,1.1,,50000,118.3,4.6,3.1
2016,3,10,11:00,UTC,,1023.6,85,,,1.3,,49150,120.9,6,3.5
2016,3,10,12:00,UTC,,1023.7,84,,,1.5,,50000,113.7,5,2.9
2016,3,10,13:00,UTC,,1023.9,87,,,1.4,,45782,116.3,4.6,2.9
2016,3,10,14:00,UTC,,1024.1,89,,,1.2,,20782,128.1,4.5,2.4
2016,3,10,15:00,UTC,,1024.3,89,,,1,,50000,132.7,3.9,2.8
2016,3,10,16:00,UTC,,1024.4,81,,,0.6,,50000,111.6,4.4,3.1
2016,3,10,17:00,UTC,,1024.8,83,,,-0.2,,50000,114.7,5.3,2.9
2016,3,10,18:00,UTC,,1024.9,87,,,-0.3,,50000,110.6,4.5,2.6
2016,3,10,19:00,UTC,,1025.1,92,,,-1.4,,50000,94.1,2.5,1.9
2016,3,10,20:00,UTC,,1025,95,,,-2.1,,50000,89,2.7,2
2016,3,10,21:00,UTC,,1025.1,95,,,-1.8,,50000,97.2,3.9,2.4
2016,3,10,22:00,UTC,,1024.7,96,,,-2.9,,22661,86.4,3.4,2.5
2016,3,10,23:00,UTC,,1024.5,96,,,-2.3,,45846,95.2,5.1,3.7
2016,3,11,00:00,UTC,,1024.5,95,,,-2.6,,45464,95.2,4.4,2.9
2016,3,11,01:00,UTC,,1024.8,96,,,-4.5,,13990,82.8,1.3,1
2016,3,11,02:00,UTC,,1024.4,95,,,-2.6,,39469,97.7,4.8,2.9
2016,3,11,03:00,UTC,,1024.5,97,,,-2.4,,17006,107.5,4.3,2.4
2016,3,11,04:00,UTC,,1024.3,97,,,-2.4,,11990,115.2,4.9,3.1
2016,3,11,05:00,UTC,,1024.3,98,,,-2.5,,9970,100.8,3.6,2.7
2016,3,11,06:00,UTC,,1024.6,98,,,-2.2,,14246,108,3.9,2.6
2016,3,11,07:00,UTC,,1024.9,96,,,-2,,19219,97.7,4.5,2.9
2016,3,11,08:00,UTC,,1024.9,94,,,-1.6,,38668,98.3,4,2.9
2016,3,11,09:00,UTC,,1025,92,,,-1.1,,36953,103.9,4.3,3
2016,3,11,10:00,UTC,,1025.3,93,,,-0.8,,3760,118.3,5.4,3.1
2016,3,11,11:00,UTC,,1025.1,96,,,-0.9,,3572,104.4,5.4,3.5
2016,3,11,12:00,UTC,,1024.9,98,,,-0.7,,1947,98.3,5.1,3.5
2016,3,11,13:00,UTC,,1025.2,98,,,-0.3,,17395,96.2,3.7,2.5
2016,3,11,14:00,UTC,,1025.3,98,,,-0.1,,5239,103.9,3.1,2
2016,3,11,15:00,UTC,,1025.4,98,,,0,,50000,104.9,4.1,2.7
2016,3,11,16:00,UTC,,1025.5,98,,,0.1,,50000,125,3.9,2.6
2016,3,11,17:00,UTC,,1025.8,97,,,0,,50000,127.6,5.3,3.5
2016,3,11,18:00,UTC,,1025.9,98,,,-0.3,,21894,127.1,4.8,2.8
2016,3,11,19:00,UTC,,1026.1,99,,,-0.6,,7592,118.3,3.3,1.8
2016,3,11,20:00,UTC,,1026.5,99,,,-0.8,,2812,127.1,3.1,2.1
2016,3,11,21:00,UTC,,1026.7,99,,,-1.2,,1999,126,3.8,2.5
2016,3,11,22:00,UTC,,1026.8,99,,,-1.3,,1858,125,3.3,1.4
2016,3,11,23:00,UTC,,1027,99,,,-1.4,,1509,115.2,2.3,1.3
2016,3,12,00:00,UTC,,1027.3,99,,,-1.7,,1704,116.8,3.2,2
2016,3,12,01:00,UTC,,1027.6,99,,,-2.2,,1604,121.4,3.8,2.4
2016,3,12,02:00,UTC,,1027.5,99,,,-2.2,,1926,106,2.7,1.6
2016,3,12,03:00,UTC,,1027.6,99,,,-2.2,,1556,106.5,2.5,1.8
2016,3,12,04:00,UTC,,1027.7,99,,,-2.1,,2151,110.1,2.7,1.9
2016,3,12,05:00,UTC,,1028,99,,,-2.3,,1098,120.4,3.3,2
2016,3,12,06:00,UTC,,1028.4,98,,,-2.4,,1030,115.2,2.8,2
2016,3,12,07:00,UTC,,1028.6,98,,,-2.4,,2160,111.6,2.6,1.8
2016,3,12,08:00,UTC,,1028.8,98,,,-2.3,,8042,102.4,3.3,2.3
2016,3,12,09:00,UTC,,1029.3,98,,,-2.3,,6248,111.6,3.1,2.1
2016,3,12,10:00,UTC,,1029.4,98,,,-2,,6352,115.2,3.6,2.4
2016,3,12,11:00,UTC,,1029.4,98,,,-1.8,,8614,120.9,4.5,2.4
2016,3,12,12:00,UTC,,1029.4,98,,,-1.7,,18222,109.1,3.7,2.7
2016,3,12,13:00,UTC,,1029.5,98,,,-1.6,,50000,107.5,3.2,2.2
2016,3,12,14:00,UTC,,1029.7,98,,,-1.5,,31154,121.9,3.4,2.4
2016,3,12,15:00,UTC,,1029.6,97,,,-1.8,,49004,99.3,3.5,2.6
2016,3,12,16:00,UTC,,1029.7,97,,,-2,,43851,126.6,3.1,2.1
2016,3,12,17:00,UTC,,1029.7,98,,,-1.9,,30307,112.7,1.9,1
2016,3,12,18:00,UTC,,1029.9,98,,,-1.7,,18057,125,2.1,1.5
2016,3,12,19:00,UTC,,1029.9,98,,,-1.9,,18028,117.8,2.4,1.1
2016,3,12,20:00,UTC,,1030,98,,,-1.7,,15051,98.8,2.6,1.6
2016,3,12,21:00,UTC,,1029.9,98,,,-1.8,,14418,109.6,2.5,1.7
2016,3,12,22:00,UTC,,1029.7,98,,,-2,,11536,116.3,5.6,3.1
2016,3,12,23:00,UTC,,1029.4,98,,,-2,,10686,114.7,4.7,2.6
2016,3,13,00:00,UTC,,1029.3,98,,,-2,,4446,114.2,4.1,2.6
2016,3,13,01:00,UTC,,1029.5,98,,,-2,,4885,102.9,3.3,2.3
2016,3,13,02:00,UTC,,1029,99,,,-1.9,,11650,106,5.3,3.2
2016,3,13,03:00,UTC,,1028.9,98,,,-2.1,,15652,111.1,4.5,3
2016,3,13,04:00,UTC,,1028.8,98,,,-2.2,,9629,103.4,3.2,2
2016,3,13,05:00,UTC,,1028.7,98,,,-2.3,,14187,102.4,4.2,2.9
2016,3,13,06:00,UTC,,1028.3,97,,,-2.4,,26322,102.9,3.7,2.4
2016,3,13,07:00,UTC,,1028.1,96,,,-2.4,,37626,96.7,4.4,2.8
2016,3,13,08:00,UTC,,1027.7,96,,,-2.3,,41965,100.3,6.6,3.5
2016,3,13,09:00,UTC,,1027.5,96,,,-2.2,,39203,103.9,4.7,3.2
2016,3,13,10:00,UTC,,1027.1,96,,,-2.1,,28286,120.9,5.3,3.2
2016,3,13,11:00,UTC,,1026.6,95,,,-2,,40492,110.6,4.9,3.3
2016,3,13,12:00,UTC,,1025.9,95,,,-1.8,,39193,106,4.4,3.2
2016,3,13,13:00,UTC,,1025.4,93,,,-1.7,,44022,109.1,5,3.2
2016,3,13,14:00,UTC,,1024.5,93,,,-1.6,,38364,95.7,5.4,3.5
2016,3,13,15:00,UTC,,1024,92,,,-1.5,,42039,96.7,5.4,2.8
2016,3,13,16:00,UTC,,1023.3,95,,,-1.4,,1956,97.7,4.1,2.8
2016,3,13,17:00,UTC,,1022.6,97,,,-1.5,,8372,88.5,4.1,2.9
2016,3,13,18:00,UTC,,1022.1,97,,,-1.4,,15985,94.1,3.1,1.9
2016,3,13,19:00,UTC,,1021.5,97,,,-0.7,,22885,115.2,4.2,2.7
2016,3,13,20:00,UTC,,1021.1,95,,,-0.8,,46144,124.5,3.5,2.2
2016,3,13,21:00,UTC,,1020.9,96,,,-0.9,,49845,129.6,4.2,3.2
2016,3,13,22:00,UTC,,1020.9,96,,,-0.5,,13806,139.4,4.3,2.9
2016,3,13,23:00,UTC,,1021.1,96,,,-0.4,,48641,162,5.7,3.5
2016,3,14,00:00,UTC,,1021.3,96,,,-1.2,,9775,167.7,5.8,3.8
2016,3,14,01:00,UTC,,1021.7,97,,,-0.7,,15792,168.7,5.6,3.6
2016,3,14,02:00,UTC,,1022.3,94,,,-1.9,,44769,170.3,6.3,4.1
2016,3,14,03:00,UTC,,1022.6,92,,,-3,,48227,172.3,6,4
2016,3,14,04:00,UTC,,1023,95,,,-4.2,,50000,171.8,5.5,3.6
2016,3,14,05:00,UTC,,1023.5,95,,,-4.7,,50000,167.7,5.6,3.5
2016,3,14,06:00,UTC,,1024,94,,,-4.1,,50000,170.3,3.8,2.4
2016,3,14,07:00,UTC,,1024.6,91,,,-3.7,,46097,166.2,4.9,3.3
2016,3,14,08:00,UTC,,1025.4,90,,,-3.4,,50000,169.8,4.9,2.6
2016,3,14,09:00,UTC,,1025.5,86,,,-2.9,,42192,160,3.7,2.6
2016,3,14,10:00,UTC,,1025.6,83,,,-1.4,,30753,153.8,3.2,2.5
2016,3,14,11:00,UTC,,1025.4,81,,,0,,27294,139.9,2.4,2
2016,3,14,12:00,UTC,,1025.5,83,,,-0.6,,47265,146.6,5,4.2
2016,3,14,13:00,UTC,,1025.7,83,,,-0.1,,50000,142.5,4.3,3
2016,3,14,14:00,UTC,,1025.9,88,,,-0.8,,48839,142.5,2.9,2
2016,3,14,15:00,UTC,,1025.6,89,,,-1.2,,50000,142,2.8,2.5
2016,3,14,16:00,UTC,,1025.8,91,,,-1.9,,50000,139.4,2.3,1.7
2016,3,14,17:00,UTC,,1026,94,,,-2.4,,50000,141.5,1.7,1.1
2016,3,14,18:00,UTC,,1025.9,96,,,-3.9,,41574,89,1.4,0.8
2016,3,14,19:00,UTC,,1025.9,93,,,-2.7,,50000,87.5,1.9,1.1
2016,3,14,20:00,UTC,,1025.7,92,,,-2.5,,50000,83.9,2.3,1.4
2016,3,14,21:00,UTC,,1025.1,90,,,-2.1,,50000,104.9,2.6,1.5
2016,3,14,22:00,UTC,,1025,91,,,-2.3,,47235,77.7,2.8,2.2
2016,3,14,23:00,UTC,,1024.7,89,,,-1.8,,50000,82.8,3.6,2.8
2016,3,15,00:00,UTC,,1024.6,86,,,-1.2,,50000,82.3,3.8,2
2016,3,15,01:00,UTC,,1024.4,85,,,-0.8,,50000,82.8,3.4,2.5
2016,3,15,02:00,UTC,,1024.1,84,,,-0.5,,50000,86.9,4.1,2.9
2016,3,15,03:00,UTC,,1024.1,81,,,0.2,,50000,102.9,3.5,2.6
2016,3,15,04:00,UTC,,1023.8,82,,,-0.1,,50000,96.7,2.9,2.1
2016,3,15,05:00,UTC,,1023.7,87,,,-0.5,,50000,93.1,2.1,1.5
2016,3,15,06:00,UTC,,1023.4,91,,,0.2,,50000,117.3,4.7,2.6
2016,3,15,07:00,UTC,,1023.1,87,,,2.1,,15132,121.4,4.2,2.8
2016,3,15,08:00,UTC,,1023.2,88,,,2.7,,45071,127.6,5.8,4.1
2016,3,15,09:00,UTC,,1023.1,84,,,3.7,,50000,126.6,4.7,3.5
2016,3,15,10:00,UTC,,1023,78,,,4.8,,50000,132.2,4.9,3.6
2016,3,15,11:00,UTC,,1022.7,71,,,6.1,,33492,130.7,6,4.5
2016,3,15,12:00,UTC,,1022.3,70,,,5.7,,46770,136.8,7.4,5
2016,3,15,13:00,UTC,,1021.9,71,,,5.7,,50000,130.2,7.6,5.4
2016,3,15,14:00,UTC,,1021.4,70,,,6.6,,50000,131.7,7.4,5.6
2016,3,15,15:00,UTC,,1021,74,,,5.6,,50000,127.1,5.9,4.2
2016,3,15,16:00,UTC,,1020.8,78,,,4.7,,50000,133.8,7.8,5.5
2016,3,15,17:00,UTC,,1020.2,80,,,3.8,,50000,138.4,10.6,7.5
2016,3,15,18:00,UTC,,1020.1,78,,,4.3,,50000,140.4,8.3,6.6
2016,3,15,19:00,UTC,,1020.1,75,,,4.8,,50000,142.5,9,7
2016,3,15,20:00,UTC,,1019.7,75,,,4.7,,50000,143,8.7,7
2016,3,15,21:00,UTC,,1019.4,78,,,4.2,,50000,144,8.6,7
2016,3,15,22:00,UTC,,1019.3,75,,,4.8,,50000,144.6,9,6.8
2016,3,15,23:00,UTC,,1019.2,77,,,4.3,,50000,141.5,7.7,6.5
2016,3,16,00:00,UTC,,1018.7,75,,,4.7,,50000,147.1,9.2,7.2
2016,3,16,01:00,UTC,,1018.5,76,,,4.4,,50000,145.6,10.6,7.4
2016,3,16,02:00,UTC,,1018.5,74,,,4.9,,50000,149.7,10.8,8.6
2016,3,16,03:00,UTC,,1018.6,75,,,4.5,,50000,150.2,9.9,8.2
2016,3,16,04:00,UTC,,1018.5,77,,,4.1,,50000,150.2,9.9,7.8
2016,3,16,05:00,UTC,,1018.8,77,,,3.8,,50000,148.7,7.8,6.6
2016,3,16,06:00,UTC,,1019,61,,,5.7,,50000,164.1,12.4,8.5
2016,3,16,07:00,UTC,,1019.4,60,,,5.5,,50000,163.1,9.8,7.1
2016,3,16,08:00,UTC,,1019.7,66,,,4.9,,50000,159,10.2,6.6
2016,3,16,09:00,UTC,,1019.8,67,,,4.7,,50000,153.3,7,5.5
2016,3,16,10:00,UTC,,1019.7,58,,,5.7,,50000,159,11.8,6.8
2016,3,16,11:00,UTC,,1019.4,63,,,5.3,,45200,156.9,8.5,6.7
2016,3,16,12:00,UTC,,1018.9,62,,,5.8,,50000,151.2,8.4,6.1
2016,3,16,13:00,UTC,,1018.6,67,,,4.9,,50000,151.2,6.1,4.3
2016,3,16,14:00,UTC,,1017.4,69,,,4.7,,50000,142,5.3,4.2
2016,3,16,15:00,UTC,,1016,76,,,3.4,,50000,127.6,3.7,2.6
2016,3,16,16:00,UTC,,1014.6,75,,,3.5,,50000,121.9,4.4,2
2016,3,16,17:00,UTC,,1013.2,75,,,3.8,,50000,117.8,5.2,3.4
2016,3,16,18:00,UTC,,1011.6,81,,,2.8,,50000,138.9,7.7,5.8
2016,3,16,19:00,UTC,,1010.5,78,,,3.1,,50000,138.4,9.9,7.3
2016,3,16,20:00,UTC,,1009.6,79,,,2.7,,50000,144,8.5,7
2016,3,16,21:00,UTC,,1009.4,76,,,3.2,,50000,141.5,8,6.4
2016,3,16,22:00,UTC,,1009.2,83,,,1.6,,50000,140.4,7.5,5.7
2016,3,16,23:00,UTC,,1009.1,67,,,4.5,,50000,157.9,13.2,9.4
2016,3,17,00:00,UTC,,1009.2,71,,,3.5,,50000,164.6,11.5,7.3
2016,3,17,01:00,UTC,,1008.8,73,,,3,,50000,164.6,7.2,4.7
2016,3,17,02:00,UTC,,1008.9,79,,,2.2,,50000,165.7,6.1,3.9
2016,3,17,03:00,UTC,,1008.8,86,,,1.2,,50000,160.5,5.7,3.9
2016,3,17,04:00,UTC,,1007.9,82,,,1,,50000,155.4,3.5,2.7
2016,3,17,05:00,UTC,,1007.9,67,,,1.4,,50000,169.8,5.5,3.4
2016,3,17,06:00,UTC,,1007.8,59,,,0.9,,50000,174.9,7.1,4.4
2016,3,17,07:00,UTC,,1007.7,46,,,0.7,,50000,174.4,9.3,5.7
2016,3,17,08:00,UTC,,1007.5,52,,,0.3,,50000,172.9,7.6,4.8
2016,3,17,09:00,UTC,,1007.2,52,,,0.5,,44220,173.9,6.8,4.3
2016,3,17,10:00,UTC,,1007,54,,,0.8,,50000,168.7,11,6.2
2016,3,17,11:00,UTC,,1006.6,52,,,0.6,,46272,171.8,11.3,6.8
2016,3,17,12:00,UTC,,1006.7,51,,,0.5,,50000,170.8,10.1,5.2
2016,3,17,13:00,UTC,,1006.1,50,,,-0.1,,50000,170.3,9.9,6
2016,3,17,14:00,UTC,,1005.8,51,,,-0.7,,50000,170.8,7.1,4.3
2016,3,17,15:00,UTC,,1005.2,56,,,-1.5,,50000,166.7,5,3.4
2016,3,17,16:00,UTC,,1004.9,53,,,-1.9,,50000,170.3,8.4,5.3
2016,3,17,17:00,UTC,,1005,61,,,-2.5,,50000,2.6,5.3,3.5
2016,3,17,18:00,UTC,,1005.1,64,,,-3.3,,50000,175.9,4.7,2.5
2016,3,17,19:00,UTC,,1005.1,61,,,-3.3,,50000,179,5.2,3.1
2016,3,17,20:00,UTC,,1005.1,57,,,-4.4,,50000,171.8,6.1,3.8
2016,3,17,21:00,UTC,,1005.2,68,,,-6,,50000,164.6,5.3,3.7
2016,3,17,22:00,UTC,,1005.2,63,,,-6.4,,50000,166.2,6.9,4.6
2016,3,17,23:00,UTC,,1005.2,66,,,-7,,50000,168.7,6.7,4.4
2016,3,18,00:00,UTC,,1004.9,76,,,-7.3,,50000,166.7,7,4.8
2016,3,18,01:00,UTC,,1004.6,79,,,-7.3,,50000,164.1,8.7,5.5
2016,3,18,02:00,UTC,,1004.8,75,,,-8.2,,50000,169.8,8.8,5.7
2016,3,18,03:00,UTC,,1004.8,74,,,-8.4,,50000,167.2,9.4,6.2
2016,3,18,04:00,UTC,,1004.8,72,,,-8,,50000,168.2,10.1,6.2
2016,3,18,05:00,UTC,,1005,70,,,-7.6,,50000,169.3,11.6,6.6
2016,3,18,06:00,UTC,,1005.3,77,,,-7.8,,50000,167.2,10.8,6.6
2016,3,18,07:00,UTC,,1005.6,66,,,-7.4,,50000,170.8,9.1,5.3
2016,3,18,08:00,UTC,,1006,65,,,-7.1,,50000,169.8,10.3,6.5
2016,3,18,09:00,UTC,,1006.4,61,,,-6.1,,50000,169.3,10.9,7
2016,3,18,10:00,UTC,,1006.5,61,,,-5.3,,50000,169.3,11.2,7.3
2016,3,18,11:00,UTC,,1006.6,58,,,-4.6,,50000,167.7,12,7.4
2016,3,18,12:00,UTC,,1006.6,53,,,-3.7,,50000,166.2,10.4,6.7
2016,3,18,13:00,UTC,,1006.8,50,,,-3.4,,50000,167.7,11,6.9
2016,3,18,14:00,UTC,,1006.9,51,,,-3.4,,50000,162.6,10.4,7
2016,3,18,15:00,UTC,,1007,49,,,-3.5,,50000,164.1,9.5,6.2
2016,3,18,16:00,UTC,,1006.8,49,,,-4.1,,50000,163.6,8.1,5.9
2016,3,18,17:00,UTC,,1006.8,52,,,-5,,50000,168.7,7.6,4.5
2016,3,18,18:00,UTC,,1006.7,57,,,-6.2,,50000,167.2,5.8,4.1
2016,3,18,19:00,UTC,,1006.4,53,,,-6.4,,50000,167.2,5.9,4.2
2016,3,18,20:00,UTC,,1006.3,53,,,-6.8,,50000,167.2,6.3,3.7
2016,3,18,21:00,UTC,,1006.2,55,,,-7.4,,50000,164.1,5.5,3.7
2016,3,18,22:00,UTC,,1005.9,57,,,-7.5,,50000,168.7,6.5,3.5
2016,3,18,23:00,UTC,,1005.7,63,,,-8.1,,50000,169.3,5.5,3.6
2016,3,19,00:00,UTC,,1005.4,65,,,-8.9,,50000,169.8,5.1,3
2016,3,19,01:00,UTC,,1004.7,66,,,-9.2,,50000,166.2,5.4,3.5
2016,3,19,02:00,UTC,,1004.2,70,,,-9.9,,50000,169.3,3.5,2.4
2016,3,19,03:00,UTC,,1003.9,71,,,-9.6,,50000,167.7,5.8,4
2016,3,19,04:00,UTC,,1003.3,74,,,-9.2,,50000,162,6.6,4.2
2016,3,19,05:00,UTC,,1003.1,74,,,-9.6,,50000,170.8,6.2,3.7
2016,3,19,06:00,UTC,,1003.2,72,,,-9.4,,50000,167.2,5.4,3.5
2016,3,19,07:00,UTC,,1003,69,,,-8.3,,50000,167.7,6.3,3.8
2016,3,19,08:00,UTC,,1002.9,68,,,-7.9,,50000,171.3,5.1,3.2
2016,3,19,09:00,UTC,,1002.8,66,,,-7,,50000,165.7,7.5,4.4
2016,3,19,10:00,UTC,,1002.6,64,,,-5.8,,50000,155.9,6.2,4.5
2016,3,19,11:00,UTC,,1002.5,66,,,-5.2,,45703,154.8,7.4,5.4
2016,3,19,12:00,UTC,,1002.2,61,,,-4,,50000,157.9,8.3,6.4
2016,3,19,13:00,UTC,,1001.9,61,,,-3.4,,50000,153.3,9,6.6
2016,3,19,14:00,UTC,,1001.8,56,,,-3,,50000,156.9,9.5,6.8
2016,3,19,15:00,UTC,,1001.7,54,,,-2.9,,50000,155.9,8.5,6.3
2016,3,19,16:00,UTC,,1001.5,56,,,-3.6,,50000,153.3,6,4.7
2016,3,19,17:00,UTC,,1001.2,59,,,-4.8,,50000,159.5,5.6,3.8
2016,3,19,18:00,UTC,,1001,61,,,-5.8,,50000,158.4,5.1,3.7
2016,3,19,19:00,UTC,,1000.9,53,,,-5.3,,50000,165.7,6.6,3.8
2016,3,19,20:00,UTC,,1000.7,54,,,-6,,50000,164.6,5.9,4.1
2016,3,19,21:00,UTC,,1000.8,58,,,-6.7,,50000,167.2,6.3,4.2
2016,3,19,22:00,UTC,,1000.5,60,,,-7.2,,50000,170.8,6.1,3.9
2016,3,19,23:00,UTC,,1000.6,65,,,-8.1,,50000,170.3,5.1,3.4
2016,3,20,00:00,UTC,,1000.6,64,,,-8,,50000,165.1,6.5,4.5
2016,3,20,01:00,UTC,,1000.5,66,,,-8.1,,50000,165.1,6.2,3.9
2016,3,20,02:00,UTC,,1000.5,71,,,-9.3,,50000,169.3,5.2,3.4
2016,3,20,03:00,UTC,,1000.6,73,,,-9.7,,50000,166.7,5.6,4
2016,3,20,04:00,UTC,,1000.8,74,,,-10.4,,50000,166.7,5.7,3.5
2016,3,20,05:00,UTC,,1000.8,75,,,-10.3,,50000,167.7,4.7,3.5
2016,3,20,06:00,UTC,,1000.9,73,,,-10,,50000,166.2,5.4,3.7
2016,3,20,07:00,UTC,,1001.3,70,,,-9.5,,50000,175.9,3.9,2.6
2016,3,20,08:00,UTC,,1001.4,65,,,-8,,50000,175.4,2,1.2
2016,3,20,09:00,UTC,,1001.7,63,,,-6.6,,50000,139.9,2.8,1.3
2016,3,20,10:00,UTC,,1001.8,66,,,-6.6,,44803,147.6,3.9,2.9
2016,3,20,11:00,UTC,,1001.8,66,,,-5.7,,42391,139.9,5.4,4
2016,3,20,12:00,UTC,,1001.9,66,,,-4.8,,50000,131.7,5.2,3.6
2016,3,20,13:00,UTC,,1001.8,72,,,-5.1,,40691,137.9,4.8,3.6
2016,3,20,14:00,UTC,,1001.7,74,,,-5.2,,50000,133.2,5.3,4.2
2016,3,20,15:00,UTC,,1001.5,75,,,-5.5,,50000,141.5,3.5,2.9
2016,3,20,16:00,UTC,,1001.3,78,,,-6.3,,50000,130.2,1.5,1.1
2016,3,20,17:00,UTC,,1001.2,88,,,-7.8,,50000,138.4,1.4,0.9
2016,3,20,18:00,UTC,,1001.2,90,,,-9.4,,50000,133.8,2.3,1.7
2016,3,20,19:00,UTC,,1001.2,91,,,-9.4,,50000,130.2,2.5,2.1
2016,3,20,20:00,UTC,,1001.2,90,,,-10.3,,50000,73.6,1.4,1
2016,3,20,21:00,UTC,,1001.3,89,,,-11.5,,50000,126.6,1.7,1.1
2016,3,20,22:00,UTC,,1001.2,88,,,-11.2,,50000,108,0.9,0.6
2016,3,20,23:00,UTC,,1001.1,87,,,-12.6,,50000,82.8,1,0.5
2016,3,21,00:00,UTC,,1001.1,87,,,-13.1,,50000,99.3,0.8,0.4
2016,3,21,01:00,UTC,,1000.9,86,,,-13.3,,50000,102.4,0.5,0.2
2016,3,21,02:00,UTC,,1001,84,,,-13.8,,50000,123.5,0.8,0.4
2016,3,21,03:00,UTC,,1001.2,84,,,-14.7,,50000,106.5,0.7,0.3
2016,3,21,04:00,UTC,,1001.6,83,,,-15.1,,50000,70,0.8,0.5
2016,3,21,05:00,UTC,,1001.6,92,,,-14.6,,686,76.1,1.7,0.9
2016,3,21,06:00,UTC,,1001.8,89,,,-13.6,,3080,70.5,1.9,1.1
2016,3,21,07:00,UTC,,1002.1,87,,,-11.3,,44333,69.4,1.3,0.8
2016,3,21,08:00,UTC,,1002.6,86,,,-9.1,,32168,75.6,1.1,0.6
2016,3,21,09:00,UTC,,1002.8,79,,,-6.5,,38725,137.9,3.5,2
2016,3,21,10:00,UTC,,1003.1,72,,,-5.6,,50000,127.1,4.1,3
2016,3,21,11:00,UTC,,1003.4,64,,,-5.7,,50000,148.2,4.7,3.2
2016,3,21,12:00,UTC,,1003.6,63,,,-5,,50000,148.7,5.6,4.2
2016,3,21,13:00,UTC,,1003.6,67,,,-5.7,,48572,148.7,5.4,4.2
2016,3,21,14:00,UTC,,1004.1,66,,,-5.3,,50000,162,6.5,4.8
2016,3,21,15:00,UTC,,1004.3,70,,,-5.3,,50000,155.9,6.2,4.9
2016,3,21,16:00,UTC,,1004.6,69,,,-5.5,,50000,167.7,4.3,2.8
2016,3,21,17:00,UTC,,1005,73,,,-7.1,,50000,170.3,4.4,2.4
2016,3,21,18:00,UTC,,1005.4,77,,,-8.6,,50000,169.8,3,1.7
2016,3,21,19:00,UTC,,1005.8,84,,,-10.2,,50000,162.6,1,0.7
2016,3,21,20:00,UTC,,1006.1,89,,,-11.8,,23309,174.4,1.4,0.8
2016,3,21,21:00,UTC,,1006.3,87,,,-12.5,,50000,151.2,0.7,0.3
2016,3,21,22:00,UTC,,1006.5,84,,,-13.2,,50000,141.5,1.6,1.1
2016,3,21,23:00,UTC,,1006.7,84,,,-14.6,,50000,135.3,1.8,1.6
2016,3,22,00:00,UTC,,1006.7,90,,,-11.9,,50000,136.8,3.5,1.8
2016,3,22,01:00,UTC,,1006.9,87,,,-13.5,,50000,138.4,2.4,2
2016,3,22,02:00,UTC,,1006.8,88,,,-14.5,,50000,138.4,2.2,1.7
2016,3,22,03:00,UTC,,1006.9,84,,,-15.5,,50000,168.7,0.7,0.4
2016,3,22,04:00,UTC,,1007.1,85,,,-15.4,,50000,123,2.3,1.6
2016,3,22,05:00,UTC,,1007.1,84,,,-15.1,,50000,63.3,0.9,0.5
2016,3,22,06:00,UTC,,1007.2,85,,,-12.9,,50000,103.9,1.3,1
2016,3,22,07:00,UTC,,1007.3,84,,,-9.7,,50000,119.9,1.7,1.1
2016,3,22,08:00,UTC,,1007.4,80,,,-7.9,,37618,144.6,2.1,1.4
2016,3,22,09:00,UTC,,1007.3,63,,,-4.8,,50000,138.4,4.7,3
2016,3,22,10:00,UTC,,1007.3,54,,,-4,,50000,139.4,5.4,3.7
2016,3,22,11:00,UTC,,1007.2,56,,,-3.6,,50000,144.6,5.9,4.3
2016,3,22,12:00,UTC,,1007.1,52,,,-3.1,,50000,147.6,5.7,4.5
2016,3,22,13:00,UTC,,1006.8,50,,,-3.1,,44663,144.6,5.4,4.1
2016,3,22,14:00,UTC,,1006.5,53,,,-3.3,,50000,148.7,4.5,3.5
2016,3,22,15:00,UTC,,1006.4,54,,,-4,,50000,146.1,2.8,1.9
2016,3,22,16:00,UTC,,1006.2,54,,,-4.3,,50000,150.2,3,2.1
2016,3,22,17:00,UTC,,1006,67,,,-5.5,,50000,151.2,1.4,1.1
2016,3,22,18:00,UTC,,1006,71,,,-7.6,,50000,75.6,2.8,1.3
2016,3,22,19:00,UTC,,1006,74,,,-8.1,,50000,61.2,2.3,2
2016,3,22,20:00,UTC,,1006,69,,,-7.6,,50000,70,2.4,2.2
2016,3,22,21:00,UTC,,1005.8,68,,,-6.8,,50000,76.7,2.8,2.2
2016,3,22,22:00,UTC,,1005.9,66,,,-6.7,,50000,71.5,3,2.6
2016,3,22,23:00,UTC,,1005.7,71,,,-7.3,,50000,60.2,2.7,2.1
2016,3,23,00:00,UTC,,1005.6,74,,,-8.3,,50000,52,1.7,1
2016,3,23,01:00,UTC,,1005.3,73,,,-8.1,,50000,70.5,2.5,2.2
2016,3,23,02:00,UTC,,1005.4,72,,,-8,,50000,67.9,2.1,1.3
2016,3,23,03:00,UTC,,1005.7,72,,,-8.1,,50000,65.3,1.8,1.4
2016,3,23,04:00,UTC,,1005.7,74,,,-8.2,,50000,62.8,3.1,2.8
2016,3,23,05:00,UTC,,1005.9,80,,,-7.9,,8448,67.4,2.3,2
2016,3,23,06:00,UTC,,1006.1,81,,,-7.2,,8909,78.2,3,2.1
2016,3,23,07:00,UTC,,1005.8,83,,,-5.9,,16235,70.5,4,2.5
2016,3,23,08:00,UTC,,1005.9,84,,,-4.9,,24241,83.9,4.6,3.3
2016,3,23,09:00,UTC,,1006,81,,,-3.6,,9271,86.9,4.6,3
2016,3,23,10:00,UTC,,1005.9,79,,,-3.1,,16324,92.6,5.7,3.7
2016,3,23,11:00,UTC,,1006.1,80,,,-2.6,,10139,106.5,3.1,1.9
2016,3,23,12:00,UTC,,1006.2,84,,,-2.5,,8519,102.9,3.4,2.1
2016,3,23,13:00,UTC,,1006.2,88,,,-2.5,,4021,91.1,3.3,1.9
2016,3,23,14:00,UTC,,1006.3,91,,,-2.7,,28151,97.7,3.1,2.1
2016,3,23,15:00,UTC,,1006.2,86,,,-2.7,,50000,143,2.9,1.7
2016,3,23,16:00,UTC,,1006,86,,,-2.5,,50000,96.2,3.9,1.4
2016,3,23,17:00,UTC,,1006.3,92,,,-4,,50000,138.4,4.6,3.7
2016,3,23,18:00,UTC,,1006.5,96,,,-5.6,,12202,137.9,5.6,4.1
2016,3,23,19:00,UTC,,1006.4,95,,,-5.5,,50000,134.3,5.3,3.2
2016,3,23,20:00,UTC,,1006.3,94,,,-6.1,,46193,135.3,4,1.9
2016,3,23,21:00,UTC,,1006.1,94,,,-6.5,,15678,142.5,3.5,2.3
2016,3,23,22:00,UTC,,1006,94,,,-7,,10510,113.2,2.3,0.9
2016,3,23,23:00,UTC,,1005.8,93,,,-7.4,,2527,100.8,5.2,1.9
2016,3,24,00:00,UTC,,1005.4,91,,,-8.9,,1527,85.9,4.6,3.3
2016,3,24,01:00,UTC,,1004.9,92,,,-8.7,,6921,89.5,4.7,2.9
2016,3,24,02:00,UTC,,1004.4,91,,,-9.4,,50000,79.2,4.3,3.4
2016,3,24,03:00,UTC,,1003.8,91,,,-8.8,,50000,89,5.4,3.8
2016,3,24,04:00,UTC,,1003.5,92,,,-8.2,,50000,92.1,4.6,3.3
2016,3,24,05:00,UTC,,1002.9,92,,,-7.5,,50000,86.9,5.6,4.4
2016,3,24,06:00,UTC,,1002.4,93,,,-5.7,,50000,98.3,7.7,5.4
2016,3,24,07:00,UTC,,1002.4,90,,,-4.4,,50000,102.9,6.5,4
2016,3,24,08:00,UTC,,1002.3,87,,,-2.6,,41749,112.1,7,3.6
2016,3,24,09:00,UTC,,1002.3,78,,,-1.1,,47108,119.9,7.4,4.9
2016,3,24,10:00,UTC,,1002.3,79,,,-1,,50000,125,9.2,5.5
2016,3,24,11:00,UTC,,1002.3,77,,,-0.7,,50000,120.9,8.8,6
2016,3,24,12:00,UTC,,1002.2,88,,,-1,,1820,115.2,7.1,4.4
2016,3,24,13:00,UTC,,1002.1,92,,,-0.9,,4336,118.8,5.4,3.6
2016,3,24,14:00,UTC,,1002,92,,,-0.8,,2460,119.4,5.9,3.7
2016,3,24,15:00,UTC,,1002.1,90,,,-0.6,,4331,118.3,8,5.5
2016,3,24,16:00,UTC,,1002.2,88,,,-0.4,,16182,116.8,5.7,2.8
2016,3,24,17:00,UTC,,1002,93,,,-1.1,,5975,110.1,5.1,3.3
2016,3,24,18:00,UTC,,1001.9,94,,,-1.1,,11489,108,3.9,2.7
2016,3,24,19:00,UTC,,1001.9,92,,,-1,,29807,101.9,4,2.8
2016,3,24,20:00,UTC,,1001.9,90,,,-1.2,,50000,96.2,2.8,1.9
2016,3,24,21:00,UTC,,1001.6,91,,,-1.4,,50000,100.8,2,1.2
2016,3,24,22:00,UTC,,1001.5,97,,,-2,,22649,73.1,2.6,1.8
2016,3,24,23:00,UTC,,1001,89,,,-1.5,,50000,81.3,3.5,2.6
2016,3,25,00:00,UTC,,1000.6,86,,,-1.3,,50000,76.7,4.6,3.4
2016,3,25,01:00,UTC,,1000.3,93,,,-1.6,,11887,78.2,4.8,3.7
2016,3,25,02:00,UTC,,999.8,96,,,-1.6,,8167,73.1,4.7,3.9
2016,3,25,03:00,UTC,,999.3,96,,,-1.3,,7112,76.7,4.9,3.8
2016,3,25,04:00,UTC,,999,96,,,-1.1,,10126,79.2,5.4,4
2016,3,25,05:00,UTC,,998.8,95,,,-0.7,,11378,82.8,6.1,4.2
2016,3,25,06:00,UTC,,998.5,95,,,-0.4,,15116,85.9,5.9,4.2
2016,3,25,07:00,UTC,,998.5,93,,,0,,45421,85.9,5.6,3.8
2016,3,25,08:00,UTC,,998.4,94,,,0.3,,10570,83.9,5.5,3.9
2016,3,25,09:00,UTC,,998.3,93,,,0.7,,46665,86.9,5.5,3.8
2016,3,25,10:00,UTC,,998.4,95,,,0.7,,20547,86.9,5.7,3.8
2016,3,25,11:00,UTC,,998.6,96,,,1,,21715,85.9,4.4,3.1
2016,3,25,12:00,UTC,,998.8,94,,,1.2,,28662,91.6,4.3,2.9
2016,3,25,13:00,UTC,,998.9,94,,,1.4,,29641,96.2,3.8,2.7
2016,3,25,14:00,UTC,,999.2,95,,,1.4,,41295,90.5,3.1,2.3
2016,3,25,15:00,UTC,,999.4,97,,,1.2,,50000,97.7,2.5,1.9
2016,3,25,16:00,UTC,,999.7,97,,,1,,41374,104.9,2.3,1.7
2016,3,25,17:00,UTC,,1000,98,,,0.7,,50000,120.4,2.6,1.6
2016,3,25,18:00,UTC,,1000.2,97,,,0.5,,32546,70.5,3,2.3
2016,3,25,19:00,UTC,,1000.5,98,,,0.7,,31559,80.3,3.3,2.3
2016,3,25,20:00,UTC,,1000.8,98,,,0.6,,50000,92.6,3.8,2.8
2016,3,25,21:00,UTC,,1001.3,96,,,0.7,,50000,112.7,4.6,2.9
2016,3,25,22:00,UTC,,1001.8,95,,,0.2,,50000,113.7,3.6,2.1
2016,3,25,23:00,UTC,,1002.2,96,,,0.1,,50000,102.9,4.6,1.9
2016,3,26,00:00,UTC,,1002.4,96,,,0.3,,50000,101.3,4.4,2.6
2016,3,26,01:00,UTC,,1002.5,95,,,0.5,,46430,108.5,2.9,2
2016,3,26,02:00,UTC,,1002.8,95,,,0.6,,50000,91.6,3.3,2.3
2016,3,26,03:00,UTC,,1003,96,,,0.8,,50000,96.7,2.9,2
2016,3,26,04:00,UTC,,1003.2,96,,,0.9,,39822,107.5,4.3,3
2016,3,26,05:00,UTC,,1003.3,96,,,1.1,,36488,101.3,5.6,3.1
2016,3,26,06:00,UTC,,1003.6,96,,,1.4,,17581,100.8,4.7,2.9
2016,3,26,07:00,UTC,,1004,95,,,1.6,,34343,108.5,3.9,2.5
2016,3,26,08:00,UTC,,1004.5,95,,,1.8,,14311,106.5,4.5,3
2016,3,26,09:00,UTC,,1004.7,95,,,1.9,,27383,98.8,4.1,2.9
2016,3,26,10:00,UTC,,1005,91,,,2.4,,44114,107,4.6,3.1
2016,3,26,11:00,UTC,,1005.3,87,,,2.9,,50000,115.7,4.9,2.8
2016,3,26,12:00,UTC,,1005.6,93,,,2,,24767,133.8,3.2,2.5
2016,3,26,13:00,UTC,,1005.7,82,,,3.3,,50000,118.3,4,2.9
2016,3,26,14:00,UTC,,1005.7,77,,,3.8,,46944,97.2,6.1,3.4
2016,3,26,15:00,UTC,,1005.6,77,,,3.6,,50000,96.2,4.3,3.2
2016,3,26,16:00,UTC,,1005.6,78,,,3.3,,50000,91.6,6,3.3
2016,3,26,17:00,UTC,,1005.6,80,,,3,,50000,86.4,5.1,3.5
2016,3,26,18:00,UTC,,1005.4,84,,,2.5,,50000,78.7,4.8,3.8
2016,3,26,19:00,UTC,,1005.4,86,,,2.2,,50000,81.8,6,4.5
2016,3,26,20:00,UTC,,1004.9,87,,,2.1,,50000,80.8,6.6,4.7
2016,3,26,21:00,UTC,,1004.6,86,,,2.3,,50000,79.2,6.2,4.5
2016,3,26,22:00,UTC,,1003.6,87,,,2.3,,50000,79.2,7,5.2
2016,3,26,23:00,UTC,,1002.8,86,,,2.4,,50000,81.8,7,5.2
2016,3,27,00:00,UTC,,1002.1,83,,,3,,50000,85.4,8.2,5.6
2016,3,27,01:00,UTC,,1001.8,82,,,3,,50000,88,8,5.4
2016,3,27,02:00,UTC,,1001.5,81,,,3.2,,50000,88.5,8.9,5.2
2016,3,27,03:00,UTC,,1001.3,79,,,3.5,,50000,91.1,9.1,5.5
2016,3,27,04:00,UTC,,1001,82,,,2.9,,50000,94.1,9.3,6.2
2016,3,27,05:00,UTC,,1001,83,,,2.8,,50000,93.6,7.4,5.1
2016,3,27,06:00,UTC,,1001,80,,,3.2,,50000,93.1,7.4,5.2
2016,3,27,07:00,UTC,,1001.3,76,,,3.8,,50000,96.2,7.9,5.4
2016,3,27,08:00,UTC,,1001.4,72,,,4.7,,50000,97.2,6.7,4.8
2016,3,27,09:00,UTC,,1001.4,65,,,6,,50000,99.3,7.4,5.4
2016,3,27,10:00,UTC,,1001.6,57,,,7.2,,50000,107,9.4,5.7
2016,3,27,11:00,UTC,,1001.3,56,,,8,,48144,97.2,6.8,4.8
2016,3,27,12:00,UTC,,1001,52,,,8.8,,50000,102.9,8.7,6
2016,3,27,13:00,UTC,,1001,52,,,8.4,,50000,102.9,7,4.8
2016,3,27,14:00,UTC,,1001,49,,,8.7,,46728,104.4,8.8,5.2
2016,3,27,15:00,UTC,,1000.5,49,,,7.7,,50000,86.9,7,4.5
2016,3,27,16:00,UTC,,1000.1,48,,,7.9,,50000,91.6,7.3,4.6
2016,3,27,17:00,UTC,,1000.1,51,,,6.8,,50000,88.5,6.5,4.5
2016,3,27,18:00,UTC,,1000.2,50,,,6.3,,50000,85.9,6.7,4.1
2016,3,27,19:00,UTC,,1000.1,49,,,6.2,,50000,88.5,6.1,4.2
2016,3,27,20:00,UTC,,1000.5,49,,,6.2,,50000,92.1,6.9,4.7
2016,3,27,21:00,UTC,,1001,50,,,5.7,,50000,92.1,6.2,4.1
2016,3,27,22:00,UTC,,1001.3,50,,,5.5,,50000,98.3,7,4.9
2016,3,27,23:00,UTC,,1001.3,53,,,5,,50000,93.1,8.7,5.8
2016,3,28,00:00,UTC,,1001.6,61,,,4,,50000,91.1,7.5,4.8
2016,3,28,01:00,UTC,,1001.8,69,,,3.2,,50000,91.1,6.9,4.3
2016,3,28,02:00,UTC,,1001.9,73,,,2.7,,50000,88,6.2,4.4
2016,3,28,03:00,UTC,,1001.9,77,,,2.4,,50000,88.5,7.1,4.7
2016,3,28,04:00,UTC,,1002.1,80,,,2.1,,50000,91.1,6.7,4.6
2016,3,28,05:00,UTC,,1002.2,81,,,3,,46188,94.1,7.2,4.6
2016,3,28,06:00,UTC,,1002.6,81,,,3.4,,33281,96.2,8.4,5.1
2016,3,28,07:00,UTC,,1002.8,80,,,3.9,,28428,98.3,9.1,5.4
2016,3,28,08:00,UTC,,1003.2,79,,,4.4,,26860,97.7,7.7,5
2016,3,28,09:00,UTC,,1003.4,76,,,5,,32231,95.2,8.4,5.5
2016,3,28,10:00,UTC,,1003.8,73,,,5.7,,47463,97.2,8.6,5.4
2016,3,28,11:00,UTC,,1004,67,,,6.5,,35751,96.2,8.6,6.1
2016,3,28,12:00,UTC,,1004.1,62,,,7.4,,47983,94.1,8.1,5.5
2016,3,28,13:00,UTC,,1004.4,59,,,7.7,,45676,94.1,9.4,6.2
2016,3,28,14:00,UTC,,1004.6,57,,,7.9,,43276,96.2,7.6,5.2
2016,3,28,15:00,UTC,,1004.8,60,,,7.3,,50000,91.1,7,4.5
2016,3,28,16:00,UTC,,1005.1,61,,,6.8,,49780,95.7,6.9,4.6
2016,3,28,17:00,UTC,,1005.6,68,,,5.7,,50000,89.5,7.1,4.4
2016,3,28,18:00,UTC,,1006,72,,,4.6,,48906,89,5,3.4
2016,3,28,19:00,UTC,,1006.7,76,,,3.9,,50000,91.1,2.9,1.9
2016,3,28,20:00,UTC,,1007,80,,,3.1,,50000,87.5,3.9,2.7
2016,3,28,21:00,UTC,,1007.1,83,,,2.3,,50000,80.8,3.7,2.8
2016,3,28,22:00,UTC,,1006.9,87,,,1.5,,47355,82.3,4.2,3.3
2016,3,28,23:00,UTC,,1007.2,88,,,1.4,,35050,77.2,4.4,3.6
2016,3,29,00:00,UTC,,1007,90,,,1.2,,27284,82.3,5.4,4.1
2016,3,29,01:00,UTC,,1006.8,93,,,0.8,,16308,78.2,5.9,3.9
2016,3,29,02:00,UTC,,1006.6,96,,,0,,12385,72,5.4,4.7
2016,3,29,03:00,UTC,,1006.1,93,,,1.4,,14169,71.5,5.4,4.3
2016,3,29,04:00,UTC,,1005.7,91,,,1.8,,16494,69.4,6.2,4.9
2016,3,29,05:00,UTC,,1005.6,87,,,2.6,,22449,73.6,5.8,4.4
2016,3,29,06:00,UTC,,1005.5,83,,,3.1,,28889,74.1,5.8,4.7
2016,3,29,07:00,UTC,,1005.4,74,,,4.7,,44992,73.1,6.1,4.6
2016,3,29,08:00,UTC,,1005.3,64,,,6,,48090,74.1,6.3,4.6
2016,3,29,09:00,UTC,,1005,55,,,7.9,,50000,75.6,7.6,4.3
2016,3,29,10:00,UTC,,1004.6,48,,,9.4,,34920,76.1,7.1,4.7
2016,3,29,11:00,UTC,,1004,44,,,10.4,,50000,77.2,7.3,5.1
2016,3,29,12:00,UTC,,1003.4,43,,,10.5,,48464,78.2,6.2,4.3
2016,3,29,13:00,UTC,,1002.9,42,,,10.6,,44689,73.1,8.6,5.8
2016,3,29,14:00,UTC,,1002.4,39,,,10.8,,50000,75.6,7.8,5.3
2016,3,29,15:00,UTC,,1002.3,41,,,10,,50000,78.7,6.7,5.1
2016,3,29,16:00,UTC,,1002,42,,,9.3,,50000,80.8,4.7,3.4
2016,3,29,17:00,UTC,,1001.6,59,,,5.9,,50000,66.4,4.1,3.5
2016,3,29,18:00,UTC,,1001.6,62,,,4.9,,50000,70.5,4.6,3.5
2016,3,29,19:00,UTC,,1001.3,63,,,4.8,,50000,71,5.2,3.8
2016,3,29,20:00,UTC,,1000.8,64,,,4.3,,50000,70,6.2,4.2
2016,3,29,21:00,UTC,,1000.7,64,,,4,,50000,71.5,5.4,4.1
2016,3,29,22:00,UTC,,1000.4,67,,,2.8,,50000,72,4.8,4.2
2016,3,29,23:00,UTC,,1000.1,69,,,2.2,,50000,70.5,5.5,4.7
2016,3,30,00:00,UTC,,1000,62,,,2.7,,50000,76.1,5.7,4.5
2016,3,30,01:00,UTC,,999.9,65,,,2.3,,50000,73.1,4.6,3.6
2016,3,30,02:00,UTC,,999.5,68,,,2.1,,50000,71.5,4.2,3.5
2016,3,30,03:00,UTC,,999.3,62,,,2.7,,50000,74.1,5.5,4.5
2016,3,30,04:00,UTC,,999.1,66,,,2.3,,50000,71,5,3.9
2016,3,30,05:00,UTC,,999,65,,,2.4,,50000,76.7,5.1,3.6
2016,3,30,06:00,UTC,,999.3,74,,,1.9,,11087,82.8,3.6,2.7
2016,3,30,07:00,UTC,,999.3,80,,,2,,47752,77.7,4.1,3.3
2016,3,30,08:00,UTC,,999.5,80,,,2.3,,46315,80.3,4.5,3
2016,3,30,09:00,UTC,,999.6,85,,,2.5,,46891,78.7,3.2,2.6
2016,3,30,10:00,UTC,,999.6,90,,,2.9,,48437,63.8,3.6,2.9
2016,3,30,11:00,UTC,,999.7,82,,,4.1,,50000,71,3.7,2.8
2016,3,30,12:00,UTC,,999.8,74,,,5.8,,49795,75.1,4.2,3
2016,3,30,13:00,UTC,,999.9,88,,,2.3,,24849,134.3,6.4,4.4
2016,3,30,14:00,UTC,,1000.4,94,,,1.2,,22533,144,7.9,5.4
2016,3,30,15:00,UTC,,1000.5,98,,,0.8,,4401,142,6,4.5
2016,3,30,16:00,UTC,,1000.6,99,,,1.1,,11359,134.8,3.1,2.1
2016,3,30,17:00,UTC,,1000.6,98,,,0.7,,17456,138.9,2.8,1.9
2016,3,30,18:00,UTC,,1000.9,98,,,0.3,,19419,142.5,1.8,1.1
2016,3,30,19:00,UTC,,1000.9,99,,,0.5,,1923,132.2,1.8,1.1
2016,3,30,20:00,UTC,,1001.1,99,,,0.6,,9756,136.8,1.8,0.8
2016,3,30,21:00,UTC,,1001,99,,,0.4,,11752,127.1,2.2,1.2
2016,3,30,22:00,UTC,,1001.2,99,,,-0.1,,2635,135.3,3.5,2.4
2016,3,30,23:00,UTC,,1001.3,99,,,-0.7,,5039,137.9,3.5,2.4
2016,3,31,00:00,UTC,,1001.4,99,,,-1,,2407,129.6,2.8,2
2016,3,31,01:00,UTC,,1001.3,99,,,-1,,1861,132.2,2.4,1.5
2016,3,31,02:00,UTC,,1001.3,99,,,-1.1,,1630,138.4,1.3,0.9
2016,3,31,03:00,UTC,,1001.3,99,,,-1.1,,1630,83.9,2,0.7
2016,3,31,04:00,UTC,,1001.5,100,,,-1.2,,973,107.5,6.7,1.5
2016,3,31,05:00,UTC,,1001.7,99,,,-1.5,,872,86.9,2.2,1.4
2016,3,31,06:00,UTC,,1001.8,99,,,-1.4,,858,70.5,1.4,0.7
2016,3,31,07:00,UTC,,1002.4,99,,,-1,,7433,57.6,1,0.4
2016,3,31,08:00,UTC,,1002.6,99,,,-0.8,,22972,39.6,3.2,0.6
2016,3,31,09:00,UTC,,1002.6,99,,,-0.4,,26881,39.1,1.5,0.8
2016,3,31,10:00,UTC,,1002.7,99,,,0.1,,46253,63.3,2.3,1.3
2016,3,31,11:00,UTC,,1003,98,,,1.7,,44173,71,1.9,0.8
2016,3,31,12:00,UTC,,1003.2,93,,,2,,50000,166.2,2.7,1.2
2016,3,31,13:00,UTC,,1003.4,93,,,1,,50000,135.8,3.1,2.1
2016,3,31,14:00,UTC,,1003.5,95,,,0.9,,11019,179,2.2,1.2
2016,3,31,15:00,UTC,,1003.7,96,,,0.4,,10133,178,3,1.6
2016,3,31,16:00,UTC,,1003.9,98,,,0.1,,1967,166.7,2.7,1.9
2016,3,31,17:00,UTC,,1004.2,99,,,-0.1,,1574,166.2,3,1.9
2016,3,31,18:00,UTC,,1004.5,99,,,-0.3,,3531,159.5,2.9,1.9
2016,3,31,19:00,UTC,,1004.4,99,,,-0.4,,3036,169.8,3,1.9
2016,3,31,20:00,UTC,,1004.4,99,,,-0.4,,6377,172.3,2.8,1.5
2016,3,31,21:00,UTC,,1004.5,99,,,-0.5,,10598,162.6,2.7,1.4
2016,3,31,22:00,UTC,,1004.6,100,,,-0.4,,48778,169.3,3.5,2.4
2016,3,31,23:00,UTC,,1004.9,100,,,-0.5,,50000,175.9,2.2,1.3
2016,4,1,00:00,UTC,,1005.1,99,,,-0.6,,50000,173.4,2.2,1.3
2016,4,1,01:00,UTC,,1004.9,99,,,-0.5,,50000,173.4,3.3,2
2016,4,1,02:00,UTC,,1005,99,,,-0.6,,50000,1,1.8,0.9
2016,4,1,03:00,UTC,,1005.1,98,,,-0.6,,50000,181.6,1.5,0.7
2016,4,1,04:00,UTC,,1005.1,98,,,-0.6,,46914,171.8,2.6,1.5
2016,4,1,05:00,UTC,,1005.2,98,,,-0.3,,50000,170.3,3.5,2.4
2016,4,1,06:00,UTC,,1005.5,96,,,-0.2,,47832,170.3,2.4,1.7
2016,4,1,07:00,UTC,,1005.4,94,,,-0.1,,50000,177,3.9,2.2
2016,4,1,08:00,UTC,,1005.5,89,,,0.5,,50000,170.8,3.2,2.1
2016,4,1,09:00,UTC,,1005.7,87,,,1.1,,46423,152.3,4.4,3.2
2016,4,1,10:00,UTC,,1005.9,84,,,1.5,,47813,147.1,4.7,3.6
2016,4,1,11:00,UTC,,1006.2,81,,,1.8,,50000,141.5,5,3.8
2016,4,1,12:00,UTC,,1006.2,85,,,1.9,,50000,145.6,5.1,3.8
2016,4,1,13:00,UTC,,1006.3,89,,,0.6,,50000,137.4,5.8,4.8
2016,4,1,14:00,UTC,,1006.4,87,,,0.6,,50000,139.4,8.1,6.1
2016,4,1,15:00,UTC,,1006.7,91,,,0.2,,49269,141.5,6.4,4.5
2016,4,1,16:00,UTC,,1007.1,95,,,-0.6,,50000,137.4,5.9,4.5
2016,4,1,17:00,UTC,,1007.6,95,,,-0.8,,50000,139.4,6.1,4.4
2016,4,1,18:00,UTC,,1007.9,95,,,-0.8,,50000,142,5.6,4.5
2016,4,1,19:00,UTC,,1008,92,,,-0.4,,50000,139.9,4.9,3.9
2016,4,1,20:00,UTC,,1008.3,92,,,-0.5,,50000,139.9,5.9,4
2016,4,1,21:00,UTC,,1008.7,91,,,-0.7,,50000,140.4,6,4.2
2016,4,1,22:00,UTC,,1009.2,91,,,-0.7,,50000,141,4.1,3.4
2016,4,1,23:00,UTC,,1009.5,93,,,-1.2,,50000,137.4,4,3.2
2016,4,2,00:00,UTC,,1009.9,93,,,-1.3,,50000,136.8,3.8,3
2016,4,2,01:00,UTC,,1010.3,92,,,-1.3,,50000,136.3,3.9,3.1
2016,4,2,02:00,UTC,,1010.6,94,,,-1.7,,50000,139.9,3.9,3
2016,4,2,03:00,UTC,,1010.8,95,,,-1.5,,50000,136.8,3.2,2.4
2016,4,2,04:00,UTC,,1011.3,94,,,-1.1,,50000,140.4,3.9,3.2
2016,4,2,05:00,UTC,,1011.6,92,,,-0.9,,50000,139.4,3.9,3
2016,4,2,06:00,UTC,,1012.2,90,,,-0.6,,50000,143.5,4.9,3.9
2016,4,2,07:00,UTC,,1012.5,89,,,-0.1,,50000,141,4.3,3.6
2016,4,2,08:00,UTC,,1012.9,88,,,0.1,,50000,137.4,3.6,2.9
2016,4,2,09:00,UTC,,1013.4,84,,,0.5,,50000,142,4,3
2016,4,2,10:00,UTC,,1013.6,83,,,0.6,,50000,144.6,4.6,3.6
2016,4,2,11:00,UTC,,1014,84,,,0.9,,50000,146.1,4.4,3.1
2016,4,2,12:00,UTC,,1014.3,86,,,0.7,,50000,145.6,4.4,3.6
2016,4,2,13:00,UTC,,1014.2,84,,,1.2,,50000,144.6,3.3,2.7
2016,4,2,14:00,UTC,,1014.1,69,,,3.6,,50000,149.2,3.4,2.6
2016,4,2,15:00,UTC,,1014.3,78,,,1.7,,50000,142.5,3,2.4
2016,4,2,16:00,UTC,,1014.5,81,,,1.1,,50000,138.9,1.4,1.1
2016,4,2,17:00,UTC,,1014.6,83,,,0.8,,50000,162,0.7,0.4
2016,4,2,18:00,UTC,,1014.9,86,,,0.2,,50000,115.2,0.6,0.3
2016,4,2,19:00,UTC,,1014.9,94,,,-1,,50000,22.1,0.9,0.4
2016,4,2,20:00,UTC,,1014.9,96,,,-2.4,,50000,152.3,0.5,0.1
2016,4,2,21:00,UTC,,1015,97,,,-2.9,,50000,20.1,1.6,0.9
2016,4,2,22:00,UTC,,1015.2,96,,,-3,,50000,61.7,1,0.8
2016,4,2,23:00,UTC,,1015.4,96,,,-3.2,,50000,74.1,0.7,0.6
2016,4,3,00:00,UTC,,1015.3,89,,,-1.7,,50000,56.1,2.6,2.1
2016,4,3,01:00,UTC,,1015.2,92,,,-2.4,,50000,58.1,2.4,1.3
2016,4,3,02:00,UTC,,1015.1,93,,,-1.7,,50000,60.2,2.5,1.7
2016,4,3,03:00,UTC,,1015,95,,,-3.6,,50000,61.7,1.9,1.6
2016,4,3,04:00,UTC,,1015,95,,,-2.1,,50000,63.3,3.3,2.9
2016,4,3,05:00,UTC,,1015.3,94,,,-1.3,,50000,61.2,3.7,3
2016,4,3,06:00,UTC,,1015.5,92,,,-0.1,,50000,60.7,4.3,3.1
2016,4,3,07:00,UTC,,1015.9,84,,,1.8,,50000,66.9,5.7,4.3
2016,4,3,08:00,UTC,,1015.9,75,,,3.6,,50000,62.8,5.9,4.7
2016,4,3,09:00,UTC,,1016,65,,,5.1,,50000,67.9,5.6,4.2
2016,4,3,10:00,UTC,,1016,56,,,6.2,,50000,64.3,4.7,3.8
2016,4,3,11:00,UTC,,1016,51,,,7,,50000,74.6,4,2.7
2016,4,3,12:00,UTC,,1015.8,43,,,7.6,,50000,57.1,4.6,3.3
2016,4,3,13:00,UTC,,1015.8,44,,,7.3,,50000,59.7,5.1,3
2016,4,3,14:00,UTC,,1015.7,40,,,7.7,,50000,68.9,4.3,3.3
2016,4,3,15:00,UTC,,1015.5,42,,,7.8,,50000,65.3,2.8,1.9
2016,4,3,16:00,UTC,,1015.8,57,,,5,,50000,180.6,3.3,2
2016,4,3,17:00,UTC,,1016,68,,,2,,50000,173.9,2.1,1.2
2016,4,3,18:00,UTC,,1016.4,76,,,-0.1,,50000,8.2,1.7,1
2016,4,3,19:00,UTC,,1016.4,85,,,-1.1,,50000,55,2.1,1.5
2016,4,3,20:00,UTC,,1016.7,80,,,0.8,,50000,71,4.7,3
2016,4,3,21:00,UTC,,1016.8,84,,,-0.4,,50000,69.4,3.6,3
2016,4,3,22:00,UTC,,1016.9,87,,,-0.6,,50000,72,3.4,2.5
2016,4,3,23:00,UTC,,1016.9,90,,,-1.4,,50000,72.5,2.8,2.4
2016,4,4,00:00,UTC,,1016.9,90,,,-1,,50000,70.5,4,3.4
2016,4,4,01:00,UTC,,1016.8,90,,,-1.3,,48754,68.4,4.3,3.7
2016,4,4,02:00,UTC,,1016.8,90,,,-0.8,,50000,70.5,4.3,3.5
2016,4,4,03:00,UTC,,1016.7,89,,,-0.5,,50000,68.4,5.1,4.1
2016,4,4,04:00,UTC,,1016.6,84,,,0.3,,50000,75.6,5.5,3.4
2016,4,4,05:00,UTC,,1016.4,85,,,0.4,,50000,73.1,6.8,4.7
2016,4,4,06:00,UTC,,1016.6,82,,,1,,50000,78.7,5.3,3.7
2016,4,4,07:00,UTC,,1016.6,78,,,2.3,,45716,79.7,5.8,4.2
2016,4,4,08:00,UTC,,1016.8,74,,,3.4,,46733,80.3,4.6,3.5
2016,4,4,09:00,UTC,,1016.6,67,,,4.5,,50000,81.3,5.2,3.6
2016,4,4,10:00,UTC,,1016.3,60,,,6,,49966,78.2,5.2,3.8
2016,4,4,11:00,UTC,,1016,48,,,7.3,,50000,88.5,5.5,3.9
2016,4,4,12:00,UTC,,1015.6,42,,,8.2,,34718,96.7,5.5,2.6
2016,4,4,13:00,UTC,,1015.3,59,,,5.5,,50000,124,4.3,3.2
2016,4,4,14:00,UTC,,1015,59,,,6.1,,50000,144,2.7,1.4
2016,4,4,15:00,UTC,,1014.7,51,,,7.3,,50000,174.4,1.4,0.8
2016,4,4,16:00,UTC,,1014.2,62,,,5.3,,50000,10.8,1.3,0.7
2016,4,4,17:00,UTC,,1013.9,71,,,3.4,,50000,24.2,0.4,0.2
2016,4,4,18:00,UTC,,1013.8,80,,,0.9,,50000,62.8,0.9,0.6
2016,4,4,19:00,UTC,,1013.6,66,,,2.6,,50000,69.4,4.4,3.6
2016,4,4,20:00,UTC,,1013.6,64,,,3.2,,50000,86.4,3.8,2.8
2016,4,4,21:00,UTC,,1013.5,64,,,2.6,,50000,76.7,3.2,2.6
2016,4,4,22:00,UTC,,1013.4,63,,,2.8,,50000,73.1,3.9,3.1
2016,4,4,23:00,UTC,,1013,64,,,2.8,,50000,82.3,4.2,3
2016,4,5,00:00,UTC,,1012.6,65,,,3.1,,50000,79.2,4.8,3.4
2016,4,5,01:00,UTC,,1012,71,,,2.5,,50000,68.9,3.8,3.1
2016,4,5,02:00,UTC,,1011.6,67,,,3.3,,50000,74.6,5.7,4
2016,4,5,03:00,UTC,,1011.3,76,,,2.6,,47834,73.6,4.3,3.3
2016,4,5,04:00,UTC,,1010.6,82,,,2.2,,48166,67.4,4.7,3.8
2016,4,5,05:00,UTC,,1010.5,79,,,2.5,,50000,74.1,5.5,3.6
2016,4,5,06:00,UTC,,1010.3,72,,,3,,50000,72,4.8,3.6
2016,4,5,07:00,UTC,,1009.9,71,,,3.2,,50000,77.2,5.1,3.6
2016,4,5,08:00,UTC,,1009.8,81,,,2.9,,16660,84.9,4.9,3.4
2016,4,5,09:00,UTC,,1009.5,89,,,2.9,,39785,88.5,5.1,3.1
2016,4,5,10:00,UTC,,1009.5,90,,,3,,41825,90.5,4.7,3.3
2016,4,5,11:00,UTC,,1009.4,93,,,3.4,,39867,83.9,3.6,2.7
2016,4,5,12:00,UTC,,1009.1,93,,,3.8,,46005,78.7,3.7,2.7
2016,4,5,13:00,UTC,,1008.7,91,,,4,,45352,76.7,3.6,2.7
2016,4,5,14:00,UTC,,1008.4,85,,,4.4,,50000,78.2,4.4,2.2
2016,4,5,15:00,UTC,,1008.1,84,,,4,,50000,139.9,2.8,1.9
2016,4,5,16:00,UTC,,1007.8,84,,,3.1,,50000,179,0.7,0.3
2016,4,5,17:00,UTC,,1007.5,86,,,2.8,,50000,179.5,1.3,0.8
2016,4,5,18:00,UTC,,1007.2,91,,,2.1,,50000,24.2,1.1,0.8
2016,4,5,19:00,UTC,,1007,92,,,1.8,,50000,159.5,0.5,0.3
2016,4,5,20:00,UTC,,1006.8,94,,,1.5,,36882,74.6,2.1,0.4
2016,4,5,21:00,UTC,,1006.4,97,,,1.5,,12554,73.1,1.5,1
2016,4,5,22:00,UTC,,1006,98,,,1.6,,11321,49.9,0.9,0.6
2016,4,5,23:00,UTC,,1005.5,98,,,2,,15892,75.6,3.2,2.2
2016,4,6,00:00,UTC,,1004.5,98,,,1.8,,14157,70,3.7,2.8
2016,4,6,01:00,UTC,,1003.9,96,,,1.7,,17461,71,4.7,3.5
2016,4,6,02:00,UTC,,1003.2,97,,,1.3,,16172,66.4,5.3,4
2016,4,6,03:00,UTC,,1002.5,98,,,1.2,,9016,66.9,5.1,4
2016,4,6,04:00,UTC,,1001.9,98,,,1.1,,10371,68.9,5.7,4.2
2016,4,6,05:00,UTC,,1001.3,98,,,1.4,,17514,62.8,4.5,3.7
2016,4,6,06:00,UTC,,1001,98,,,1.6,,9528,65.8,4.2,3.5
2016,4,6,07:00,UTC,,1000.7,99,,,2,,10771,60.2,3.8,3.1
2016,4,6,08:00,UTC,,1000.2,98,,,2.7,,12211,63.8,5.9,4.7
2016,4,6,09:00,UTC,,999.6,98,,,3.3,,16460,63.3,5.5,4.5
2016,4,6,10:00,UTC,,999,95,,,3.9,,50000,54,6.3,4.8
2016,4,6,11:00,UTC,,998.2,91,,,4.5,,47264,62.2,8.4,6.6
2016,4,6,12:00,UTC,,997.5,94,,,4.3,,21619,60.2,8.1,6
2016,4,6,13:00,UTC,,996.5,94,,,4.1,,16699,54.5,7.9,5.8
2016,4,6,14:00,UTC,,995.6,95,,,3.8,,35529,57.1,7.5,5.8
2016,4,6,15:00,UTC,,994.9,95,,,3.7,,18943,61.2,9.6,7.2
2016,4,6,16:00,UTC,,993.9,95,,,3.6,,18848,57.6,8.9,6.8
2016,4,6,17:00,UTC,,993.3,94,,,3.7,,41792,58.1,8.4,6.9
2016,4,6,18:00,UTC,,992.7,92,,,3.7,,50000,62.8,9.3,6.8
2016,4,6,19:00,UTC,,992,90,,,3.6,,50000,63.8,9.1,7.1
2016,4,6,20:00,UTC,,991.4,90,,,3.4,,41724,63.3,9.1,6.8
2016,4,6,21:00,UTC,,991.1,91,,,3.3,,32016,65.8,8.2,6.3
2016,4,6,22:00,UTC,,990.7,94,,,3,,24278,62.2,8.3,6.2
2016,4,6,23:00,UTC,,990.4,92,,,3.4,,50000,64.3,9.4,7.6
2016,4,7,00:00,UTC,,990.1,94,,,3.6,,50000,64.8,9.7,7
2016,4,7,01:00,UTC,,990.1,91,,,4.3,,50000,72.5,9.2,6.2
2016,4,7,02:00,UTC,,990.1,90,,,4.5,,50000,68.9,8.3,6.1
2016,4,7,03:00,UTC,,990.5,90,,,4.8,,43042,82.3,8.8,5.5
2016,4,7,04:00,UTC,,991,89,,,4.2,,50000,81.3,6.8,5
2016,4,7,05:00,UTC,,990.9,90,,,4.7,,50000,80.3,9.4,6.2
2016,4,7,06:00,UTC,,991.2,88,,,5.3,,50000,79.7,10.4,6.7
2016,4,7,07:00,UTC,,991.6,87,,,5.8,,50000,84.4,9.7,6.7
2016,4,7,08:00,UTC,,992.2,88,,,5.8,,32292,86.4,11,6.8
2016,4,7,09:00,UTC,,992.8,86,,,5.9,,50000,85.4,7.7,5.4
2016,4,7,10:00,UTC,,993.5,83,,,6.3,,50000,89,7.9,5.6
2016,4,7,11:00,UTC,,993.9,82,,,6.6,,50000,84.9,9.1,5.6
2016,4,7,12:00,UTC,,994.3,80,,,7,,50000,88,10,6.2
2016,4,7,13:00,UTC,,994.6,76,,,7.3,,50000,92.1,9.1,6.1
2016,4,7,14:00,UTC,,994.9,76,,,6.7,,50000,92.6,8.2,5.5
2016,4,7,15:00,UTC,,994.9,75,,,6.6,,50000,87.5,5.4,3.7
2016,4,7,16:00,UTC,,994.6,78,,,6.7,,50000,77.2,5.4,3.9
2016,4,7,17:00,UTC,,994.4,77,,,6.7,,50000,80.8,7.9,5.6
2016,4,7,18:00,UTC,,994.1,85,,,5.7,,33333,84.4,9.9,6.8
2016,4,7,19:00,UTC,,993.5,94,,,4.5,,22272,78.2,6.7,4.8
2016,4,7,20:00,UTC,,992.7,94,,,4.8,,50000,75.1,7.3,5
2016,4,7,21:00,UTC,,992.1,92,,,4.6,,50000,76.1,9.3,6.5
2016,4,7,22:00,UTC,,991.3,93,,,4.5,,44193,75.6,6.5,4.7
2016,4,7,23:00,UTC,,990.9,93,,,4.3,,50000,80.3,6.6,4.5
2016,4,8,00:00,UTC,,990.9,95,,,3.8,,13386,91.1,7.1,4.6
2016,4,8,01:00,UTC,,991.2,97,,,2.7,,6084,125.5,3.3,2.5
2016,4,8,02:00,UTC,,991.4,97,,,2.4,,46329,114.7,6.5,3.9
2016,4,8,03:00,UTC,,991.8,98,,,2.3,,16549,110.1,6.3,4
2016,4,8,04:00,UTC,,992,95,,,2.6,,50000,104.4,6.4,4.3
2016,4,8,05:00,UTC,,992.4,93,,,2.9,,50000,104.9,6,3.6
2016,4,8,06:00,UTC,,992.6,89,,,3.1,,50000,100.3,8.2,5.8
2016,4,8,07:00,UTC,,992.9,88,,,3.2,,50000,101.9,7.1,5.1
2016,4,8,08:00,UTC,,993.1,83,,,3.6,,50000,102.4,8.4,5.6
2016,4,8,09:00,UTC,,993.2,77,,,4.9,,50000,107.5,7.9,5.4
2016,4,8,10:00,UTC,,993.5,75,,,5,,50000,108.5,7.1,5
2016,4,8,11:00,UTC,,993.7,70,,,6.1,,50000,110.6,7.3,5
2016,4,8,12:00,UTC,,994.1,67,,,6.1,,50000,106,8,5.2
2016,4,8,13:00,UTC,,994.3,56,,,6.4,,46638,118.8,13.5,7.9
2016,4,8,14:00,UTC,,994.7,61,,,5,,50000,114.7,11.3,7.3
2016,4,8,15:00,UTC,,995,62,,,4.6,,50000,116.8,10.3,6
2016,4,8,16:00,UTC,,995.3,61,,,4.5,,50000,116.8,11.1,6.7
2016,4,8,17:00,UTC,,995.5,62,,,4.3,,50000,111.6,10.1,6
2016,4,8,18:00,UTC,,995.9,61,,,4.2,,50000,110.1,6.7,4.6
2016,4,8,19:00,UTC,,996.1,62,,,3.9,,50000,106.5,6.1,4.3
2016,4,8,20:00,UTC,,996.1,63,,,3.6,,50000,104.9,6,3.9
2016,4,8,21:00,UTC,,996.4,63,,,3.7,,50000,113.7,6.3,3.7
2016,4,8,22:00,UTC,,996.8,66,,,3.5,,50000,109.1,5.3,3.2
2016,4,8,23:00,UTC,,997.1,68,,,2.9,,50000,108.5,6.7,3.6
2016,4,9,00:00,UTC,,997.3,73,,,1.8,,50000,106,5.8,3.5
2016,4,9,01:00,UTC,,997.7,79,,,0.9,,50000,109.1,5.3,2.8
2016,4,9,02:00,UTC,,998.1,82,,,0.6,,50000,106,5.1,3.6
2016,4,9,03:00,UTC,,998.5,86,,,0.1,,50000,103.9,5.1,4.1
2016,4,9,04:00,UTC,,998.9,86,,,0.4,,50000,105.5,5.6,3.9
2016,4,9,05:00,UTC,,999.6,82,,,1.3,,50000,107,5.1,3.7
2016,4,9,06:00,UTC,,999.9,77,,,2.6,,49970,102.4,5.3,3.8
2016,4,9,07:00,UTC,,1000.3,69,,,3.9,,45248,102.9,4.7,3.1
2016,4,9,08:00,UTC,,1001.1,68,,,4.9,,50000,131.2,6.3,3.2
2016,4,9,09:00,UTC,,1001.5,65,,,5.7,,50000,131.2,5.2,3.8
2016,4,9,10:00,UTC,,1001.9,56,,,6.5,,50000,127.1,6.5,5
2016,4,9,11:00,UTC,,1002.4,57,,,6,,50000,132.2,9.2,7
2016,4,9,12:00,UTC,,1003,61,,,6.2,,35566,133.2,8.9,5.8
2016,4,9,13:00,UTC,,1003.6,64,,,5.3,,43358,139.4,7.8,6
2016,4,9,14:00,UTC,,1004,63,,,5,,50000,132.7,6.7,5.4
2016,4,9,15:00,UTC,,1004.3,62,,,4.7,,50000,139.9,9.2,6.6
2016,4,9,16:00,UTC,,1004.6,71,,,3.5,,50000,131.7,4.4,3.2
2016,4,9,17:00,UTC,,1005,77,,,2.8,,50000,125.5,3.1,2.2
2016,4,9,18:00,UTC,,1005.5,78,,,2.5,,50000,128.1,3.4,2.5
2016,4,9,19:00,UTC,,1006,82,,,2,,50000,141.5,2.2,1.7
2016,4,9,20:00,UTC,,1006.5,85,,,1.5,,50000,134.3,1.6,0.9
2016,4,9,21:00,UTC,,1007,87,,,1.2,,50000,138.9,1.9,1.3
2016,4,9,22:00,UTC,,1007.4,89,,,1,,50000,138.4,3,2.2
2016,4,9,23:00,UTC,,1007.8,94,,,0,,50000,139.9,3,2.5
2016,4,10,00:00,UTC,,1008.2,95,,,-0.3,,50000,138.9,3.3,2.6
2016,4,10,01:00,UTC,,1008.7,97,,,-0.6,,50000,136.3,3.8,2.9
2016,4,10,02:00,UTC,,1009.3,97,,,-0.2,,50000,129.6,2.7,2.1
2016,4,10,03:00,UTC,,1009.8,97,,,0,,50000,134.3,2.3,1.6
2016,4,10,04:00,UTC,,1010.4,96,,,0.4,,50000,137.9,2.4,1.9
2016,4,10,05:00,UTC,,1011,93,,,1.5,,50000,161,4.3,2.8
2016,4,10,06:00,UTC,,1011.8,87,,,2.5,,50000,169.3,5.8,3.7
2016,4,10,07:00,UTC,,1012.7,86,,,2.1,,49203,174.9,6.2,3.8
2016,4,10,08:00,UTC,,1013.5,77,,,3.2,,50000,171.3,6.8,3.8
2016,4,10,09:00,UTC,,1014.3,74,,,3.8,,50000,169.8,7.7,5
2016,4,10,10:00,UTC,,1015,73,,,4.4,,50000,160,8.6,5.1
2016,4,10,11:00,UTC,,1015.7,73,,,3.9,,50000,166.2,9,5.4
2016,4,10,12:00,UTC,,1016.3,69,,,4.7,,49091,171.8,8.1,5
2016,4,10,13:00,UTC,,1016.7,62,,,5.8,,50000,169.3,7.3,4.3
2016,4,10,14:00,UTC,,1017.1,64,,,5.7,,47883,155.9,7.5,5.7
2016,4,10,15:00,UTC,,1017.7,64,,,5,,50000,134.8,5.3,4.1
2016,4,10,16:00,UTC,,1018.2,77,,,3.2,,50000,140.4,3.8,2.6
2016,4,10,17:00,UTC,,1018.8,85,,,1.8,,50000,128.1,3.2,2.5
2016,4,10,18:00,UTC,,1019.3,90,,,0.7,,50000,152.3,2.5,1.8
2016,4,10,19:00,UTC,,1019.8,91,,,0.6,,50000,177,1.3,0.9
2016,4,10,20:00,UTC,,1020.1,92,,,0.3,,50000,172.3,1.5,0.9
2016,4,10,21:00,UTC,,1020.4,92,,,0.3,,50000,167.2,1,0.6
2016,4,10,22:00,UTC,,1020.8,93,,,-0.1,,50000,133.8,1.5,0.9
2016,4,10,23:00,UTC,,1021.2,94,,,-0.3,,50000,127.1,1.5,1
2016,4,11,00:00,UTC,,1021.3,91,,,0.5,,50000,103.9,1.1,0.7
2016,4,11,01:00,UTC,,1021.5,93,,,0.4,,50000,87.5,1.8,1.3
2016,4,11,02:00,UTC,,1021.7,91,,,0.4,,50000,100.8,1.7,1.1
2016,4,11,03:00,UTC,,1021.6,93,,,0,,50000,83.9,1.3,0.6
2016,4,11,04:00,UTC,,1021.5,89,,,0.5,,50000,74.6,2.5,1
2016,4,11,05:00,UTC,,1021.4,88,,,1.1,,50000,70.5,4.6,1.9
2016,4,11,06:00,UTC,,1021.4,83,,,1.8,,50000,79.7,5.2,2.9
2016,4,11,07:00,UTC,,1021.2,73,,,3.4,,50000,79.7,4.8,3.7
2016,4,11,08:00,UTC,,1021.1,65,,,5,,50000,79.7,5,3.6
2016,4,11,09:00,UTC,,1020.7,60,,,6.3,,50000,88.5,4.3,2.9
2016,4,11,10:00,UTC,,1020.3,57,,,7.6,,46558,69.4,3.4,2.2
2016,4,11,11:00,UTC,,1020.1,56,,,8,,27528,125.5,3.8,2.2
2016,4,11,12:00,UTC,,1020.1,66,,,5.2,,50000,143.5,8,6.2
2016,4,11,13:00,UTC,,1019.7,59,,,5.5,,50000,139.9,8.2,6.3
2016,4,11,14:00,UTC,,1019.4,56,,,6.2,,50000,129.6,7,5.1
2016,4,11,15:00,UTC,,1018.9,55,,,6.2,,44569,134.3,6.6,4.9
2016,4,11,16:00,UTC,,1018.7,56,,,5.2,,50000,138.9,6.2,4.7
2016,4,11,17:00,UTC,,1018.4,68,,,2.8,,50000,142.5,3.4,2.8
2016,4,11,18:00,UTC,,1018.4,74,,,1.2,,50000,137.4,4.2,3.1
2016,4,11,19:00,UTC,,1018,82,,,-0.3,,50000,136.8,2.3,2
2016,4,11,20:00,UTC,,1017.5,83,,,-1,,50000,66.4,1.8,1.4
2016,4,11,21:00,UTC,,1016.9,84,,,-1.2,,50000,68.9,2.1,1.4
2016,4,11,22:00,UTC,,1016.4,85,,,-1,,50000,71.5,1.4,0.7
2016,4,11,23:00,UTC,,1015.8,82,,,-1.1,,50000,81.3,2.3,1.9
2016,4,12,00:00,UTC,,1015.4,94,,,-2.9,,50000,19,0.7,0.3
2016,4,12,01:00,UTC,,1014.9,89,,,-2.4,,50000,97.2,1.4,0.8
2016,4,12,02:00,UTC,,1014.5,94,,,-3,,50000,60.2,1,0.6
2016,4,12,03:00,UTC,,1013.8,95,,,-3,,50000,93.1,1.4,0.7
2016,4,12,04:00,UTC,,1013.1,93,,,-0.7,,50000,91.6,2.2,1.5
2016,4,12,05:00,UTC,,1012.3,89,,,0.4,,50000,82.8,5.4,2
2016,4,12,06:00,UTC,,1012,83,,,2,,50000,145.1,3.4,2.2
2016,4,12,07:00,UTC,,1011.6,79,,,2.7,,40500,126.6,5.9,4.1
2016,4,12,08:00,UTC,,1010.8,76,,,3.4,,50000,115.2,4.4,3.3
2016,4,12,09:00,UTC,,1011,83,,,2.4,,50000,142.5,6.6,5.3
2016,4,12,10:00,UTC,,1010.7,73,,,3.5,,50000,138.4,7.9,5.2
2016,4,12,11:00,UTC,,1010.9,61,,,3.2,,50000,136.3,8.8,6.3
2016,4,12,12:00,UTC,,1010.8,67,,,2.4,,50000,137.9,8.7,6.8
2016,4,12,13:00,UTC,,1010.7,57,,,3.7,,50000,137.4,7.6,5.8
2016,4,12,14:00,UTC,,1010.6,57,,,3.7,,50000,137.4,7.4,5.2
2016,4,12,15:00,UTC,,1010,55,,,4.9,,50000,135.3,7.6,5.1
2016,4,12,16:00,UTC,,1009.5,57,,,4.6,,50000,130.2,5.5,4
2016,4,12,17:00,UTC,,1009.1,67,,,3.4,,50000,124,4.4,3.1
2016,4,12,18:00,UTC,,1008.9,72,,,2.7,,50000,124,4.2,2.6
2016,4,12,19:00,UTC,,1008.5,74,,,2.2,,50000,118.3,5.2,3.5
2016,4,12,20:00,UTC,,1008.5,77,,,1.5,,50000,113.7,4.5,2.8
2016,4,12,21:00,UTC,,1008.3,77,,,1.5,,50000,122.4,4.8,3.4
2016,4,12,22:00,UTC,,1008.1,76,,,1.2,,50000,121.9,4.3,3.1
2016,4,12,23:00,UTC,,1007.9,75,,,0.7,,50000,129.1,4.4,3.2
2016,4,13,00:00,UTC,,1007.7,76,,,-0.3,,50000,126,3.5,2.5
2016,4,13,01:00,UTC,,1007.5,83,,,-1.8,,50000,120.4,2.3,1.4
2016,4,13,02:00,UTC,,1007.6,85,,,-1.3,,50000,130.7,3.6,2.6
2016,4,13,03:00,UTC,,1007.5,87,,,-1.3,,50000,144,3.3,2.7
2016,4,13,04:00,UTC,,1007.7,88,,,-1.7,,50000,121.9,4.7,1.9
2016,4,13,05:00,UTC,,1007.8,83,,,-0.1,,50000,148.7,4.1,3.2
2016,4,13,06:00,UTC,,1008,82,,,0.7,,50000,155.9,4.7,3.6
2016,4,13,07:00,UTC,,1008.4,78,,,1.6,,50000,167.2,4.9,3.3
2016,4,13,08:00,UTC,,1009,87,,,0.6,,50000,149.7,5.7,4.5
2016,4,13,09:00,UTC,,1009.9,83,,,1.5,,47921,164.6,7.5,5.2
2016,4,13,10:00,UTC,,1010.5,78,,,0.9,,48605,174.4,7.4,3.6
2016,4,13,11:00,UTC,,1011.1,71,,,1.2,,50000,169.8,6.1,3.8
2016,4,13,12:00,UTC,,1011.5,66,,,1.1,,50000,171.8,7.8,5
2016,4,13,13:00,UTC,,1011.9,65,,,1.2,,50000,170.8,7.1,4.1
2016,4,13,14:00,UTC,,1012.3,62,,,0.9,,50000,172.3,5.9,3.7
2016,4,13,15:00,UTC,,1012.4,61,,,0.7,,47833,168.7,6.6,4.1
2016,4,13,16:00,UTC,,1012.7,58,,,1.5,,50000,182.1,4.6,2.7
2016,4,13,17:00,UTC,,1013,54,,,0.3,,50000,160.5,4.9,3.1
2016,4,13,18:00,UTC,,1013.5,57,,,-1.9,,50000,166.7,3.8,2.7
2016,4,13,19:00,UTC,,1014.1,56,,,-2.2,,50000,173.4,3.3,2.2
2016,4,13,20:00,UTC,,1014.6,54,,,-2.8,,50000,170.8,3.4,1.9
2016,4,13,21:00,UTC,,1014.8,61,,,-3.9,,50000,181.6,2.8,1.8
2016,4,13,22:00,UTC,,1014.9,71,,,-5,,50000,184.7,1.9,0.9
2016,4,13,23:00,UTC,,1015.2,68,,,-6.2,,50000,174.9,1.2,0.7
2016,4,14,00:00,UTC,,1015.4,68,,,-6.2,,50000,171.8,2.5,1.4
2016,4,14,01:00,UTC,,1015.4,80,,,-7.4,,50000,177.5,1.7,1
2016,4,14,02:00,UTC,,1015.2,78,,,-7.7,,50000,178,1.7,1
2016,4,14,03:00,UTC,,1015,83,,,-8.4,,50000,4.1,0.7,0.5
2016,4,14,04:00,UTC,,1015,87,,,-7.9,,50000,144,1.3,0.9
2016,4,14,05:00,UTC,,1015,66,,,-3.6,,43867,17.5,0.9,0.4
2016,4,14,06:00,UTC,,1014.9,55,,,-1.7,,50000,88,0.8,0.4
2016,4,14,07:00,UTC,,1014.9,39,,,-0.1,,50000,139.4,1.9,0.9
2016,4,14,08:00,UTC,,1014.6,35,,,0.4,,42962,121.9,3.7,2.6
2016,4,14,09:00,UTC,,1014.3,30,,,0.9,,50000,131.2,5.5,2.7
2016,4,14,10:00,UTC,,1013.6,34,,,1.6,,42174,183.1,3.4,2.1
2016,4,14,11:00,UTC,,1013.1,28,,,1.8,,45763,181.1,4.2,2
2016,4,14,12:00,UTC,,1012.3,31,,,1.8,,45412,182.6,4.6,2.7
2016,4,14,13:00,UTC,,1011.6,32,,,1.1,,42537,175.9,6,3.7
2016,4,14,14:00,UTC,,1011,36,,,0.9,,50000,178,5.8,3.5
2016,4,14,15:00,UTC,,1010.2,37,,,0.9,,50000,175.4,4.7,3.1
2016,4,14,16:00,UTC,,1009.7,35,,,0.7,,50000,175.4,4.8,2.7
2016,4,14,17:00,UTC,,1009.1,42,,,-0.2,,50000,181.6,3.5,1.7
2016,4,14,18:00,UTC,,1008.8,52,,,-2.4,,23442,14.4,1.5,0.9
2016,4,14,19:00,UTC,,1008.5,56,,,-2.5,,50000,35,2,1.2
2016,4,14,20:00,UTC,,1008.1,51,,,-2.5,,50000,53.5,2.4,2
2016,4,14,21:00,UTC,,1007.8,66,,,-4,,50000,60.2,1.6,1.3
2016,4,14,22:00,UTC,,1007.5,55,,,-3.9,,50000,61.2,2.5,2.3
2016,4,14,23:00,UTC,,1007,59,,,-4.8,,50000,62.2,3.4,3
2016,4,15,00:00,UTC,,1006.5,64,,,-5.5,,50000,65.3,3.7,3.3
2016,4,15,01:00,UTC,,1006,62,,,-5.2,,50000,69.4,3.7,3.1
2016,4,15,02:00,UTC,,1005.8,69,,,-6,,50000,70,4.1,3.5
2016,4,15,03:00,UTC,,1005.6,74,,,-6.6,,50000,69.4,3.6,3.1
2016,4,15,04:00,UTC,,1005.4,69,,,-4.9,,50000,68.9,5.3,4.1
2016,4,15,05:00,UTC,,1005.2,62,,,-2.9,,50000,72.5,4.7,3.9
2016,4,15,06:00,UTC,,1005,54,,,-0.4,,49406,74.1,4.8,3.5
2016,4,15,07:00,UTC,,1005,46,,,1,,49452,67.9,5.5,4
2016,4,15,08:00,UTC,,1004.9,39,,,2.2,,40612,74.1,6,4.4
2016,4,15,09:00,UTC,,1004.5,31,,,3.5,,50000,74.1,6.3,3.4
2016,4,15,10:00,UTC,,1004.3,28,,,4,,50000,66.9,5.4,2
2016,4,15,11:00,UTC,,1003.8,27,,,4.8,,45648,75.1,6.8,2.8
2016,4,15,12:00,UTC,,1003.4,26,,,5,,48310,59.7,4.6,2.6
2016,4,15,13:00,UTC,,1003.1,26,,,5.2,,50000,55,4.8,2.7
2016,4,15,14:00,UTC,,1002.9,23,,,5.7,,47488,31.4,2.9,1.4
2016,4,15,15:00,UTC,,1002.8,24,,,5.7,,41571,74.1,2.8,1.7
2016,4,15,16:00,UTC,,1002.8,29,,,4.6,,50000,176.5,2.8,1.9
2016,4,15,17:00,UTC,,1002.7,35,,,3.2,,50000,179.5,1.6,0.9
2016,4,15,18:00,UTC,,1002.6,45,,,0.8,,50000,35,0.9,0.4
2016,4,15,19:00,UTC,,1002.6,59,,,-1.6,,50000,48.4,2.5,1.7
2016,4,15,20:00,UTC,,1002.7,39,,,0.8,,50000,70.5,4.1,3.2
2016,4,15,21:00,UTC,,1002.7,43,,,-0.3,,50000,70.5,4.1,3.3
2016,4,15,22:00,UTC,,1002.7,49,,,-0.9,,50000,62.2,3.3,2.7
2016,4,15,23:00,UTC,,1002.6,50,,,-0.9,,50000,62.8,3.7,3
2016,4,16,00:00,UTC,,1002.4,46,,,-0.4,,50000,68.9,4.6,3.7
2016,4,16,01:00,UTC,,1002.2,45,,,-0.2,,50000,63.8,4.9,3.7
2016,4,16,02:00,UTC,,1002.3,43,,,0.3,,50000,69.4,4.9,3.7
2016,4,16,03:00,UTC,,1002.4,47,,,0.3,,50000,67.4,4.3,3.5
2016,4,16,04:00,UTC,,1002.2,47,,,0.7,,50000,64.8,6.7,5.1
2016,4,16,05:00,UTC,,1002.3,45,,,1.3,,50000,66.4,6.2,5
2016,4,16,06:00,UTC,,1002.1,48,,,1.6,,50000,66.9,5.9,4.8
2016,4,16,07:00,UTC,,1002,48,,,3.3,,48566,68.4,6.9,5.4
2016,4,16,08:00,UTC,,1001.9,47,,,5.4,,46634,72,6.9,5.4
2016,4,16,09:00,UTC,,1001.7,48,,,8.2,,44393,78.2,8,5.7
2016,4,16,10:00,UTC,,1001.6,43,,,9.9,,46924,76.1,7.8,6
2016,4,16,11:00,UTC,,1001.5,47,,,10.2,,50000,79.7,6,4.3
2016,4,16,12:00,UTC,,1002.2,80,,,5.2,,44833,150.7,7.7,5.4
2016,4,16,13:00,UTC,,1002.6,86,,,6.1,,50000,106.5,2.3,1.2
2016,4,16,14:00,UTC,,1002.7,78,,,7.2,,50000,96.2,5.3,2.3
2016,4,16,15:00,UTC,,1002.7,75,,,7.9,,50000,90,5.2,3.4
2016,4,16,16:00,UTC,,1002.7,71,,,8.2,,50000,85.4,4.7,2.9
2016,4,16,17:00,UTC,,1002.6,71,,,7.9,,50000,77.7,3.6,2.6
2016,4,16,18:00,UTC,,1002.7,77,,,6.8,,50000,74.6,2.9,1.8
2016,4,16,19:00,UTC,,1002.4,81,,,6,,50000,65.3,4,3.3
2016,4,16,20:00,UTC,,1002,81,,,4.7,,50000,64.8,4.3,3.5
2016,4,16,21:00,UTC,,1001.6,81,,,4,,50000,68.9,5.2,3.9
2016,4,16,22:00,UTC,,1001.8,73,,,4.7,,50000,96.7,3.4,1.9
2016,4,16,23:00,UTC,,1001.7,71,,,4.5,,50000,90,2.8,1.6
2016,4,17,00:00,UTC,,1001.5,75,,,3.4,,50000,75.6,3.2,2.7
2016,4,17,01:00,UTC,,1001.4,76,,,3,,50000,76.7,2.7,2.2
2016,4,17,02:00,UTC,,1001,78,,,2.7,,50000,68.9,2.7,2.3
2016,4,17,03:00,UTC,,1000.7,67,,,4.3,,50000,71.5,6.1,3.5
2016,4,17,04:00,UTC,,1000.6,69,,,4.4,,50000,74.6,5.7,4
2016,4,17,05:00,UTC,,1000.1,84,,,4.2,,50000,72,5.1,3.4
2016,4,17,06:00,UTC,,999.7,86,,,3.8,,38290,67.9,8.3,5.9
2016,4,17,07:00,UTC,,999.6,85,,,4.4,,50000,70,6.3,4.4
2016,4,17,08:00,UTC,,999.2,84,,,5.4,,50000,76.7,4.1,3
2016,4,17,09:00,UTC,,998.9,82,,,5.6,,50000,75.6,4.2,3.1
2016,4,17,10:00,UTC,,998.6,79,,,6.5,,50000,80.3,4.4,3
2016,4,17,11:00,UTC,,998.4,75,,,7.7,,50000,89.5,4.5,2.8
2016,4,17,12:00,UTC,,998.3,77,,,7.7,,50000,101.9,4.2,3
2016,4,17,13:00,UTC,,997.9,87,,,7.2,,50000,120.4,2.9,1.6
2016,4,17,14:00,UTC,,997.8,88,,,7.4,,50000,134.3,2.2,1
2016,4,17,15:00,UTC,,997.7,83,,,7.1,,50000,94.7,7.6,2.6
2016,4,17,16:00,UTC,,997.5,96,,,5.9,,10468,149.2,2.6,2.1
2016,4,17,17:00,UTC,,997.1,95,,,6.2,,50000,72.5,5.1,2.9
2016,4,17,18:00,UTC,,997.1,96,,,6.1,,50000,83.3,2.9,1.8
2016,4,17,19:00,UTC,,997,99,,,4.1,,2476,153.3,3.2,2.5
2016,4,17,20:00,UTC,,996.8,99,,,2.1,,1564,174.4,3.2,2.2
2016,4,17,21:00,UTC,,996.8,99,,,1.9,,1208,5.7,0.9,0.6
2016,4,17,22:00,UTC,,996.6,99,,,1.9,,4070,172.3,2.5,1.8
2016,4,17,23:00,UTC,,996.8,99,,,1.6,,3824,177,2.6,1.3
2016,4,18,00:00,UTC,,996.4,99,,,1,,3464,171.3,2.7,1.8
2016,4,18,01:00,UTC,,996.2,100,,,1.4,,6123,171.3,2.3,1.4
2016,4,18,02:00,UTC,,995.8,100,,,1.4,,2483,6.2,1.8,1.1
2016,4,18,03:00,UTC,,995.6,100,,,1.8,,1794,178.5,2.6,1.4
2016,4,18,04:00,UTC,,995.3,100,,,2.1,,4300,184.7,2.2,1.2
2016,4,18,05:00,UTC,,994.9,100,,,2.4,,4898,181.6,5.3,2.6
2016,4,18,06:00,UTC,,995,100,,,2.5,,12018,2.6,1.9,1.3
2016,4,18,07:00,UTC,,994.9,100,,,3,,34196,1.5,3.9,1.7
2016,4,18,08:00,UTC,,994.7,100,,,3.1,,41084,179,2.3,1.2
2016,4,18,09:00,UTC,,994.6,100,,,3.5,,49222,179.5,3.3,1.7
2016,4,18,10:00,UTC,,994.4,98,,,4.4,,50000,182.1,4.6,2.1
2016,4,18,11:00,UTC,,994.5,92,,,5,,50000,0.5,3.5,2.1
2016,4,18,12:00,UTC,,994.3,87,,,5.8,,50000,5.7,4.1,2.9
2016,4,18,13:00,UTC,,994.5,86,,,5.9,,50000,11.3,3.3,2.2
2016,4,18,14:00,UTC,,994.5,87,,,5.6,,50000,4.6,3.7,2.1
2016,4,18,15:00,UTC,,994.4,88,,,5,,50000,178,2.5,1.4
2016,4,18,16:00,UTC,,994.5,89,,,4.7,,50000,173.4,2.2,1.4
2016,4,18,17:00,UTC,,994.5,93,,,3.7,,50000,178,1.3,0.7
2016,4,18,18:00,UTC,,994.3,96,,,3.3,,50000,180.6,1.5,0.7
2016,4,18,19:00,UTC,,994.2,97,,,3.5,,50000,177,1.2,0.7
2016,4,18,20:00,UTC,,993.9,97,,,3.3,,50000,171.3,1.1,0.8
2016,4,18,21:00,UTC,,994,98,,,1.9,,3223,110.1,6.2,3.3
2016,4,18,22:00,UTC,,994,99,,,1.3,,5879,137.9,2.6,1.9
2016,4,18,23:00,UTC,,994.2,99,,,1.7,,8965,114.2,4.2,2.6
2016,4,19,00:00,UTC,,994.1,99,,,1.1,,15952,106.5,4.1,2.8
2016,4,19,01:00,UTC,,994.2,99,,,0.8,,2407,106,5.3,3.9
2016,4,19,02:00,UTC,,994,99,,,0.6,,1861,106.5,4,2.6
2016,4,19,03:00,UTC,,994.3,100,,,0.5,,4982,106,5.5,3.5
2016,4,19,04:00,UTC,,994.4,100,,,0.6,,29516,101.3,4.5,3.2
2016,4,19,05:00,UTC,,994.4,100,,,0.7,,50000,96.2,5.3,3
2016,4,19,06:00,UTC,,994.7,99,,,1.3,,50000,88,3.7,2.5
2016,4,19,07:00,UTC,,994.9,98,,,1.7,,20921,93.6,3.8,2.8
2016,4,19,08:00,UTC,,995.1,96,,,2.3,,50000,88.5,5,3.4
2016,4,19,09:00,UTC,,995.3,92,,,2.8,,50000,81.8,4.7,3
2016,4,19,10:00,UTC,,995.8,84,,,2.9,,50000,84.4,4.4,3.3
2016,4,19,11:00,UTC,,996.2,84,,,3.3,,50000,73.6,5.5,3.5
2016,4,19,12:00,UTC,,996.5,83,,,3.6,,49752,75.1,3.7,2.1
2016,4,19,13:00,UTC,,996.8,79,,,4.1,,49619,42.2,2.5,1.5
2016,4,19,14:00,UTC,,997.2,86,,,3.7,,42867,34.5,2.7,1.9
2016,4,19,15:00,UTC,,997.7,94,,,3.1,,50000,2.6,1.1,0.7
2016,4,19,16:00,UTC,,998.2,93,,,2.6,,50000,7.7,2.2,1.3
2016,4,19,17:00,UTC,,998.7,95,,,2.2,,15953,10.3,0.8,0.5
2016,4,19,18:00,UTC,,999,97,,,1.5,,44518,15.9,2.9,1.7
2016,4,19,19:00,UTC,,999.5,98,,,0.6,,8775,5.1,1.1,0.7
2016,4,19,20:00,UTC,,999.8,98,,,0.6,,14477,165.1,2.1,1.4
2016,4,19,21:00,UTC,,1000,99,,,1.1,,29322,171.8,2.6,1.6
2016,4,19,22:00,UTC,,1000.4,99,,,1.3,,48434,174.4,3.2,1.8
2016,4,19,23:00,UTC,,1000.8,99,,,1.3,,9404,182.1,3,1.7
2016,4,20,00:00,UTC,,1001.3,99,,,1.4,,4469,179.5,2.6,1.3
2016,4,20,01:00,UTC,,1001.9,99,,,1.6,,50000,185.2,2.8,1.6
2016,4,20,02:00,UTC,,1002.3,99,,,1.9,,37098,6.7,4.6,2.6
2016,4,20,03:00,UTC,,1003.1,99,,,2,,36187,6.2,5.5,3.4
2016,4,20,04:00,UTC,,1003.8,98,,,2.1,,50000,9.8,6.5,3.7
2016,4,20,05:00,UTC,,1004.5,95,,,2.2,,50000,8.2,6.6,4.4
2016,4,20,06:00,UTC,,1005.4,92,,,2.2,,50000,7.7,7.9,5
2016,4,20,07:00,UTC,,1006.2,91,,,2.3,,50000,5.1,7.6,4.8
2016,4,20,08:00,UTC,,1006.8,87,,,2.7,,50000,8.2,9,5.9
2016,4,20,09:00,UTC,,1007.8,86,,,2.6,,50000,2.1,7.9,4.3
2016,4,20,10:00,UTC,,1008.6,83,,,2.6,,50000,184.7,6.5,3.6
2016,4,20,11:00,UTC,,1009.3,82,,,2.9,,50000,181.1,8.4,3.7
2016,4,20,12:00,UTC,,1010,82,,,2.8,,50000,184.2,7.7,4.3
2016,4,20,13:00,UTC,,1010.4,80,,,2.8,,50000,0.5,7.6,3.7
2016,4,20,14:00,UTC,,1010.9,81,,,2.6,,50000,183.1,8.3,4.4
2016,4,20,15:00,UTC,,1011.4,87,,,1.9,,50000,172.3,7,4.2
2016,4,20,16:00,UTC,,1011.9,89,,,1.8,,50000,171.3,7.1,4.1
2016,4,20,17:00,UTC,,1012.3,90,,,1.5,,49649,175.9,7.6,4.2
2016,4,20,18:00,UTC,,1012.6,93,,,0.9,,21367,170.8,7,4.3
2016,4,20,19:00,UTC,,1012.7,90,,,0.9,,16953,173.9,6.8,4.1
2016,4,20,20:00,UTC,,1012.5,90,,,0.7,,37214,171.3,5.8,3.8
2016,4,20,21:00,UTC,,1012.3,90,,,0.2,,33795,170.8,4.4,3.1
2016,4,20,22:00,UTC,,1012,88,,,-0.1,,50000,171.8,4.2,2.8
2016,4,20,23:00,UTC,,1011.9,88,,,-0.4,,50000,168.2,4.5,2.9
2016,4,21,00:00,UTC,,1011.6,88,,,-0.3,,50000,169.8,4.8,2.9
2016,4,21,01:00,UTC,,1011.5,90,,,-0.5,,50000,167.2,4.9,3.1
2016,4,21,02:00,UTC,,1011.2,90,,,-0.8,,50000,167.2,5.2,3.3
2016,4,21,03:00,UTC,,1011,92,,,-1.1,,50000,166.7,4.6,2.9
2016,4,21,04:00,UTC,,1010.7,93,,,-1.3,,50000,162.6,3.8,2.6
2016,4,21,05:00,UTC,,1010.5,92,,,-1.2,,49539,160.5,3.6,2.5
2016,4,21,06:00,UTC,,1010.4,90,,,-0.5,,44996,156.9,3.8,2.5
2016,4,21,07:00,UTC,,1010.2,89,,,-0.3,,50000,153.3,4.1,3.2
2016,4,21,08:00,UTC,,1009.9,80,,,1.1,,46576,151.2,5.3,3.9
2016,4,21,09:00,UTC,,1009.8,76,,,2,,46071,160.5,5.9,3.8
2016,4,21,10:00,UTC,,1009.4,74,,,2.3,,42008,185.2,4.1,2.2
2016,4,21,11:00,UTC,,1009.1,72,,,3.1,,34731,180.6,3.6,2.5
2016,4,21,12:00,UTC,,1008.8,64,,,4.1,,50000,154.8,3.8,1.8
2016,4,21,13:00,UTC,,1008.4,64,,,4.6,,49672,146.6,6.2,3.3
2016,4,21,14:00,UTC,,1008.2,60,,,4,,50000,151.8,6.3,4.4
2016,4,21,15:00,UTC,,1007.8,64,,,3.7,,50000,146.6,4.4,3.3
2016,4,21,16:00,UTC,,1007.5,65,,,3,,50000,174.4,2.7,1.8
2016,4,21,17:00,UTC,,1007.2,71,,,2,,50000,177.5,2.3,1.2
2016,4,21,18:00,UTC,,1007,78,,,1.5,,50000,171.8,2,1.2
2016,4,21,19:00,UTC,,1006.7,83,,,1.1,,50000,178,1.1,0.8
2016,4,21,20:00,UTC,,1006.3,88,,,0.3,,50000,12.3,1.5,1.1
2016,4,21,21:00,UTC,,1006,92,,,0.6,,50000,162.6,0.5,0.3
2016,4,21,22:00,UTC,,1005.9,93,,,0.3,,50000,174.9,1,0.6
2016,4,21,23:00,UTC,,1005.7,95,,,-0.2,,46991,11.8,1.1,0.8
2016,4,22,00:00,UTC,,1005.6,96,,,0.2,,50000,17.5,1.4,0.7
2016,4,22,01:00,UTC,,1005.5,96,,,0.4,,50000,22.6,0.7,0.4
2016,4,22,02:00,UTC,,1005.4,96,,,0,,39718,14.4,1.3,0.7
2016,4,22,03:00,UTC,,1005.3,97,,,-0.5,,47696,11.8,1.6,1.3
2016,4,22,04:00,UTC,,1005.3,94,,,0.5,,50000,180.6,1.2,0.6
2016,4,22,05:00,UTC,,1005.3,82,,,1.5,,50000,16.5,2.4,1.5
2016,4,22,06:00,UTC,,1005,73,,,2.6,,50000,9.3,3.2,2
2016,4,22,07:00,UTC,,1004.9,73,,,2.9,,50000,9.8,4.7,2.6
2016,4,22,08:00,UTC,,1004.6,67,,,3.8,,50000,177.5,4.3,2.5
2016,4,22,09:00,UTC,,1004.5,65,,,3.2,,50000,1.5,6.9,2.9
2016,4,22,10:00,UTC,,1004.3,59,,,3.9,,50000,173.9,8.3,3.4
2016,4,22,11:00,UTC,,1004.4,51,,,3.8,,50000,6.7,5.4,3.1
2016,4,22,12:00,UTC,,1004.3,52,,,4.4,,50000,171.3,5.3,3.3
2016,4,22,13:00,UTC,,1004.3,55,,,3.5,,44139,171.8,6.5,4.3
2016,4,22,14:00,UTC,,1004.3,52,,,4.2,,50000,169.8,6,4
2016,4,22,15:00,UTC,,1004.3,52,,,3.4,,50000,172.3,6.1,3.8
2016,4,22,16:00,UTC,,1004.2,55,,,3.3,,50000,172.9,4.7,3.3
2016,4,22,17:00,UTC,,1004.1,65,,,2.4,,50000,172.3,3.9,2.4
2016,4,22,18:00,UTC,,1004.1,61,,,2.1,,50000,168.2,3.1,2.2
2016,4,22,19:00,UTC,,1004,72,,,-0.1,,50000,161,2.4,1.8
2016,4,22,20:00,UTC,,1004.1,82,,,-2.2,,50000,164.1,0.7,0.3
2016,4,22,21:00,UTC,,1004.1,76,,,-1.6,,50000,170.3,1.6,1
2016,4,22,22:00,UTC,,1004.2,88,,,-2.6,,50000,168.2,1.8,1.2
2016,4,22,23:00,UTC,,1004.3,80,,,-2.6,,50000,167.2,1.6,0.8
2016,4,23,00:00,UTC,,1004.4,85,,,-2.7,,50000,175.4,2.2,1.3
2016,4,23,01:00,UTC,,1004.4,82,,,-2.1,,50000,173.9,2.9,1.5
2016,4,23,02:00,UTC,,1004.4,82,,,-2.4,,50000,170.8,3,1.8
2016,4,23,03:00,UTC,,1004.3,84,,,-2.6,,50000,178.5,2.5,1.5
2016,4,23,04:00,UTC,,1004.3,80,,,-2,,50000,177,2.3,1.4
2016,4,23,05:00,UTC,,1004.4,71,,,0.1,,50000,185.2,3,1.8
2016,4,23,06:00,UTC,,1004.5,61,,,1.9,,50000,1,2.9,1.9
2016,4,23,07:00,UTC,,1004.5,54,,,3,,50000,184.7,3.5,1.7
2016,4,23,08:00,UTC,,1004.7,49,,,3.6,,50000,169.8,5.8,3.5
2016,4,23,09:00,UTC,,1004.9,46,,,3.7,,50000,173.4,7.4,4.7
2016,4,23,10:00,UTC,,1005.1,46,,,3.4,,50000,172.9,8,4.8
2016,4,23,11:00,UTC,,1005.4,46,,,3.2,,50000,172.9,9.1,6.2
2016,4,23,12:00,UTC,,1005.7,46,,,3.6,,50000,169.3,9.1,5.3
2016,4,23,13:00,UTC,,1005.7,43,,,4.1,,50000,174.4,5.8,3.4
2016,4,23,14:00,UTC,,1005.7,44,,,4.2,,50000,171.3,7.9,5
2016,4,23,15:00,UTC,,1005.8,46,,,3.5,,47696,170.8,7.8,4.8
2016,4,23,16:00,UTC,,1006.2,53,,,2.8,,50000,172.9,6,4.2
2016,4,23,17:00,UTC,,1006.5,64,,,1.5,,50000,169.3,6.3,4.1
2016,4,23,18:00,UTC,,1006.9,68,,,1.6,,12824,1.5,4.7,2.5
2016,4,23,19:00,UTC,,1007.2,75,,,0.1,,50000,170.3,2.8,1.7
2016,4,23,20:00,UTC,,1007.6,83,,,-0.8,,50000,156.9,1.6,0.9
2016,4,23,21:00,UTC,,1007.8,79,,,-0.4,,50000,171.8,2.1,1.2
2016,4,23,22:00,UTC,,1008,77,,,-0.8,,50000,171.3,2.1,1
2016,4,23,23:00,UTC,,1008.3,78,,,-0.7,,50000,175.9,2.1,1
2016,4,24,00:00,UTC,,1008.5,76,,,-0.9,,50000,173.9,2.2,1.1
2016,4,24,01:00,UTC,,1008.7,73,,,-1,,50000,175.4,2.7,1.3
2016,4,24,02:00,UTC,,1008.8,74,,,-1.1,,50000,176.5,2.8,1.5
2016,4,24,03:00,UTC,,1008.8,78,,,-1.1,,50000,173.9,1.7,0.8
2016,4,24,04:00,UTC,,1008.9,74,,,-0.8,,50000,172.9,1.6,1
2016,4,24,05:00,UTC,,1009.1,69,,,0.1,,49783,5.1,2.6,1.5
2016,4,24,06:00,UTC,,1009.3,58,,,1.6,,50000,15.9,1.6,0.8
2016,4,24,07:00,UTC,,1009.5,50,,,2.6,,50000,185.2,1.6,0.9
2016,4,24,08:00,UTC,,1009.6,47,,,3.6,,50000,11.3,4,2
2016,4,24,09:00,UTC,,1009.7,46,,,3.2,,46909,180.1,3.1,2
2016,4,24,10:00,UTC,,1009.8,52,,,3.3,,50000,174.4,5.2,3.2
2016,4,24,11:00,UTC,,1009.8,43,,,3.9,,50000,173.9,5.6,3.6
2016,4,24,12:00,UTC,,1009.8,42,,,3.8,,50000,169.8,6.1,3.9
2016,4,24,13:00,UTC,,1009.8,42,,,3.7,,50000,6.2,2.7,1.4
2016,4,24,14:00,UTC,,1009.8,42,,,3.6,,50000,177.5,3.1,1.7
2016,4,24,15:00,UTC,,1009.8,47,,,3.3,,50000,1,4.6,2.3
2016,4,24,16:00,UTC,,1009.8,47,,,3,,50000,177,3.2,1.5
2016,4,24,17:00,UTC,,1010,50,,,2.9,,48296,172.9,2.1,1.2
2016,4,24,18:00,UTC,,1010.2,57,,,2.2,,50000,180.1,2.1,1.1
2016,4,24,19:00,UTC,,1010.2,64,,,1.2,,50000,11.3,1.4,0.7
2016,4,24,20:00,UTC,,1010.3,70,,,0.4,,50000,32.4,2.4,1.6
2016,4,24,21:00,UTC,,1010.3,71,,,-0.5,,50000,27.8,2.3,1.6
2016,4,24,22:00,UTC,,1010.3,74,,,-0.6,,50000,24.2,2.5,1.6
2016,4,24,23:00,UTC,,1010.3,70,,,-0.2,,50000,29.8,3.2,1.9
2016,4,25,00:00,UTC,,1010.2,72,,,-0.8,,50000,33.4,2.5,1.4
2016,4,25,01:00,UTC,,1010.1,76,,,-1.4,,50000,28.8,3.2,1.8
2016,4,25,02:00,UTC,,1009.6,78,,,-1.5,,50000,25.7,3.7,2.4
2016,4,25,03:00,UTC,,1009.2,76,,,-1.1,,50000,27.3,4.9,2.8
2016,4,25,04:00,UTC,,1008.6,73,,,-0.2,,50000,26.2,6,3.7
2016,4,25,05:00,UTC,,1008.2,69,,,1,,50000,27.3,7.7,4.4
2016,4,25,06:00,UTC,,1007.8,61,,,2.7,,50000,34.5,7.9,4.7
2016,4,25,07:00,UTC,,1007.1,55,,,4,,50000,35.5,9.2,5.6
2016,4,25,08:00,UTC,,1006.5,48,,,5.1,,50000,38.1,12.5,7.6
2016,4,25,09:00,UTC,,1005.9,44,,,5.9,,50000,41.2,12.6,7
2016,4,25,10:00,UTC,,1005,61,,,4.7,,40852,39.6,14.9,8.1
2016,4,25,11:00,UTC,,1004.3,81,,,3,,23465,38.1,15.6,8.8
2016,4,25,12:00,UTC,,1004.6,93,,,1.9,,11153,35,9.7,6
2016,4,25,13:00,UTC,,1004.3,91,,,2.4,,31158,41.2,11.1,7.1
2016,4,25,14:00,UTC,,1004.3,91,,,2.6,,15708,43.7,12.9,7.3
2016,4,25,15:00,UTC,,1004.5,91,,,3.2,,50000,45.8,10.6,6.5
2016,4,25,16:00,UTC,,1004.6,89,,,3.9,,50000,50.4,10.1,7.1
2016,4,25,17:00,UTC,,1005,88,,,4.1,,50000,49.4,11.1,7.5
2016,4,25,18:00,UTC,,1005.9,90,,,4.1,,50000,55,9.1,7.1
2016,4,25,19:00,UTC,,1006.7,90,,,3.7,,50000,58.6,8.5,6.3
2016,4,25,20:00,UTC,,1007.8,88,,,3.8,,50000,67.9,9.1,7.1
2016,4,25,21:00,UTC,,1008.8,86,,,3.6,,50000,68.9,6,4.5
2016,4,25,22:00,UTC,,1009.6,83,,,3.1,,50000,73.6,4.6,3.4
2016,4,25,23:00,UTC,,1010.5,88,,,2,,50000,68.9,4.4,3.6
2016,4,26,00:00,UTC,,1011.3,83,,,1.5,,50000,75.6,3.4,2.5
2016,4,26,01:00,UTC,,1011.9,89,,,1.3,,50000,79.2,2.1,1.6
2016,4,26,02:00,UTC,,1012.5,97,,,-0.3,,50000,64.8,1.6,0.8
2016,4,26,03:00,UTC,,1013,94,,,0,,50000,56.1,1.4,1
2016,4,26,04:00,UTC,,1013.3,93,,,0.7,,50000,30.4,1.5,0.7
2016,4,26,05:00,UTC,,1013.4,91,,,2,,50000,49.4,1.5,0.5
2016,4,26,06:00,UTC,,1013.6,90,,,2.7,,46152,41.2,2.3,1.4
2016,4,26,07:00,UTC,,1013.4,94,,,3.1,,50000,21.1,2.1,1.3
2016,4,26,08:00,UTC,,1013.1,94,,,3.1,,33356,8.7,2.8,1.4
2016,4,26,09:00,UTC,,1012.9,94,,,3,,46071,6.7,3.6,2.3
2016,4,26,10:00,UTC,,1012.5,95,,,3.3,,50000,181.6,3.6,1.9
2016,4,26,11:00,UTC,,1011.7,93,,,3.5,,50000,180.6,5.4,2.9
2016,4,26,12:00,UTC,,1011.2,92,,,3.7,,50000,7.2,5.7,3.3
2016,4,26,13:00,UTC,,1009.9,94,,,3.6,,50000,4.6,6.2,3.8
2016,4,26,14:00,UTC,,1008.9,96,,,3.9,,9330,4.1,5.1,3.1
2016,4,26,15:00,UTC,,1007.7,98,,,4.3,,13943,9.8,4.6,2.7
2016,4,26,16:00,UTC,,1007.3,98,,,5.8,,18333,19,3.5,1.9
2016,4,26,17:00,UTC,,1007.1,96,,,7.6,,43171,46.8,4.6,2.6
2016,4,26,18:00,UTC,,1007.1,92,,,9.7,,33132,51.4,6.5,4.8
2016,4,26,19:00,UTC,,1006.7,95,,,8.9,,37896,35.5,4.9,3
2016,4,26,20:00,UTC,,1006.3,90,,,9.3,,38607,43.2,8.7,4.7
2016,4,26,21:00,UTC,,1005.6,92,,,8.7,,50000,36.5,5,3.2
2016,4,26,22:00,UTC,,1004.8,86,,,9.2,,50000,37,6.1,4
2016,4,26,23:00,UTC,,1004.3,84,,,9.9,,25215,47.3,9.9,5.8
2016,4,27,00:00,UTC,,1003.7,81,,,11.2,,50000,59.2,14,9.3
2016,4,27,01:00,UTC,,1004,79,,,11.4,,50000,64.3,12.8,9
2016,4,27,02:00,UTC,,1003.9,75,,,11.7,,50000,54,12.1,7.5
2016,4,27,03:00,UTC,,1003.9,70,,,11.7,,50000,55.6,12.3,8.7
2016,4,27,04:00,UTC,,1004.3,66,,,11.6,,50000,53,11,8.2
2016,4,27,05:00,UTC,,1004,59,,,11.9,,50000,49.9,11.5,8
2016,4,27,06:00,UTC,,1004,55,,,12.2,,50000,53,12.5,8.3
2016,4,27,07:00,UTC,,1003.6,56,,,12.2,,50000,52.5,12.8,8.2
2016,4,27,08:00,UTC,,1003.6,58,,,12.9,,50000,58.6,13.8,10.1
2016,4,27,09:00,UTC,,1004,54,,,14.4,,50000,64.8,16.6,12.7
2016,4,27,10:00,UTC,,1004.8,55,,,14.5,,50000,64.3,15.5,11
2016,4,27,11:00,UTC,,1005.4,58,,,14.3,,50000,63.3,16.2,12.3
2016,4,27,12:00,UTC,,1006,61,,,14.2,,48495,63.8,15.5,11.7
2016,4,27,13:00,UTC,,1006.9,63,,,13.9,,50000,65.3,16.9,10.9
2016,4,27,14:00,UTC,,1008.1,76,,,12.6,,13196,70.5,9.1,6.2
2016,4,27,15:00,UTC,,1009.1,85,,,11.8,,42891,66.9,10.1,7.6
2016,4,27,16:00,UTC,,1010.1,86,,,11.7,,45596,70.5,9.7,7.1
2016,4,27,17:00,UTC,,1011.3,94,,,11,,48804,67.4,6.3,4.7
2016,4,27,18:00,UTC,,1013.5,92,,,6.5,,50000,136.8,12,6.9
2016,4,27,19:00,UTC,,1015.1,95,,,5.5,,50000,144,6.6,5.5
2016,4,27,20:00,UTC,,1016.8,95,,,4.9,,50000,154.8,3,2.2
2016,4,27,21:00,UTC,,1017.9,96,,,4.2,,50000,181.6,1.2,0.8
2016,4,27,22:00,UTC,,1018.7,98,,,2.7,,11060,28.3,1.7,1.1
2016,4,27,23:00,UTC,,1019.4,99,,,0.6,,7112,32.4,1.4,0.8
2016,4,28,00:00,UTC,,1019.9,99,,,-0.6,,19615,17,1.7,1.3
2016,4,28,01:00,UTC,,1020.4,99,,,0.7,,1545,15.9,1.3,0.8
2016,4,28,02:00,UTC,,1021,99,,,1.4,,2380,34,1.4,0.9
2016,4,28,03:00,UTC,,1021.3,99,,,2.1,,19745,31.9,2.9,1.9
2016,4,28,04:00,UTC,,1021.5,99,,,2.2,,15692,9.3,1.7,0.8
2016,4,28,05:00,UTC,,1021.6,99,,,4.7,,50000,20.6,3.2,2
2016,4,28,06:00,UTC,,1021.6,92,,,5.1,,50000,16.5,3.7,2.1
2016,4,28,07:00,UTC,,1021.5,85,,,5.8,,50000,11.3,5.5,2.7
2016,4,28,08:00,UTC,,1021.1,78,,,6.9,,50000,15.9,5.9,3.2
2016,4,28,09:00,UTC,,1021,80,,,7.1,,50000,22.6,6.9,3.9
2016,4,28,10:00,UTC,,1020.9,82,,,7.1,,50000,15.4,4.1,2.6
2016,4,28,11:00,UTC,,1020.6,79,,,7.9,,48367,9.8,5.1,3
2016,4,28,12:00,UTC,,1020.1,75,,,9.8,,48047,14.9,4.2,2.6
2016,4,28,13:00,UTC,,1019.6,72,,,11.8,,37235,25.7,5.6,3.2
2016,4,28,14:00,UTC,,1019.5,79,,,10.5,,48192,25.2,6.4,3.6
2016,4,28,15:00,UTC,,1019.6,83,,,10.3,,50000,28.3,4.6,2.3
2016,4,28,16:00,UTC,,1019.4,79,,,12.5,,50000,34.5,4.9,2.5
2016,4,28,17:00,UTC,,1019.3,81,,,11.9,,42870,31.9,3.7,2
2016,4,28,18:00,UTC,,1019.2,87,,,10.9,,50000,26.2,3.5,2.2
2016,4,28,19:00,UTC,,1019.3,91,,,10.3,,46315,26.8,3.4,2.3
2016,4,28,20:00,UTC,,1019.1,81,,,11.4,,50000,36.5,4.5,2.9
2016,4,28,21:00,UTC,,1018.8,78,,,11.2,,50000,38.1,4.9,3.1
2016,4,28,22:00,UTC,,1018.9,68,,,12.2,,50000,42.2,6.1,3.3
2016,4,28,23:00,UTC,,1018.7,59,,,12.9,,50000,45.8,8.2,5.1
2016,4,29,00:00,UTC,,1018.5,56,,,12.2,,49496,46.3,7.9,4.9
2016,4,29,01:00,UTC,,1018.6,53,,,11.9,,50000,47.3,7.8,4.8
2016,4,29,02:00,UTC,,1018.7,51,,,11.5,,50000,47.8,8.5,5.2
2016,4,29,03:00,UTC,,1018.7,48,,,11.9,,50000,48.4,10.4,5.6
2016,4,29,04:00,UTC,,1018.9,46,,,12.3,,50000,56.6,10.2,7.6
2016,4,29,05:00,UTC,,1019.3,47,,,12.2,,50000,55.6,9.3,6.9
2016,4,29,06:00,UTC,,1019.7,44,,,13.9,,50000,63.3,9.9,7.4
2016,4,29,07:00,UTC,,1020,44,,,14.5,,46273,69.4,9.1,6.7
2016,4,29,08:00,UTC,,1020.7,45,,,14.2,,47662,68.4,8.6,6.7
2016,4,29,09:00,UTC,,1022.7,92,,,4.9,,43632,134.3,8.3,6.4
2016,4,29,10:00,UTC,,1023.6,87,,,4.9,,50000,130.7,7.2,5.5
2016,4,29,11:00,UTC,,1024.8,91,,,4.3,,50000,132.2,4.7,2.9
2016,4,29,12:00,UTC,,1025.3,88,,,4.9,,35968,135.8,6.4,4.6
2016,4,29,13:00,UTC,,1025.9,85,,,4.6,,50000,139.9,7.6,5.6
2016,4,29,14:00,UTC,,1026.4,80,,,5.3,,50000,141.5,6.4,4.4
2016,4,29,15:00,UTC,,1026.8,78,,,5.6,,50000,148.7,5.5,3.4
2016,4,29,16:00,UTC,,1027,71,,,6.5,,50000,145.6,4.6,3
2016,4,29,17:00,UTC,,1026.9,69,,,6.6,,50000,145.1,2.8,2
2016,4,29,18:00,UTC,,1027.4,80,,,5.3,,50000,20.1,1.8,1.3
2016,4,29,19:00,UTC,,1027.8,81,,,5.1,,50000,74.6,2,1.1
2016,4,29,20:00,UTC,,1027.6,85,,,4.6,,44370,67.4,1.4,0.8
2016,4,29,21:00,UTC,,1027.7,90,,,3.4,,50000,26.2,1.8,1.5
2016,4,29,22:00,UTC,,1028,92,,,3.5,,50000,12.9,1,0.5
2016,4,29,23:00,UTC,,1028.2,93,,,3,,44846,179.5,0.7,0.4
2016,4,30,00:00,UTC,,1028.5,93,,,3.2,,50000,169.8,0.7,0.5
2016,4,30,01:00,UTC,,1028.4,91,,,3.4,,50000,171.8,1.9,1.1
2016,4,30,02:00,UTC,,1028.7,95,,,2.2,,47640,18,0.9,0.4
2016,4,30,03:00,UTC,,1028.5,91,,,3,,50000,164.6,2.9,2.2
2016,4,30,04:00,UTC,,1028.8,86,,,3.9,,50000,173.4,2.7,1.6
2016,4,30,05:00,UTC,,1028.7,74,,,5.7,,48867,173.9,4.5,2.6
2016,4,30,06:00,UTC,,1028.7,72,,,6,,50000,174.9,4.3,2.5
2016,4,30,07:00,UTC,,1028.5,71,,,7.3,,46194,175.4,4.2,2.4
2016,4,30,08:00,UTC,,1028.3,67,,,8.7,,50000,181.1,4.2,2.1
2016,4,30,09:00,UTC,,1028,62,,,10.7,,37506,165.1,4.9,3.3
2016,4,30,10:00,UTC,,1027.5,61,,,10.5,,50000,166.2,6.2,4.3
2016,4,30,11:00,UTC,,1027.3,61,,,9.7,,50000,165.7,7.3,5.5
2016,4,30,12:00,UTC,,1027,58,,,10.4,,47191,172.3,7.4,4.7
2016,4,30,13:00,UTC,,1026.7,54,,,10.2,,33385,171.8,8,5.5
2016,4,30,14:00,UTC,,1026.4,50,,,10.6,,44001,170.8,7.6,5.3
2016,4,30,15:00,UTC,,1025.9,47,,,11.1,,50000,170.8,7.8,5.4
2016,4,30,16:00,UTC,,1025.8,55,,,9.7,,50000,172.9,5.4,3.3
2016,4,30,17:00,UTC,,1025.3,61,,,8.1,,50000,171.3,5.1,3.4
2016,4,30,18:00,UTC,,1025.1,67,,,8.3,,46722,177.5,3.1,1.6
2016,4,30,19:00,UTC,,1025,70,,,7.7,,50000,171.3,3.3,1.8
2016,4,30,20:00,UTC,,1024.5,75,,,6.5,,50000,171.3,3.4,1.5
2016,4,30,21:00,UTC,,1024.1,75,,,6.6,,50000,172.3,3.1,2.1
2016,4,30,22:00,UTC,,1023.9,79,,,6.2,,50000,176.5,2.2,1.3
2016,4,30,23:00,UTC,,1023.8,86,,,4.2,,50000,149.2,1.8,1.1
2016,5,1,00:00,UTC,,1023.7,89,,,2.8,,50000,152.3,2,1.7
2016,5,1,01:00,UTC,,1023.6,94,,,1.6,,50000,65.8,0.4,0.2
2016,5,1,02:00,UTC,,1023.7,96,,,1.1,,50000,23.7,2.6,1.6
2016,5,1,03:00,UTC,,1023.4,93,,,2.1,,50000,43.2,1.8,1
2016,5,1,04:00,UTC,,1023.4,78,,,5.3,,44798,67.9,4.1,3.4
2016,5,1,05:00,UTC,,1023.8,79,,,5.5,,49543,76.7,5,3.5
2016,5,1,06:00,UTC,,1024,66,,,8.2,,43634,103.9,4,2.1
2016,5,1,07:00,UTC,,1024.2,63,,,9.8,,50000,81.3,5.7,3.5
2016,5,1,08:00,UTC,,1024.3,53,,,12.6,,37855,93.6,6.2,2.7
2016,5,1,09:00,UTC,,1023.6,42,,,15.3,,33121,130.7,2.5,1.2
2016,5,1,10:00,UTC,,1023.5,41,,,16.2,,34132,168.2,5.5,2.1
2016,5,1,11:00,UTC,,1023.4,48,,,13.2,,36198,148.2,7,5.2
2016,5,1,12:00,UTC,,1023.2,51,,,12.9,,47235,181.1,5,3.1
2016,5,1,13:00,UTC,,1022.9,49,,,12.3,,50000,166.7,6.1,4.1
2016,5,1,14:00,UTC,,1023,58,,,9.7,,46624,177,4.4,3.3
2016,5,1,15:00,UTC,,1022.8,54,,,10.7,,50000,160,4.7,3.5
2016,5,1,16:00,UTC,,1022.6,57,,,10.7,,50000,174.9,2.7,1.8
2016,5,1,17:00,UTC,,1022.2,59,,,9.1,,50000,178,2,1.3
2016,5,1,18:00,UTC,,1022.7,75,,,5.7,,50000,140.4,6,4.4
2016,5,1,19:00,UTC,,1022.7,80,,,5.3,,50000,134.3,5.2,3.7
2016,5,1,20:00,UTC,,1022.7,80,,,4.6,,50000,128.1,5,3.8
2016,5,1,21:00,UTC,,1022.4,73,,,4.8,,50000,132.7,5.1,3.8
2016,5,1,22:00,UTC,,1022.3,72,,,4.3,,50000,106.5,2.3,1.4
2016,5,1,23:00,UTC,,1022.3,68,,,5.1,,50000,82.3,2,1.3
2016,5,2,00:00,UTC,,1022.2,81,,,4.2,,50000,68.9,1.5,0.9
2016,5,2,01:00,UTC,,1022.5,83,,,3.2,,50000,67.4,2.5,1.9
2016,5,2,02:00,UTC,,1022.3,84,,,3.5,,50000,84.4,1.8,1.1
2016,5,2,03:00,UTC,,1022,81,,,3.6,,50000,87.5,2.5,1.8
2016,5,2,04:00,UTC,,1021.8,82,,,2.6,,50000,80.3,2.5,1.9
2016,5,2,05:00,UTC,,1021.5,63,,,6.2,,50000,78.2,7.6,2.8
2016,5,2,06:00,UTC,,1021.4,52,,,8.8,,46215,113.2,3.5,2.2
2016,5,2,07:00,UTC,,1021,51,,,9.6,,50000,70.5,2.2,1.5
2016,5,2,08:00,UTC,,1020.9,44,,,10.8,,50000,99.8,5.1,2.2
2016,5,2,09:00,UTC,,1020.8,53,,,10.2,,50000,92.1,8.5,5.5
2016,5,2,10:00,UTC,,1020.1,49,,,11.7,,48708,95.2,6.6,4.6
2016,5,2,11:00,UTC,,1020.1,78,,,7,,26226,146.1,8.1,5.4
2016,5,2,12:00,UTC,,1020,77,,,7.4,,50000,145.1,8.4,6
2016,5,2,13:00,UTC,,1019.7,56,,,10.2,,50000,134.3,5.9,4
2016,5,2,14:00,UTC,,1019.4,44,,,10.3,,50000,130.7,8.2,5.3
2016,5,2,15:00,UTC,,1019.1,42,,,10.8,,50000,139.9,6.1,4.4
2016,5,2,16:00,UTC,,1018.7,44,,,10.1,,50000,141.5,5.7,4.1
2016,5,2,17:00,UTC,,1018.4,50,,,9.1,,41404,149.2,4.3,3.4
2016,5,2,18:00,UTC,,1018.2,59,,,7.9,,50000,136.8,2.4,1.6
2016,5,2,19:00,UTC,,1017.9,65,,,5.9,,50000,121.9,1.4,1.1
2016,5,2,20:00,UTC,,1017.8,80,,,2.3,,50000,86.9,1.7,1.1
2016,5,2,21:00,UTC,,1017.6,79,,,2.6,,50000,111.1,1.7,1.1
2016,5,2,22:00,UTC,,1017.4,79,,,2.1,,50000,71,2.2,1.6
2016,5,2,23:00,UTC,,1017.3,77,,,1.4,,50000,78.7,2.9,2.2
2016,5,3,00:00,UTC,,1017.1,79,,,0.9,,50000,64.8,1.9,1.6
2016,5,3,01:00,UTC,,1016.9,80,,,0.2,,50000,54,2.6,2.2
2016,5,3,02:00,UTC,,1016.7,83,,,-0.7,,50000,64.8,3.7,3.3
2016,5,3,03:00,UTC,,1016.4,78,,,1.9,,50000,66.4,3.4,2.9
2016,5,3,04:00,UTC,,1016,67,,,4.2,,50000,63.8,3.9,3.3
2016,5,3,05:00,UTC,,1016.1,52,,,7.3,,50000,68.4,5.3,4
2016,5,3,06:00,UTC,,1015.9,47,,,9.4,,50000,72.5,6,4.7
2016,5,3,07:00,UTC,,1016,46,,,10.3,,50000,83.9,5.1,3.7
2016,5,3,08:00,UTC,,1016.4,46,,,10.9,,50000,80.3,4.5,3.4
2016,5,3,09:00,UTC,,1016.6,46,,,11.3,,50000,134.3,5.3,2.7
2016,5,3,10:00,UTC,,1016.8,51,,,10.3,,50000,143.5,4,2.9
2016,5,3,11:00,UTC,,1016.7,47,,,12,,50000,139.4,2.5,1.3
2016,5,3,12:00,UTC,,1016.8,42,,,13.5,,49369,128.1,3.2,2
2016,5,3,13:00,UTC,,1016.7,39,,,13.9,,48240,135.3,4.4,2.2
2016,5,3,14:00,UTC,,1016.6,39,,,13.9,,50000,168.2,3.7,1.5
2016,5,3,15:00,UTC,,1016.6,45,,,13.1,,50000,11.8,2.6,1.5
2016,5,3,16:00,UTC,,1016.4,42,,,13.3,,46036,17.5,2.7,1.7
2016,5,3,17:00,UTC,,1016.3,41,,,13.1,,50000,180.6,1.6,1.1
2016,5,3,18:00,UTC,,1016.7,52,,,11.1,,50000,142,3,2.4
2016,5,3,19:00,UTC,,1016.9,59,,,8.6,,50000,141.5,1.2,0.8
2016,5,3,20:00,UTC,,1017,62,,,6.5,,50000,83.9,1.6,0.9
2016,5,3,21:00,UTC,,1017,63,,,5.6,,50000,77.7,2,1.6
2016,5,3,22:00,UTC,,1017.2,62,,,5.4,,50000,89.5,2.9,1.8
2016,5,3,23:00,UTC,,1017.2,61,,,4.6,,50000,77.2,2.8,2.1
2016,5,4,00:00,UTC,,1017.2,73,,,3.2,,50000,65.3,2.4,1.9
2016,5,4,01:00,UTC,,1017.2,76,,,1.9,,50000,77.2,2.9,2.7
2016,5,4,02:00,UTC,,1017.2,72,,,3.3,,50000,53.5,1.1,0.7
2016,5,4,03:00,UTC,,1017.3,72,,,3.8,,50000,61.7,2.3,1.7
2016,5,4,04:00,UTC,,1017.6,57,,,6.9,,50000,85.4,3,2.1
2016,5,4,05:00,UTC,,1017.8,50,,,9.2,,50000,114.2,4.7,2
2016,5,4,06:00,UTC,,1017.9,47,,,11.1,,49703,128.6,3.3,2
2016,5,4,07:00,UTC,,1018.2,48,,,12.4,,50000,146.1,3.4,2.2
2016,5,4,08:00,UTC,,1018.6,50,,,12.3,,45884,139.9,3.5,2.3
2016,5,4,09:00,UTC,,1019,52,,,12.7,,29462,155.4,4.5,3.1
2016,5,4,10:00,UTC,,1019.4,56,,,11.5,,50000,145.1,5.3,3.9
2016,5,4,11:00,UTC,,1019.7,56,,,11.7,,50000,145.6,4.6,3.8
2016,5,4,12:00,UTC,,1019.8,47,,,14,,50000,145.6,4.9,3.6
2016,5,4,13:00,UTC,,1019.8,47,,,14.8,,49250,146.6,4.2,3.4
2016,5,4,14:00,UTC,,1019.7,48,,,14,,50000,142,4.5,3.4
2016,5,4,15:00,UTC,,1019.7,50,,,13.5,,48956,141.5,4.9,3.6
2016,5,4,16:00,UTC,,1019.9,48,,,12.1,,49533,142.5,7,5.5
2016,5,4,17:00,UTC,,1019.9,47,,,12.1,,50000,147.6,4.7,3.3
2016,5,4,18:00,UTC,,1020.2,46,,,10.4,,50000,145.6,4.3,3.3
2016,5,4,19:00,UTC,,1020.3,49,,,8.9,,50000,165.7,1.9,1.3
2016,5,4,20:00,UTC,,1020.4,60,,,6.7,,50000,78.7,1,0.6
2016,5,4,21:00,UTC,,1020.8,70,,,5.6,,50000,179.5,1.4,0.4
2016,5,4,22:00,UTC,,1020.9,71,,,4.3,,50000,72.5,2.2,1.3
2016,5,4,23:00,UTC,,1020.9,76,,,3.5,,50000,67.9,2,1.1
2016,5,5,00:00,UTC,,1021,77,,,5.1,,50000,127.1,3.5,2.2
2016,5,5,01:00,UTC,,1021.2,85,,,3.4,,50000,107,1.8,1.3
2016,5,5,02:00,UTC,,1021.3,93,,,1.3,,45697,119.9,1.5,1.1
2016,5,5,03:00,UTC,,1021.3,93,,,3.3,,46212,116.3,3,1.5
2016,5,5,04:00,UTC,,1021.6,86,,,4.7,,50000,129.1,2.1,1.2
2016,5,5,05:00,UTC,,1021.9,77,,,6.1,,50000,122.4,2.7,2
2016,5,5,06:00,UTC,,1022.1,67,,,8.2,,48049,136.8,3.5,2.1
2016,5,5,07:00,UTC,,1022.4,64,,,9.9,,48478,127.6,3.3,2.2
2016,5,5,08:00,UTC,,1022.5,56,,,11.8,,42248,158.4,5.6,4.2
2016,5,5,09:00,UTC,,1022.6,49,,,13,,41584,147.1,5.8,3.9
2016,5,5,10:00,UTC,,1022.5,43,,,13,,47970,149.7,6.3,4.5
2016,5,5,11:00,UTC,,1022.3,45,,,13.1,,38721,157.4,5.6,3.5
2016,5,5,12:00,UTC,,1022.1,42,,,13.3,,31766,148.7,5.2,3.5
2016,5,5,13:00,UTC,,1022,43,,,13,,50000,155.9,5.9,3
2016,5,5,14:00,UTC,,1021.9,42,,,12.8,,49025,150.2,5.2,3.3
2016,5,5,15:00,UTC,,1021.7,37,,,12.3,,45428,143.5,5.5,3.4
2016,5,5,16:00,UTC,,1021.5,38,,,12,,50000,137.9,3.5,2.8
2016,5,5,17:00,UTC,,1021.5,39,,,11.3,,50000,141.5,4.2,3.6
2016,5,5,18:00,UTC,,1021.2,47,,,9.3,,50000,153.3,3.1,2.4
2016,5,5,19:00,UTC,,1021,60,,,6.8,,50000,181.1,1,0.5
2016,5,5,20:00,UTC,,1020.8,75,,,4.1,,50000,20.1,0.7,0.4
2016,5,5,21:00,UTC,,1020.5,88,,,3.6,,50000,10.3,2,1
2016,5,5,22:00,UTC,,1020.5,74,,,5,,50000,68.9,1.3,1
2016,5,5,23:00,UTC,,1020.4,73,,,4.2,,50000,77.2,2.7,2.1
2016,5,6,00:00,UTC,,1020.3,73,,,3.9,,50000,80.8,2.3,1.5
2016,5,6,01:00,UTC,,1020.2,76,,,3.6,,50000,68.9,2.5,2
2016,5,6,02:00,UTC,,1020,75,,,3.3,,50000,74.1,2.5,1.8
2016,5,6,03:00,UTC,,1020.1,74,,,3.6,,50000,103.4,1.5,0.9
2016,5,6,04:00,UTC,,1019.5,64,,,6.3,,50000,63.8,3.5,2.8
2016,5,6,05:00,UTC,,1019.3,52,,,8.6,,50000,71,4.1,3.4
2016,5,6,06:00,UTC,,1018.9,47,,,10.2,,49098,71,6.8,4.1
2016,5,6,07:00,UTC,,1018.8,43,,,12.5,,50000,72.5,5.2,3.9
2016,5,6,08:00,UTC,,1018.2,32,,,15.3,,28656,73.6,7.3,4.5
2016,5,6,09:00,UTC,,1017.9,28,,,17.2,,50000,77.2,7,4.3
2016,5,6,10:00,UTC,,1017.6,20,,,17.6,,50000,101.3,5.7,3.4
2016,5,6,11:00,UTC,,1017.2,20,,,19,,30427,83.9,3.9,1.7
2016,5,6,12:00,UTC,,1017,25,,,18.2,,50000,146.1,9.8,6.9
2016,5,6,13:00,UTC,,1017.3,43,,,14.2,,42415,148.2,6.6,5.1
2016,5,6,14:00,UTC,,1017.4,44,,,13.8,,47155,142.5,7,5.1
2016,5,6,15:00,UTC,,1017.5,42,,,13.2,,50000,143,7.9,5.4
2016,5,6,16:00,UTC,,1017.5,47,,,12.7,,44735,139.9,5.2,3.9
2016,5,6,17:00,UTC,,1017.6,54,,,11,,50000,137.9,4.2,3.3
2016,5,6,18:00,UTC,,1017.9,56,,,9.9,,50000,136.8,8.9,6.3
2016,5,6,19:00,UTC,,1018.2,69,,,7.9,,50000,131.2,5.3,4.1
2016,5,6,20:00,UTC,,1018.5,73,,,7.1,,50000,130.2,4.8,3.3
2016,5,6,21:00,UTC,,1018.8,73,,,6.5,,50000,112.7,2.1,1.3
2016,5,6,22:00,UTC,,1018.8,78,,,5.4,,50000,117.3,2.1,1.5
2016,5,6,23:00,UTC,,1019,84,,,4.7,,50000,134.3,2.6,2
2016,5,7,00:00,UTC,,1019.3,89,,,3.3,,50000,137.9,1.7,1.3
2016,5,7,01:00,UTC,,1019.7,94,,,3.9,,50000,139.9,1.9,1.2
2016,5,7,02:00,UTC,,1020,94,,,3.8,,50000,107.5,1.7,0.9
2016,5,7,03:00,UTC,,1020.2,91,,,4.5,,46549,124.5,1.5,0.8
2016,5,7,04:00,UTC,,1020.4,84,,,5.9,,50000,120.9,1,0.6
2016,5,7,05:00,UTC,,1021,75,,,8.3,,47240,144.6,3,2.1
2016,5,7,06:00,UTC,,1021.3,65,,,10.2,,48226,135.3,2.4,1.3
2016,5,7,07:00,UTC,,1021.4,58,,,12.4,,35085,112.1,1.5,0.8
2016,5,7,08:00,UTC,,1021.4,50,,,14.4,,43999,128.6,2.4,1.3
2016,5,7,09:00,UTC,,1021.4,42,,,14.4,,48619,125.5,3.4,2.4
2016,5,7,10:00,UTC,,1021.3,36,,,16.5,,34091,165.1,3.2,1.2
2016,5,7,11:00,UTC,,1021.1,30,,,16.9,,38640,99.3,3.6,2.2
2016,5,7,12:00,UTC,,1020.8,38,,,16.9,,49167,9.8,3.3,2.1
2016,5,7,13:00,UTC,,1020.6,33,,,17,,50000,13.9,3.4,2.2
2016,5,7,14:00,UTC,,1020.1,32,,,17.8,,50000,5.1,2.5,1.6
2016,5,7,15:00,UTC,,1019.7,29,,,18.9,,45147,53.5,3.3,1.3
2016,5,7,16:00,UTC,,1019.3,37,,,16.8,,44696,9.8,2.5,1.4
2016,5,7,17:00,UTC,,1018.9,41,,,15.7,,32777,5.1,1.4,1
2016,5,7,18:00,UTC,,1018.8,42,,,15.2,,50000,21.6,1,0.6
2016,5,7,19:00,UTC,,1018.9,53,,,12.7,,50000,50.4,0.5,0.3
2016,5,7,20:00,UTC,,1018.8,48,,,12.1,,50000,73.1,3.2,2
2016,5,7,21:00,UTC,,1018.8,50,,,13.7,,50000,89.5,4.3,3.2
2016,5,7,22:00,UTC,,1018.7,54,,,11.7,,49115,88.5,4.2,3.3
2016,5,7,23:00,UTC,,1018.9,63,,,9.3,,50000,127.1,6.2,3.7
2016,5,8,00:00,UTC,,1019,64,,,8.3,,50000,107.5,4,2.5
2016,5,8,01:00,UTC,,1018.7,66,,,7.8,,50000,103.4,4,2.5
2016,5,8,02:00,UTC,,1018.8,67,,,7.4,,50000,106,3.2,2.3
2016,5,8,03:00,UTC,,1019.1,73,,,6.9,,50000,15.4,1.4,0.6
2016,5,8,04:00,UTC,,1019.2,64,,,8.6,,50000,115.2,2.5,1.7
2016,5,8,05:00,UTC,,1019.2,62,,,9.4,,50000,106.5,4,3
2016,5,8,06:00,UTC,,1019.2,58,,,11.1,,43085,129.1,4,2.6
2016,5,8,07:00,UTC,,1019.4,54,,,12.2,,44596,121.9,3.5,1.9
2016,5,8,08:00,UTC,,1019.6,54,,,13.8,,37068,141.5,3.4,1.8
2016,5,8,09:00,UTC,,1019.8,55,,,13.5,,37082,142.5,4.7,3.2
2016,5,8,10:00,UTC,,1019.5,50,,,15,,47599,143.5,5.4,4
2016,5,8,11:00,UTC,,1019.2,46,,,15.8,,50000,141.5,7,5.1
2016,5,8,12:00,UTC,,1019.1,42,,,16.6,,50000,143,7.5,5.2
2016,5,8,13:00,UTC,,1019.2,49,,,14.4,,48124,150.7,6.4,5.1
2016,5,8,14:00,UTC,,1018.8,44,,,15.5,,50000,145.6,5.9,4.6
2016,5,8,15:00,UTC,,1018.9,48,,,13.7,,50000,147.6,6.3,4.9
2016,5,8,16:00,UTC,,1018.8,52,,,13,,50000,142,6.4,4.2
2016,5,8,17:00,UTC,,1018.6,51,,,13,,47726,135.3,7.3,5.1
2016,5,8,18:00,UTC,,1018.5,57,,,11.8,,50000,128.6,5.5,3.8
2016,5,8,19:00,UTC,,1018.9,63,,,10.4,,50000,133.2,4,3.2
2016,5,8,20:00,UTC,,1019.3,69,,,9.1,,50000,137.4,5.4,4
2016,5,8,21:00,UTC,,1020,75,,,8.4,,50000,136.8,4.3,3.2
2016,5,8,22:00,UTC,,1020.2,72,,,7.6,,50000,141,4.1,3.5
2016,5,8,23:00,UTC,,1020.5,64,,,6.7,,50000,144,4.4,3.6
2016,5,9,00:00,UTC,,1020.9,68,,,6.1,,50000,170.8,3.7,2.2
2016,5,9,01:00,UTC,,1021.4,73,,,4.7,,50000,167.2,3.6,2.5
2016,5,9,02:00,UTC,,1021.8,87,,,3.4,,50000,157.9,4.1,3.6
2016,5,9,03:00,UTC,,1022,76,,,5.8,,50000,159,4.1,3.3
2016,5,9,04:00,UTC,,1022.3,60,,,8.2,,45320,170.3,6.8,4
2016,5,9,05:00,UTC,,1022.6,58,,,8.4,,39347,166.7,6.1,4.4
2016,5,9,06:00,UTC,,1023,56,,,8.8,,50000,167.7,6.3,4.3
2016,5,9,07:00,UTC,,1023.5,50,,,9.6,,50000,166.7,7,4.8
2016,5,9,08:00,UTC,,1023.9,48,,,11,,44333,170.8,5.9,3.9
2016,5,9,09:00,UTC,,1024.1,44,,,11.2,,33604,165.1,6.6,3.7
2016,5,9,10:00,UTC,,1024.2,40,,,11.6,,27036,157.4,7.2,4.8
2016,5,9,11:00,UTC,,1024,37,,,11.9,,38002,155.9,7.9,5.8
2016,5,9,12:00,UTC,,1024,35,,,12.2,,50000,162.6,9,6
2016,5,9,13:00,UTC,,1023.6,35,,,11.9,,41523,152.8,8.6,6
2016,5,9,14:00,UTC,,1023.4,44,,,11.7,,45922,135.8,8,6
2016,5,9,15:00,UTC,,1023.1,46,,,10.9,,49875,134.3,8,5.6
2016,5,9,16:00,UTC,,1022.7,44,,,10.2,,50000,138.9,8.1,6
2016,5,9,17:00,UTC,,1022.2,58,,,9.2,,50000,138.9,5.5,4.2
2016,5,9,18:00,UTC,,1021.8,68,,,8.7,,50000,137.9,4,3.1
2016,5,9,19:00,UTC,,1021.3,73,,,8.2,,50000,122.4,1.8,1.3
2016,5,9,20:00,UTC,,1021.3,61,,,7.8,,50000,131.7,5.7,4.1
2016,5,9,21:00,UTC,,1021.1,69,,,6.5,,50000,135.3,4.2,2.5
2016,5,9,22:00,UTC,,1020.5,77,,,6,,50000,47.3,1.1,0.8
2016,5,9,23:00,UTC,,1019.9,74,,,6.1,,50000,68.4,2.4,2
2016,5,10,00:00,UTC,,1019.7,70,,,6.3,,50000,101.9,1.6,0.9
2016,5,10,01:00,UTC,,1018.9,78,,,5.7,,43245,54,2.5,1.7
2016,5,10,02:00,UTC,,1018.6,87,,,5.4,,50000,68.9,3.2,2.4
2016,5,10,03:00,UTC,,1017.6,87,,,5.1,,48457,53.5,4.5,2.7
2016,5,10,04:00,UTC,,1017.6,93,,,4.5,,23842,43.7,3.8,2.3
2016,5,10,05:00,UTC,,1016.9,91,,,5,,40387,48.9,5.2,3.3
2016,5,10,06:00,UTC,,1016.3,94,,,5.1,,50000,42.2,5.2,2.8
2016,5,10,07:00,UTC,,1016,92,,,5.2,,50000,44.2,4.8,2.8
2016,5,10,08:00,UTC,,1015.9,92,,,5.5,,39112,34,3.5,2.2
2016,5,10,09:00,UTC,,1015.8,92,,,6.1,,43167,36.5,2.9,1.9
2016,5,10,10:00,UTC,,1015.9,85,,,6.4,,34411,8.7,2.6,1.3
2016,5,10,11:00,UTC,,1015.6,92,,,6.2,,47443,164.6,4.2,3.1
2016,5,10,12:00,UTC,,1015.5,88,,,6.7,,50000,177,4.6,2.5
2016,5,10,13:00,UTC,,1015.4,90,,,6.8,,50000,165.1,5.3,3.2
2016,5,10,14:00,UTC,,1015.3,88,,,7.3,,41549,164.1,4.9,3
2016,5,10,15:00,UTC,,1015.1,80,,,7.6,,50000,168.7,6.4,4.2
2016,5,10,16:00,UTC,,1015.1,79,,,7.4,,50000,167.2,6.9,4.5
2016,5,10,17:00,UTC,,1014.8,72,,,8.4,,50000,182.1,5.2,2.9
2016,5,10,18:00,UTC,,1015.1,80,,,7.3,,50000,165.7,4.5,3.3
2016,5,10,19:00,UTC,,1015.2,81,,,6.8,,50000,167.2,4.3,3
2016,5,10,20:00,UTC,,1015.4,80,,,7,,50000,166.7,5.5,3.4
2016,5,10,21:00,UTC,,1015.6,80,,,7.2,,50000,173.4,3.8,2.3
2016,5,10,22:00,UTC,,1015.6,80,,,6.8,,50000,175.4,4,2
2016,5,10,23:00,UTC,,1015.8,89,,,5.2,,50000,11.3,2.6,1.3
2016,5,11,00:00,UTC,,1015.9,89,,,4.6,,50000,170.3,3.7,2.7
2016,5,11,01:00,UTC,,1016.5,86,,,4.8,,50000,7.2,4.1,2.1
2016,5,11,02:00,UTC,,1016.8,95,,,2.2,,50000,164.6,2.1,1.2
2016,5,11,03:00,UTC,,1017.3,90,,,3.8,,50000,170.8,4,2.4
2016,5,11,04:00,UTC,,1017.4,82,,,5.3,,49645,4.1,4.8,3
2016,5,11,05:00,UTC,,1017.8,72,,,6.7,,45894,183.7,4.1,2.6
2016,5,11,06:00,UTC,,1018.1,67,,,7.5,,48124,172.3,4.9,3.2
2016,5,11,07:00,UTC,,1018.3,64,,,8.8,,43210,175.4,4.2,2.4
2016,5,11,08:00,UTC,,1018.5,60,,,9.7,,44222,163.6,6.6,4.3
2016,5,11,09:00,UTC,,1018.5,59,,,10,,43451,170.8,8.1,4.8
2016,5,11,10:00,UTC,,1018.6,55,,,10.8,,50000,164.1,8.6,6.2
2016,5,11,11:00,UTC,,1018.7,44,,,10.9,,41380,170.3,9,6
2016,5,11,12:00,UTC,,1018.6,45,,,10.6,,48588,170.8,7.9,5.8
2016,5,11,13:00,UTC,,1018.3,45,,,10.6,,36850,162.6,9.5,6.8
2016,5,11,14:00,UTC,,1018.2,44,,,11.2,,50000,163.1,8.7,5.7
2016,5,11,15:00,UTC,,1018,49,,,10.1,,50000,170.8,7.6,4.5
2016,5,11,16:00,UTC,,1017.9,51,,,9.4,,50000,165.7,6.9,4.1
2016,5,11,17:00,UTC,,1017.7,50,,,9.2,,50000,168.2,4.9,2.8
2016,5,11,18:00,UTC,,1017.4,55,,,7.5,,50000,168.7,2.5,1.6
2016,5,11,19:00,UTC,,1017.1,70,,,6,,50000,154.8,1,0.8
2016,5,11,20:00,UTC,,1016.8,78,,,4.5,,50000,18,0.8,0.3
2016,5,11,21:00,UTC,,1016.5,78,,,3.6,,50000,76.1,0.6,0.3
2016,5,11,22:00,UTC,,1016.4,87,,,2.1,,50000,140.4,0.7,0.4
2016,5,11,23:00,UTC,,1016.1,85,,,4.4,,50000,126,2.3,0.6
2016,5,12,00:00,UTC,,1015.8,96,,,2.3,,50000,138.9,1,0.3
2016,5,12,01:00,UTC,,1015.4,92,,,0.9,,50000,83.3,1.8,1.4
2016,5,12,02:00,UTC,,1014.9,93,,,0.1,,50000,87.5,2.9,2.1
2016,5,12,03:00,UTC,,1014.5,86,,,2.4,,50000,75.6,3.3,2.7
2016,5,12,04:00,UTC,,1014.1,81,,,3.6,,50000,80.3,3.6,2.7
2016,5,12,05:00,UTC,,1013.3,64,,,6.3,,50000,84.9,7.2,3.7
2016,5,12,06:00,UTC,,1012.6,49,,,8.9,,37235,82.3,6.2,4.3
2016,5,12,07:00,UTC,,1011.8,39,,,10.1,,47645,91.1,6.6,4.8
2016,5,12,08:00,UTC,,1010.9,32,,,11.7,,37207,103.4,7.8,5.3
2016,5,12,09:00,UTC,,1010.1,28,,,13.2,,49678,99.8,9,5.6
2016,5,12,10:00,UTC,,1009.2,27,,,13.9,,34722,101.3,8.7,5.5
2016,5,12,11:00,UTC,,1008.3,26,,,14.9,,46113,105.5,9.1,5.7
2016,5,12,12:00,UTC,,1007.3,25,,,16.1,,50000,103.9,8.6,5.8
2016,5,12,13:00,UTC,,1006.8,40,,,13.7,,50000,149.2,8.3,5.6
2016,5,12,14:00,UTC,,1005.9,37,,,15,,46463,137.9,7.8,5.6
2016,5,12,15:00,UTC,,1005.7,36,,,14.3,,50000,133.2,6.4,4.8
2016,5,12,16:00,UTC,,1005.3,36,,,14.4,,50000,121.9,7.3,4.6
2016,5,12,17:00,UTC,,1005.1,32,,,12.7,,50000,120.4,8,5.2
2016,5,12,18:00,UTC,,1005,37,,,11.4,,50000,114.7,3.9,2.6
2016,5,12,19:00,UTC,,1005.1,39,,,10.2,,50000,128.1,7.2,4.8
2016,5,12,20:00,UTC,,1004.9,45,,,9.4,,50000,117.8,7.6,4.2
2016,5,12,21:00,UTC,,1004.6,51,,,8.8,,50000,121.4,5.1,3.2
2016,5,12,22:00,UTC,,1004.6,58,,,8.2,,50000,104.4,4.8,2.7
2016,5,12,23:00,UTC,,1004.6,64,,,7.4,,50000,105.5,3.5,2.2
2016,5,13,00:00,UTC,,1004.5,62,,,6.8,,50000,78.2,4.6,2.6
2016,5,13,01:00,UTC,,1004.3,64,,,6.2,,50000,76.7,3.3,2.7
2016,5,13,02:00,UTC,,1004.1,63,,,6.2,,50000,82.8,4.3,2.7
2016,5,13,03:00,UTC,,1003.6,64,,,6.1,,50000,74.6,6.4,3.2
2016,5,13,04:00,UTC,,1003.5,59,,,7.4,,50000,99.3,4.4,3
2016,5,13,05:00,UTC,,1003.4,54,,,8.2,,50000,102.4,5.5,3.2
2016,5,13,06:00,UTC,,1003,53,,,9.2,,50000,108.5,3.7,2.1
2016,5,13,07:00,UTC,,1002.7,49,,,11,,50000,100.3,9.5,6.7
2016,5,13,08:00,UTC,,1002.3,53,,,10.9,,50000,143,7.1,5.2
2016,5,13,09:00,UTC,,1002.6,59,,,9.6,,37061,145.1,9,6.2
2016,5,13,10:00,UTC,,1002.9,65,,,9.7,,26159,153.3,8.9,6.6
2016,5,13,11:00,UTC,,1003.7,76,,,7.3,,50000,160.5,7.3,4.3
2016,5,13,12:00,UTC,,1003.7,74,,,6.9,,50000,150.2,6.1,3.4
2016,5,13,13:00,UTC,,1003.6,76,,,6.6,,50000,141.5,5,3.3
2016,5,13,14:00,UTC,,1003.8,75,,,7,,50000,130.7,3.6,2.3
2016,5,13,15:00,UTC,,1003.9,77,,,6.6,,50000,135.3,2,1.1
2016,5,13,16:00,UTC,,1003.8,79,,,6.8,,50000,47.8,2.1,1.2
2016,5,13,17:00,UTC,,1003.7,82,,,7,,40161,80.8,2.2,1.7
2016,5,13,18:00,UTC,,1003.7,78,,,7.2,,50000,74.6,2.7,2
2016,5,13,19:00,UTC,,1004.3,89,,,6.4,,50000,155.4,2.5,2.2
2016,5,13,20:00,UTC,,1004.4,96,,,5.8,,50000,161.5,2.1,1.6
2016,5,13,21:00,UTC,,1004.4,89,,,5.9,,50000,166.7,2.3,1.6
2016,5,13,22:00,UTC,,1004.4,87,,,6.1,,50000,183.1,2.1,1.1
2016,5,13,23:00,UTC,,1004.5,82,,,6.1,,50000,180.1,2,1.2
2016,5,14,00:00,UTC,,1004.5,81,,,5.9,,50000,5.7,3,1.7
2016,5,14,01:00,UTC,,1004.1,78,,,5.8,,50000,13.9,3,1.8
2016,5,14,02:00,UTC,,1004.1,81,,,5.5,,50000,26.8,3,1.6
2016,5,14,03:00,UTC,,1004.1,82,,,5.7,,50000,10.8,3,1.8
2016,5,14,04:00,UTC,,1004.2,82,,,6.2,,50000,185.2,3.5,1.8
2016,5,14,05:00,UTC,,1004,79,,,6.7,,41686,6.2,4.2,2.4
2016,5,14,06:00,UTC,,1003.8,77,,,7.4,,50000,181.1,4.3,2.7
2016,5,14,07:00,UTC,,1003.5,74,,,7.7,,50000,179.5,4.3,2.5
2016,5,14,08:00,UTC,,1003.7,71,,,8.9,,48870,181.1,3.9,2.6
2016,5,14,09:00,UTC,,1003.8,68,,,9.6,,50000,183.1,4.6,2.5
2016,5,14,10:00,UTC,,1003.6,82,,,8.8,,50000,170.8,5.5,3.6
2016,5,14,11:00,UTC,,1003.4,81,,,9.1,,50000,172.9,4.4,2.7
2016,5,14,12:00,UTC,,1003.4,83,,,9.3,,46490,165.1,6.2,4
2016,5,14,13:00,UTC,,1002.9,86,,,8.8,,48077,171.3,5.9,3.6
2016,5,14,14:00,UTC,,1003.2,88,,,8.3,,50000,167.7,5.9,4.1
2016,5,14,15:00,UTC,,1002.8,91,,,8.5,,50000,180.6,6.9,3.9
2016,5,14,16:00,UTC,,1002.8,84,,,9.6,,50000,7.7,4.8,3
2016,5,14,17:00,UTC,,1002.5,84,,,9.6,,50000,22.1,5.7,3.2
2016,5,14,18:00,UTC,,1002.5,79,,,10,,50000,13.4,4.8,2.8
2016,5,14,19:00,UTC,,1002.7,82,,,9.7,,48078,32.4,1.8,1.1
2016,5,14,20:00,UTC,,1002.6,90,,,9,,50000,53,4,2.7
2016,5,14,21:00,UTC,,1002.1,89,,,9.4,,50000,38.1,2,1.2
2016,5,14,22:00,UTC,,1002,95,,,8.9,,50000,24.7,1.6,0.8
2016,5,14,23:00,UTC,,1001.7,95,,,8.8,,42197,42.7,1.9,1.1
2016,5,15,00:00,UTC,,1001.3,94,,,8.8,,14623,49.9,2.2,1.3
2016,5,15,01:00,UTC,,1001,97,,,8.6,,16690,24.2,2.5,1.5
2016,5,15,02:00,UTC,,1000.4,97,,,8.9,,45831,11.8,2.6,1.5
2016,5,15,03:00,UTC,,1000.3,96,,,9,,42608,170.3,1.7,0.7
2016,5,15,04:00,UTC,,1000.5,97,,,9,,39935,159,1.5,1
2016,5,15,05:00,UTC,,1000.7,96,,,9.2,,37989,154.8,2.5,2.1
2016,5,15,06:00,UTC,,1001.1,95,,,9.3,,48909,154.8,3.2,1.5
2016,5,15,07:00,UTC,,1001.7,98,,,7.4,,26145,154.8,4.8,3.7
2016,5,15,08:00,UTC,,1002.1,95,,,8.5,,50000,160.5,4.9,3.4
2016,5,15,09:00,UTC,,1002.6,97,,,7.7,,38324,156.9,4.3,3
2016,5,15,10:00,UTC,,1003.3,97,,,7.9,,10340,154.3,3.9,3
2016,5,15,11:00,UTC,,1003.9,96,,,7.1,,9756,150.2,5.8,4.2
2016,5,15,12:00,UTC,,1004.5,96,,,7.1,,48193,156.9,6,4.3
2016,5,15,13:00,UTC,,1004.7,94,,,8,,50000,164.6,5.1,3.4
2016,5,15,14:00,UTC,,1004.9,90,,,8,,50000,163.1,5.7,3.7
2016,5,15,15:00,UTC,,1005,90,,,8.1,,50000,165.1,5.4,3.9
2016,5,15,16:00,UTC,,1005.2,92,,,8.5,,50000,175.4,4.6,2.6
2016,5,15,17:00,UTC,,1005.7,93,,,8.7,,50000,173.4,4.2,2.2
2016,5,15,18:00,UTC,,1006.1,90,,,8.5,,50000,5.7,4.5,3.4
2016,5,15,19:00,UTC,,1006.7,93,,,8.2,,50000,4.1,3.5,2.4
2016,5,15,20:00,UTC,,1007,95,,,7.9,,44975,9.8,3.3,2
2016,5,15,21:00,UTC,,1007.4,96,,,7.5,,50000,167.7,3.3,2.1
2016,5,15,22:00,UTC,,1007.5,93,,,7.7,,50000,177.5,3.1,1.8
2016,5,15,23:00,UTC,,1007.5,95,,,7.6,,50000,176.5,3.2,2
2016,5,16,00:00,UTC,,1007.8,91,,,7.6,,50000,185.2,3.1,1.7
2016,5,16,01:00,UTC,,1007.2,89,,,7.6,,50000,5.1,5.3,3.5
2016,5,16,02:00,UTC,,1007.1,87,,,7.4,,50000,6.2,4.9,3.5
2016,5,16,03:00,UTC,,1007,87,,,7.4,,50000,7.2,5.1,3.5
2016,5,16,04:00,UTC,,1006.8,87,,,7.5,,46587,18,5.6,2.9
2016,5,16,05:00,UTC,,1006.5,87,,,7.9,,50000,10.8,3.8,2.7
2016,5,16,06:00,UTC,,1006.5,83,,,9,,50000,7.7,4.2,3
2016,5,16,07:00,UTC,,1006.3,77,,,10.9,,37964,184.2,3.5,1.9
2016,5,16,08:00,UTC,,1006,71,,,12.1,,48797,7.7,4.3,2.5
2016,5,16,09:00,UTC,,1005.7,68,,,13.5,,50000,9.3,4.2,2.2
2016,5,16,10:00,UTC,,1005.3,65,,,13.5,,50000,176.5,4.3,2.7
2016,5,16,11:00,UTC,,1004.9,62,,,14.2,,50000,6.7,3.5,2.3
2016,5,16,12:00,UTC,,1004.5,62,,,14.8,,50000,4.1,2.1,1.1
2016,5,16,13:00,UTC,,1004,56,,,15.3,,50000,178.5,4,2.3
2016,5,16,14:00,UTC,,1003.4,50,,,16.3,,50000,136.8,4.9,2.9
2016,5,16,15:00,UTC,,1003,55,,,14.2,,50000,173.4,4.5,2.9
2016,5,16,16:00,UTC,,1002.5,51,,,14.4,,50000,171.8,3.2,1.9
2016,5,16,17:00,UTC,,1002,52,,,14.9,,50000,178,1.6,1.1
2016,5,16,18:00,UTC,,1001.8,55,,,12.3,,50000,166.7,3.8,2.3
2016,5,16,19:00,UTC,,1001.4,62,,,10.6,,50000,154.8,2.5,2
2016,5,16,20:00,UTC,,1001.1,72,,,8.8,,50000,140.4,2.2,1.7
2016,5,16,21:00,UTC,,1000.7,76,,,8.6,,50000,150.7,1.6,1.2
2016,5,16,22:00,UTC,,1000.6,81,,,8.3,,50000,123.5,2.3,1.8
2016,5,16,23:00,UTC,,1000.3,83,,,8.4,,50000,150.2,2.9,1.9
2016,5,17,00:00,UTC,,1000,81,,,8.7,,50000,111.1,1.7,1
2016,5,17,01:00,UTC,,999.7,78,,,8.5,,50000,117.3,4.9,3.2
2016,5,17,02:00,UTC,,999.4,86,,,7.7,,50000,117.3,5.1,3.7
2016,5,17,03:00,UTC,,999.3,90,,,7.2,,50000,117.8,5.4,3.3
2016,5,17,04:00,UTC,,998.8,96,,,7.3,,5661,113.7,9.1,4.8
2016,5,17,05:00,UTC,,998.8,89,,,7.3,,23535,114.2,7.7,4.7
2016,5,17,06:00,UTC,,998.8,91,,,8,,39105,106,7.2,4.9
2016,5,17,07:00,UTC,,999,91,,,8.2,,50000,96.2,8.1,5.4
2016,5,17,08:00,UTC,,999.5,89,,,7.7,,50000,100.3,9,6.4
2016,5,17,09:00,UTC,,1000,93,,,7.4,,27126,102.4,8.2,5.2
2016,5,17,10:00,UTC,,1000.4,85,,,7.3,,50000,121.9,7.5,5.3
2016,5,17,11:00,UTC,,1000.7,89,,,7.5,,50000,107.5,6.8,4.5
2016,5,17,12:00,UTC,,1000.8,84,,,8.5,,50000,108,6.8,5.2
2016,5,17,13:00,UTC,,1000.8,62,,,9,,44320,119.9,9.5,6.5
2016,5,17,14:00,UTC,,1001.2,58,,,8.9,,49062,120.4,9.5,5.7
2016,5,17,15:00,UTC,,1001.3,56,,,10.3,,50000,122.4,8.6,6.3
2016,5,17,16:00,UTC,,1001.5,64,,,8.8,,50000,115.7,6.6,4.5
2016,5,17,17:00,UTC,,1001.6,64,,,9,,50000,115.7,7.9,4.8
2016,5,17,18:00,UTC,,1001.8,66,,,8.7,,50000,118.3,5.5,3.8
2016,5,17,19:00,UTC,,1002.5,71,,,7.6,,50000,118.3,6.4,3.4
2016,5,17,20:00,UTC,,1002.9,77,,,6.9,,50000,114.2,4.3,2.8
2016,5,17,21:00,UTC,,1003.4,76,,,6.4,,50000,116.3,5.3,3.4
2016,5,17,22:00,UTC,,1003.6,78,,,5.7,,50000,115.7,4.7,3.4
2016,5,17,23:00,UTC,,1003.9,84,,,5,,50000,117.8,4.2,3.2
2016,5,18,00:00,UTC,,1004.3,88,,,4.3,,50000,115.2,3.9,2.6
2016,5,18,01:00,UTC,,1004.3,87,,,3.9,,50000,111.6,3.5,2.7
2016,5,18,02:00,UTC,,1004.8,87,,,3.7,,50000,114.2,3.5,2.6
2016,5,18,03:00,UTC,,1005,82,,,4.6,,49901,103.4,3.7,2.6
2016,5,18,04:00,UTC,,1005.1,75,,,5.5,,50000,92.6,3,2.1
2016,5,18,05:00,UTC,,1005.5,65,,,6.8,,50000,92.1,4.8,2.7
2016,5,18,06:00,UTC,,1005.8,47,,,8.5,,48650,96.7,4.8,3.1
2016,5,18,07:00,UTC,,1005.9,46,,,9.3,,50000,95.7,5.6,3.5
2016,5,18,08:00,UTC,,1005.9,42,,,10.4,,50000,108.5,6,4
2016,5,18,09:00,UTC,,1006.2,38,,,11.2,,50000,108,5.7,4
2016,5,18,10:00,UTC,,1005.9,52,,,10.5,,50000,127.1,3.3,1.7
2016,5,18,11:00,UTC,,1006.2,75,,,8.1,,50000,153.3,4.5,3.3
2016,5,18,12:00,UTC,,1006.1,91,,,6.8,,46616,146.1,6,4.3
2016,5,18,13:00,UTC,,1006.6,94,,,6.3,,18948,144.6,8.4,5.6
2016,5,18,14:00,UTC,,1006.6,93,,,6.1,,36534,147.6,1.1,0.7
2016,5,18,15:00,UTC,,1006.1,94,,,6.9,,50000,74.1,3.6,2.8
2016,5,18,16:00,UTC,,1006.4,96,,,6.1,,29907,163.6,1.9,1
2016,5,18,17:00,UTC,,1006.5,93,,,6.6,,50000,116.8,4.4,3.1
2016,5,18,18:00,UTC,,1006.6,93,,,6.8,,50000,114.2,5.8,3.6
2016,5,18,19:00,UTC,,1006.9,93,,,6.4,,44829,132.2,5.1,3.9
2016,5,18,20:00,UTC,,1007.2,94,,,6,,50000,122.4,3.4,2.3
2016,5,18,21:00,UTC,,1007.3,95,,,5.6,,50000,128.1,1.6,1.2
2016,5,18,22:00,UTC,,1007.2,96,,,5.4,,50000,134.8,0.8,0.5
2016,5,18,23:00,UTC,,1007.3,97,,,5.5,,38256,159,0.9,0.6
2016,5,19,00:00,UTC,,1007.4,97,,,5.3,,50000,163.6,1.6,1.1
2016,5,19,01:00,UTC,,1007.5,96,,,5.3,,50000,165.7,1.5,1
2016,5,19,02:00,UTC,,1007.5,97,,,5.5,,13938,83.9,0.9,0.5
2016,5,19,03:00,UTC,,1007.4,98,,,5.5,,16228,38.6,2.4,1.5
2016,5,19,04:00,UTC,,1007.6,97,,,5.9,,18356,41.7,2.1,1.5
2016,5,19,05:00,UTC,,1007.5,96,,,6.3,,49000,53,3.2,2.1
2016,5,19,06:00,UTC,,1007.5,95,,,6.7,,35383,48.9,2.9,1.9
2016,5,19,07:00,UTC,,1007.2,96,,,7.1,,27018,44.2,2.6,1.6
2016,5,19,08:00,UTC,,1006.9,92,,,8.4,,49370,47.3,3.5,2.4
2016,5,19,09:00,UTC,,1006.6,83,,,10.6,,49615,58.1,5.4,3.4
2016,5,19,10:00,UTC,,1006.2,74,,,12.3,,46241,64.3,5.6,3.5
2016,5,19,11:00,UTC,,1005.4,68,,,13.4,,50000,79.7,5.5,3.4
2016,5,19,12:00,UTC,,1005.1,59,,,14.8,,50000,93.6,5.8,3.4
2016,5,19,13:00,UTC,,1004.6,48,,,15.9,,48865,93.1,9.2,6
2016,5,19,14:00,UTC,,1005.2,79,,,11.8,,48087,138.4,10.7,7.8
2016,5,19,15:00,UTC,,1005.8,89,,,9.3,,43557,141.5,7.6,4.8
2016,5,19,16:00,UTC,,1006.1,86,,,9.3,,45299,144,8.4,6.2
2016,5,19,17:00,UTC,,1007,92,,,7.3,,19431,123.5,8.3,5.6
2016,5,19,18:00,UTC,,1007.6,94,,,6.2,,50000,122.4,8.1,5.3
2016,5,19,19:00,UTC,,1008.2,93,,,6,,50000,126.6,9.7,6.4
2016,5,19,20:00,UTC,,1008.9,93,,,5.5,,50000,135.8,7.3,4.8
2016,5,19,21:00,UTC,,1009.6,91,,,5.5,,50000,129.6,6,4.4
2016,5,19,22:00,UTC,,1010.4,93,,,5.1,,50000,136.3,5.6,4
2016,5,19,23:00,UTC,,1010.8,94,,,4.9,,50000,136.8,3.7,2.6
2016,5,20,00:00,UTC,,1011.2,94,,,4.3,,50000,114.7,3.3,2.2
2016,5,20,01:00,UTC,,1011.7,95,,,4.5,,50000,121.4,3.6,2.4
2016,5,20,02:00,UTC,,1012,96,,,4.8,,38153,117.3,3.5,2.4
2016,5,20,03:00,UTC,,1012.5,89,,,5.7,,50000,140.4,4.1,2.6
2016,5,20,04:00,UTC,,1013.4,81,,,6.5,,44511,141.5,6.2,3
2016,5,20,05:00,UTC,,1014,74,,,7.3,,48691,114.2,7.4,2.1
2016,5,20,06:00,UTC,,1014.5,67,,,7.8,,44770,143,3.7,2.4
2016,5,20,07:00,UTC,,1015,53,,,8.5,,45513,136.8,4.2,2.4
2016,5,20,08:00,UTC,,1015.2,41,,,9.5,,50000,129.1,4,2.1
2016,5,20,09:00,UTC,,1015.1,38,,,10.5,,42006,164.1,4.2,1.6
2016,5,20,10:00,UTC,,1015.3,37,,,11,,43539,171.3,4.3,2.8
2016,5,20,11:00,UTC,,1015.2,33,,,11,,45981,11.3,3.6,2.4
2016,5,20,12:00,UTC,,1015,31,,,11.7,,50000,14.9,3.2,1.8
2016,5,20,13:00,UTC,,1014.8,38,,,11.5,,50000,175.4,5.8,3.7
2016,5,20,14:00,UTC,,1014.8,41,,,11.7,,50000,175.4,5.5,3.6
2016,5,20,15:00,UTC,,1014.5,39,,,11.9,,50000,178.5,5.2,3.5
2016,5,20,16:00,UTC,,1014.1,40,,,12.7,,50000,183.1,4.9,2.7
2016,5,20,17:00,UTC,,1013.9,41,,,13.6,,50000,179,3.4,2
2016,5,20,18:00,UTC,,1013.8,40,,,13.3,,50000,12.9,4.1,2.4
2016,5,20,19:00,UTC,,1013.8,45,,,12.2,,50000,24.2,4.4,2.4
2016,5,20,20:00,UTC,,1013.8,51,,,10.5,,50000,32.4,2.9,1.7
2016,5,20,21:00,UTC,,1013.6,54,,,9.2,,50000,30.4,3.5,2.1
2016,5,20,22:00,UTC,,1013.3,53,,,8.7,,50000,32.4,3.7,2.2
2016,5,20,23:00,UTC,,1013.2,56,,,7.5,,50000,56.1,1.8,1.3
2016,5,21,00:00,UTC,,1013,60,,,6.3,,50000,40.6,1.4,0.9
2016,5,21,01:00,UTC,,1012.4,62,,,5.9,,50000,37,2.7,1.4
2016,5,21,02:00,UTC,,1012.1,62,,,6.4,,50000,46.3,1.7,1.3
2016,5,21,03:00,UTC,,1011.8,60,,,8.5,,50000,30.4,1.7,1.1
2016,5,21,04:00,UTC,,1011.6,58,,,10.2,,46003,46.8,4.7,3.4
2016,5,21,05:00,UTC,,1011.3,55,,,12.5,,49003,46.3,3.7,2.9
2016,5,21,06:00,UTC,,1010.8,55,,,13.9,,45178,49.9,4.3,3.3
2016,5,21,07:00,UTC,,1010.6,54,,,15.5,,47649,44.2,4.3,2.5
2016,5,21,08:00,UTC,,1010.3,51,,,16.6,,44792,38.1,4.7,2.7
2016,5,21,09:00,UTC,,1009.9,46,,,17.6,,50000,49.9,7.4,4.8
2016,5,21,10:00,UTC,,1009.5,44,,,18,,48328,46.8,7.5,4.8
2016,5,21,11:00,UTC,,1009.2,43,,,18.2,,45847,63.3,8.6,5.7
2016,5,21,12:00,UTC,,1009.2,41,,,18,,32979,59.2,7.9,6.1
2016,5,21,13:00,UTC,,1009.2,38,,,17.8,,44303,48.4,7.6,5.7
2016,5,21,14:00,UTC,,1008.9,39,,,17.2,,50000,48.9,6.4,4.2
2016,5,21,15:00,UTC,,1008.7,39,,,16.8,,50000,41.2,5,2.7
2016,5,21,16:00,UTC,,1009,50,,,14.7,,50000,70.5,8.2,5.8
2016,5,21,17:00,UTC,,1009.3,63,,,12.4,,50000,52.5,7.6,5.4
2016,5,21,18:00,UTC,,1009.3,65,,,11.6,,50000,45.3,6.6,3.6
2016,5,21,19:00,UTC,,1009.4,84,,,10,,50000,48.4,3.5,1.9
2016,5,21,20:00,UTC,,1009.5,90,,,9.1,,50000,74.6,2.6,1.8
2016,5,21,21:00,UTC,,1009.1,92,,,8.7,,29239,86.9,1.3,0.7
2016,5,21,22:00,UTC,,1009,96,,,8.1,,29321,144,1.8,1.5
2016,5,21,23:00,UTC,,1008.9,95,,,8.5,,40222,134.8,3,2.4
2016,5,22,00:00,UTC,,1008.8,95,,,8.3,,50000,144,2.7,2.3
2016,5,22,01:00,UTC,,1009,94,,,8.3,,38331,146.1,3.4,2.7
2016,5,22,02:00,UTC,,1008.9,94,,,8.1,,41216,149.7,2.2,1.9
2016,5,22,03:00,UTC,,1009.2,95,,,8.3,,48320,128.1,2.7,2
2016,5,22,04:00,UTC,,1009.6,92,,,9.2,,50000,136.3,2.8,2.2
2016,5,22,05:00,UTC,,1010.2,88,,,9.9,,50000,143,2.5,1.7
2016,5,22,06:00,UTC,,1010.6,85,,,11,,50000,145.6,4.3,3.3
2016,5,22,07:00,UTC,,1010.9,75,,,11.5,,40147,153.8,4.4,2.7
2016,5,22,08:00,UTC,,1011.2,81,,,11.4,,50000,10.3,3.5,2.3
2016,5,22,09:00,UTC,,1011.6,76,,,11.8,,42537,4.1,2.4,1.5
2016,5,22,10:00,UTC,,1011.9,81,,,11.9,,36683,141,5.8,4.4
2016,5,22,11:00,UTC,,1012.2,80,,,11.6,,50000,136.8,6,4.8
2016,5,22,12:00,UTC,,1012.4,71,,,13.3,,50000,141.5,4,2.7
2016,5,22,13:00,UTC,,1012.4,67,,,14.6,,43287,147.6,6.1,3.8
2016,5,22,14:00,UTC,,1012.7,72,,,13.2,,44499,144.6,6.9,4.8
2016,5,22,15:00,UTC,,1012.8,72,,,13.2,,50000,153.3,4.6,3.5
2016,5,22,16:00,UTC,,1012.7,70,,,13.6,,42824,152.8,4.1,3.2
2016,5,22,17:00,UTC,,1012.7,70,,,13.3,,50000,149.7,4.4,3.5
2016,5,22,18:00,UTC,,1013,69,,,13.6,,50000,159,3,1.9
2016,5,22,19:00,UTC,,1013.2,79,,,12.7,,50000,167.2,1.8,0.9
2016,5,22,20:00,UTC,,1013.8,88,,,10.2,,50000,130.7,2.1,1.6
2016,5,22,21:00,UTC,,1013.9,94,,,8.3,,50000,119.9,0.7,0.4
2016,5,22,22:00,UTC,,1014.1,95,,,8,,4194,48.4,1.5,0.6
2016,5,22,23:00,UTC,,1014.1,95,,,7.9,,10976,83.9,1.1,0.7
2016,5,23,00:00,UTC,,1014.1,97,,,7,,19563,66.4,1.7,1.4
2016,5,23,01:00,UTC,,1014.3,97,,,6.8,,11389,72.5,2.5,1.9
2016,5,23,02:00,UTC,,1014.3,97,,,7,,14890,67.9,2.8,2.4
2016,5,23,03:00,UTC,,1014.3,90,,,9,,31932,78.2,4.4,2.3
2016,5,23,04:00,UTC,,1014.3,85,,,10.7,,19473,74.1,4.5,2.5
2016,5,23,05:00,UTC,,1014.5,70,,,13.6,,50000,77.2,3.7,2.3
2016,5,23,06:00,UTC,,1014.5,56,,,15.6,,23633,77.2,5.1,3.5
2016,5,23,07:00,UTC,,1014.6,54,,,16.8,,41915,82.8,5,3.2
2016,5,23,08:00,UTC,,1014.4,49,,,18.6,,49208,99.8,5.1,3.3
2016,5,23,09:00,UTC,,1014.4,53,,,18.3,,50000,105.5,5.2,3.4
2016,5,23,10:00,UTC,,1014.2,55,,,18.4,,50000,96.7,5,2.8
2016,5,23,11:00,UTC,,1014.2,53,,,19.6,,48589,90,5.5,3.8
2016,5,23,12:00,UTC,,1014,48,,,21.1,,47237,90.5,5.7,4.1
2016,5,23,13:00,UTC,,1013.4,44,,,22.4,,45487,90,7.4,4.8
2016,5,23,14:00,UTC,,1013,44,,,22.8,,47758,92.6,6.8,4.3
2016,5,23,15:00,UTC,,1013.3,49,,,20.9,,48776,147.6,8.4,5.6
2016,5,23,16:00,UTC,,1013.6,66,,,17.1,,50000,139.4,8.8,6.7
2016,5,23,17:00,UTC,,1013.9,58,,,15.6,,50000,149.2,4.8,3.3
2016,5,23,18:00,UTC,,1014,60,,,14.7,,45892,157.9,3.4,2.4
2016,5,23,19:00,UTC,,1014.1,72,,,13.4,,50000,185.2,2.1,1.4
2016,5,23,20:00,UTC,,1014,78,,,12.1,,50000,67.4,1.8,1.3
2016,5,23,21:00,UTC,,1013.8,79,,,12.2,,50000,51.4,2.3,1.2
2016,5,23,22:00,UTC,,1013.8,78,,,11.6,,50000,63.3,1,0.8
2016,5,23,23:00,UTC,,1013.8,80,,,11.1,,50000,67.9,2,1.7
2016,5,24,00:00,UTC,,1013.7,85,,,10.4,,50000,77.7,1.1,0.7
2016,5,24,01:00,UTC,,1013.4,86,,,11.1,,50000,71.5,2.5,2.2
2016,5,24,02:00,UTC,,1013,81,,,11.8,,50000,65.8,3.4,3
2016,5,24,03:00,UTC,,1013.1,80,,,12.7,,46892,90,4.7,3.4
2016,5,24,04:00,UTC,,1013.1,70,,,15.6,,47713,98.3,6.9,2.9
2016,5,24,05:00,UTC,,1013.3,59,,,17.1,,18629,107.5,5.9,4
2016,5,24,06:00,UTC,,1013.5,56,,,17.8,,48203,112.1,6.1,4.3
2016,5,24,07:00,UTC,,1013.6,62,,,16.9,,49480,139.4,5.7,4
2016,5,24,08:00,UTC,,1013.5,64,,,16,,43990,140.4,6.6,5.1
2016,5,24,09:00,UTC,,1013.8,63,,,16.4,,45263,139.9,7.9,6.1
2016,5,24,10:00,UTC,,1013.9,68,,,15.3,,47807,142,9.6,6.9
2016,5,24,11:00,UTC,,1014.1,74,,,14.5,,42413,142.5,10,6.9
2016,5,24,12:00,UTC,,1014.5,85,,,12.3,,48988,138.9,7.1,5.1
2016,5,24,13:00,UTC,,1014.7,90,,,11.2,,31244,139.9,4.8,3.8
2016,5,24,14:00,UTC,,1014.7,97,,,10.8,,16232,153.3,3,2.2
2016,5,24,15:00,UTC,,1014.6,98,,,10.9,,25789,151.2,4.2,2.9
2016,5,24,16:00,UTC,,1014.3,97,,,10.4,,32489,154.3,2.9,2.3
2016,5,24,17:00,UTC,,1014.2,98,,,10.2,,15501,165.7,2.6,1.9
2016,5,24,18:00,UTC,,1014.6,98,,,9.7,,17972,158.4,5,3.5
2016,5,24,19:00,UTC,,1014.6,97,,,10,,15879,1,4.1,2.4
2016,5,24,20:00,UTC,,1014.9,98,,,9.8,,8745,150.7,2.4,1.9
2016,5,24,21:00,UTC,,1015.1,99,,,10,,1697,157.9,3.7,2.7
2016,5,24,22:00,UTC,,1014.8,99,,,10.1,,1367,164.1,4.3,2.5
2016,5,24,23:00,UTC,,1014.8,100,,,10.4,,9006,166.7,3.2,2.1
2016,5,25,00:00,UTC,,1014.6,100,,,10.5,,6532,167.2,4.6,2.9
2016,5,25,01:00,UTC,,1014.8,100,,,10.8,,7753,172.3,3.7,2.2
2016,5,25,02:00,UTC,,1015,100,,,11.3,,20120,175.9,4.2,2.3
2016,5,25,03:00,UTC,,1015.1,99,,,11.3,,50000,1.5,4.2,2.2
2016,5,25,04:00,UTC,,1014.8,94,,,11.6,,50000,179.5,4.7,2.6
2016,5,25,05:00,UTC,,1014.9,90,,,11.8,,50000,6.2,4.2,2.3
2016,5,25,06:00,UTC,,1015,84,,,11.9,,50000,4.6,5.1,3.4
2016,5,25,07:00,UTC,,1015.6,83,,,11.9,,50000,1.5,4.2,2.7
2016,5,25,08:00,UTC,,1015.5,78,,,12.7,,50000,181.6,5.2,2.8
2016,5,25,09:00,UTC,,1015.6,69,,,13.1,,50000,184.2,5.9,3
2016,5,25,10:00,UTC,,1015.7,77,,,12.3,,44937,2.6,5,3
2016,5,25,11:00,UTC,,1015.6,77,,,12.6,,50000,183.1,6,3.6
2016,5,25,12:00,UTC,,1016,74,,,12.9,,50000,181.6,7.1,3.1
2016,5,25,13:00,UTC,,1015.8,70,,,13.3,,48089,4.1,6.3,3.8
2016,5,25,14:00,UTC,,1015.7,70,,,13.3,,49558,10.8,6.3,3.3
2016,5,25,15:00,UTC,,1015.5,65,,,13.3,,46860,14.9,6.7,3.4
2016,5,25,16:00,UTC,,1015.3,67,,,13.2,,50000,13.4,5.8,3.2
2016,5,25,17:00,UTC,,1015.3,62,,,13.5,,50000,12.9,4.7,3
2016,5,25,18:00,UTC,,1015.4,65,,,13.4,,50000,9.8,3.9,2.1
2016,5,25,19:00,UTC,,1015.7,65,,,13.2,,50000,23.1,5.1,2.6
2016,5,25,20:00,UTC,,1015.8,70,,,12.7,,50000,23.1,6.3,3
2016,5,25,21:00,UTC,,1015.8,74,,,12.2,,50000,25.2,5,2.2
2016,5,25,22:00,UTC,,1015.7,78,,,11.8,,50000,26.8,5.3,2.9
2016,5,25,23:00,UTC,,1015.6,79,,,11.5,,50000,24.2,5.2,2.6
2016,5,26,00:00,UTC,,1015.5,78,,,11.5,,50000,22.1,7.2,3.7
2016,5,26,01:00,UTC,,1015.4,74,,,11.6,,50000,20.6,7.5,4.2
2016,5,26,02:00,UTC,,1015.5,71,,,11.7,,50000,21.6,8.4,4
2016,5,26,03:00,UTC,,1015.7,71,,,11.7,,50000,25.7,7.9,4.4
2016,5,26,04:00,UTC,,1015.7,65,,,12.1,,50000,25.2,9.4,4.7
2016,5,26,05:00,UTC,,1015.8,63,,,12.7,,47961,22.1,9.3,4.5
2016,5,26,06:00,UTC,,1016.1,58,,,13.5,,50000,27.8,7.4,4.1
2016,5,26,07:00,UTC,,1016.3,49,,,14.8,,37878,28.3,9.9,5.9
2016,5,26,08:00,UTC,,1016.4,47,,,15.9,,35687,27.8,9.3,5.7
2016,5,26,09:00,UTC,,1016.5,45,,,15.8,,43827,26.8,10.1,6
2016,5,26,10:00,UTC,,1017,45,,,16,,46517,34,8.9,4.7
2016,5,26,11:00,UTC,,1017.3,47,,,15.6,,50000,34.5,9.9,5
2016,5,26,12:00,UTC,,1017.6,47,,,15.4,,50000,27.8,9.5,5.6
2016,5,26,13:00,UTC,,1017.8,48,,,15.2,,50000,20.1,11,5.7
2016,5,26,14:00,UTC,,1018,46,,,15.1,,50000,26.8,9.9,4.8
2016,5,26,15:00,UTC,,1018.1,49,,,15.3,,46683,27.8,9.8,4.4
2016,5,26,16:00,UTC,,1018.3,46,,,15.7,,50000,26.2,7.7,4.6
2016,5,26,17:00,UTC,,1018.6,44,,,15.5,,50000,31.9,6.8,3.6
2016,5,26,18:00,UTC,,1018.9,44,,,15,,47881,43.2,5.8,3.7
2016,5,26,19:00,UTC,,1019.4,47,,,14.2,,50000,41.7,3.7,2.5
2016,5,26,20:00,UTC,,1019.8,54,,,12.7,,50000,31.9,2.2,1.7
2016,5,26,21:00,UTC,,1020.4,66,,,11.2,,50000,23.1,2.2,1.2
2016,5,26,22:00,UTC,,1020.7,68,,,10.1,,50000,29.8,3.2,1.9
2016,5,26,23:00,UTC,,1021,64,,,9.5,,50000,38.1,4.6,3.1
2016,5,27,00:00,UTC,,1021.5,68,,,8.4,,50000,35.5,5.4,3.4
2016,5,27,01:00,UTC,,1021.8,71,,,7.6,,50000,35.5,5.6,3.4
2016,5,27,02:00,UTC,,1022.3,70,,,7.7,,50000,33.4,4.4,3
2016,5,27,03:00,UTC,,1022.8,68,,,8.4,,50000,34,6.1,3.3
2016,5,27,04:00,UTC,,1023,60,,,9.6,,50000,45.8,6.6,4.2
2016,5,27,05:00,UTC,,1023.2,56,,,10.7,,50000,34.5,6.9,3.8
2016,5,27,06:00,UTC,,1023.2,52,,,11.4,,42509,37.6,7.1,4.6
2016,5,27,07:00,UTC,,1023.4,47,,,12.6,,44132,41.7,7.1,3.9
2016,5,27,08:00,UTC,,1023.4,46,,,13.4,,50000,35.5,7.5,4.2
2016,5,27,09:00,UTC,,1023.3,45,,,14.4,,42754,30.4,7.6,4
2016,5,27,10:00,UTC,,1023.3,40,,,15.5,,36767,25.2,6.8,3.3
2016,5,27,11:00,UTC,,1023.4,35,,,16.4,,43031,25.7,5.4,2.4
2016,5,27,12:00,UTC,,1023.4,28,,,17.2,,43736,48.4,7.2,4.2
2016,5,27,13:00,UTC,,1023.4,30,,,18.1,,50000,45.3,5.9,3.1
2016,5,27,14:00,UTC,,1023.4,30,,,18.4,,50000,64.8,7.5,3.5
2016,5,27,15:00,UTC,,1023.6,29,,,18.3,,50000,51.4,6.4,3.8
2016,5,27,16:00,UTC,,1023.7,31,,,18.6,,41808,45.8,4.8,2.7
2016,5,27,17:00,UTC,,1024,40,,,17.6,,46747,81.3,6.9,5.1
2016,5,27,18:00,UTC,,1024.6,40,,,16.8,,50000,81.3,4.5,3.3
2016,5,27,19:00,UTC,,1025.2,45,,,16,,50000,76.1,4.3,3.2
2016,5,27,20:00,UTC,,1025.6,54,,,14,,50000,78.2,2.9,2.2
2016,5,27,21:00,UTC,,1026,64,,,11.5,,50000,66.9,1.7,1.2
2016,5,27,22:00,UTC,,1026.3,63,,,12.4,,50000,75.6,1.9,1.3
2016,5,27,23:00,UTC,,1026.5,70,,,11.5,,50000,64.3,2.1,1.7
2016,5,28,00:00,UTC,,1027,73,,,10.6,,50000,55.6,1.8,1.2
2016,5,28,01:00,UTC,,1027.5,75,,,10.8,,50000,36,1.7,1
2016,5,28,02:00,UTC,,1027.7,69,,,11.6,,50000,68.9,3.6,2.6
2016,5,28,03:00,UTC,,1028,72,,,11.7,,50000,67.4,3.2,2.3
2016,5,28,04:00,UTC,,1027.8,67,,,13,,50000,75.1,3.3,2.3
2016,5,28,05:00,UTC,,1027.7,60,,,14.8,,38691,56.1,2.8,1.7
2016,5,28,06:00,UTC,,1027.8,53,,,15.7,,48777,57.6,3,1.7
2016,5,28,07:00,UTC,,1027.8,53,,,16.4,,50000,180.6,2.6,1.7
2016,5,28,08:00,UTC,,1027.7,48,,,17,,47813,69.4,4.9,1.9
2016,5,28,09:00,UTC,,1027.3,45,,,17.9,,37117,164.1,3,1.7
2016,5,28,10:00,UTC,,1027.1,43,,,18.6,,38995,155.4,3,1.5
2016,5,28,11:00,UTC,,1026.8,54,,,17.6,,48735,169.3,5.7,3.5
2016,5,28,12:00,UTC,,1026.6,51,,,17.7,,50000,173.4,5.9,4
2016,5,28,13:00,UTC,,1026.2,48,,,17.7,,33810,179,5.1,2.7
2016,5,28,14:00,UTC,,1026.1,52,,,16.8,,32182,171.3,7.1,4.5
2016,5,28,15:00,UTC,,1026,52,,,16.7,,50000,167.7,7.6,4.8
2016,5,28,16:00,UTC,,1025.8,60,,,15.8,,50000,171.3,6.4,4.3
2016,5,28,17:00,UTC,,1025.7,66,,,14.7,,45489,172.3,6.8,4.2
2016,5,28,18:00,UTC,,1025.6,69,,,14,,39753,166.7,5.6,3.2
2016,5,28,19:00,UTC,,1025.6,72,,,13.1,,50000,165.1,4,2.6
2016,5,28,20:00,UTC,,1025.6,83,,,12.1,,50000,174.4,2.4,1.4
2016,5,28,21:00,UTC,,1025.6,90,,,9.9,,50000,168.2,1.5,1.1
2016,5,28,22:00,UTC,,1025.5,92,,,9,,50000,175.4,1.4,0.9
2016,5,28,23:00,UTC,,1025.6,96,,,7.8,,50000,167.7,1.6,0.9
2016,5,29,00:00,UTC,,1025.6,92,,,8.3,,50000,178,1.4,0.8
2016,5,29,01:00,UTC,,1025.6,96,,,8,,50000,183.1,1.3,0.7
2016,5,29,02:00,UTC,,1025.7,97,,,8.5,,41147,87.5,0.5,0.2
2016,5,29,03:00,UTC,,1025.5,88,,,12.3,,50000,5.7,1.5,0.6
2016,5,29,04:00,UTC,,1025.4,74,,,13.3,,50000,4.6,2.9,2
2016,5,29,05:00,UTC,,1025.3,63,,,15.1,,50000,183.7,2,1.1
2016,5,29,06:00,UTC,,1025,54,,,17,,50000,182.1,2.4,1.5
2016,5,29,07:00,UTC,,1025,48,,,18.4,,35978,18.5,1.9,1
2016,5,29,08:00,UTC,,1024.8,48,,,19.3,,29977,9.8,2.1,1.4
2016,5,29,09:00,UTC,,1024.5,48,,,20.3,,40703,3.1,2.9,1.6
2016,5,29,10:00,UTC,,1024.5,41,,,20.4,,50000,180.6,4.3,2.8
2016,5,29,11:00,UTC,,1024.3,47,,,19.9,,49972,178.5,5.4,3.6
2016,5,29,12:00,UTC,,1024.2,46,,,19,,50000,174.4,5.8,4
2016,5,29,13:00,UTC,,1023.8,47,,,19,,50000,174.9,7.3,4.1
2016,5,29,14:00,UTC,,1023.5,47,,,19.9,,45861,173.4,5.2,2.9
2016,5,29,15:00,UTC,,1023.3,44,,,19.8,,50000,175.4,6.5,3.5
2016,5,29,16:00,UTC,,1023,48,,,19.4,,29166,171.3,6.4,3.8
2016,5,29,17:00,UTC,,1022.9,54,,,18.6,,30457,167.7,6.6,4.1
2016,5,29,18:00,UTC,,1022.8,62,,,16.6,,50000,165.7,6.4,4.5
2016,5,29,19:00,UTC,,1023.1,72,,,15.1,,50000,166.2,4.2,3.1
2016,5,29,20:00,UTC,,1023.3,84,,,12.8,,50000,156.4,4.4,3.4
2016,5,29,21:00,UTC,,1023.4,84,,,12.3,,50000,154.8,3,2.6
2016,5,29,22:00,UTC,,1023.5,88,,,10.9,,50000,142,2.2,1.8
2016,5,29,23:00,UTC,,1023.9,87,,,10.4,,50000,170.3,2.4,1.6
2016,5,30,00:00,UTC,,1024.2,91,,,10.2,,50000,164.6,2,1.5
2016,5,30,01:00,UTC,,1024.4,96,,,10.4,,50000,171.8,2,1.3
2016,5,30,02:00,UTC,,1024.3,94,,,11.1,,50000,153.3,2.4,1.9
2016,5,30,03:00,UTC,,1024,85,,,13.3,,50000,174.9,3.1,1.8
2016,5,30,04:00,UTC,,1023.5,70,,,15.3,,50000,3.1,5.4,2.3
2016,5,30,05:00,UTC,,1023.4,69,,,15.5,,50000,171.8,4.9,2.7
2016,5,30,06:00,UTC,,1023.5,62,,,17.1,,42589,167.2,4.1,2.4
2016,5,30,07:00,UTC,,1023.6,56,,,18.5,,37342,172.9,4.4,2.8
2016,5,30,08:00,UTC,,1023.6,57,,,18,,39980,171.8,6.7,4.3
2016,5,30,09:00,UTC,,1023.5,58,,,18.3,,26683,171.8,6,3.6
2016,5,30,10:00,UTC,,1023.3,59,,,19,,37059,173.4,5.9,3.7
2016,5,30,11:00,UTC,,1023.2,55,,,20,,43463,171.8,5.5,4
2016,5,30,12:00,UTC,,1023,54,,,19.4,,37068,174.4,6.6,4.3
2016,5,30,13:00,UTC,,1022.5,55,,,20.4,,32180,173.4,5.2,3.4
2016,5,30,14:00,UTC,,1022.2,51,,,21.5,,44892,163.6,6.1,4.1
2016,5,30,15:00,UTC,,1022.1,54,,,19.9,,50000,173.4,7.8,5.2
2016,5,30,16:00,UTC,,1021.7,61,,,18.8,,49408,169.8,5.6,3.5
2016,5,30,17:00,UTC,,1021.3,58,,,19.6,,50000,176.5,3.5,2.1
2016,5,30,18:00,UTC,,1021.3,58,,,19,,50000,172.3,4.6,2.6
2016,5,30,19:00,UTC,,1021.3,61,,,18.1,,47740,169.3,2.9,1.9
2016,5,30,20:00,UTC,,1021.4,65,,,17.5,,50000,178,2,1
2016,5,30,21:00,UTC,,1021.4,65,,,17.1,,50000,167.7,0.9,0.5
2016,5,30,22:00,UTC,,1021.4,68,,,15.9,,50000,166.7,2.7,2.2
2016,5,30,23:00,UTC,,1021.7,80,,,13,,50000,157.4,2,1
2016,5,31,00:00,UTC,,1021.8,80,,,12.8,,50000,43.7,1.6,0.7
2016,5,31,01:00,UTC,,1022,92,,,11.9,,34276,78.7,2,1.2
2016,5,31,02:00,UTC,,1022.3,86,,,13,,39042,56.1,2.9,2.5
2016,5,31,03:00,UTC,,1022.3,74,,,14.8,,50000,76.7,5.9,2.6
2016,5,31,04:00,UTC,,1022.4,72,,,15.7,,50000,79.7,5.4,4.2
2016,5,31,05:00,UTC,,1022.3,67,,,17.5,,28836,80.8,5.3,3.3
2016,5,31,06:00,UTC,,1022.3,58,,,19.9,,34150,77.2,3.7,2.3
2016,5,31,07:00,UTC,,1022.1,51,,,21.6,,42022,67.4,5.7,2.7
2016,5,31,08:00,UTC,,1022.2,44,,,23.5,,42438,74.1,5.2,2.9
2016,5,31,09:00,UTC,,1022.1,38,,,24.3,,43520,84.9,5.5,2.5
2016,5,31,10:00,UTC,,1021.9,36,,,24.7,,24978,75.6,5.1,3
2016,5,31,11:00,UTC,,1021.8,37,,,25.2,,50000,143.5,4.1,2
2016,5,31,12:00,UTC,,1021.8,41,,,24.4,,35145,165.1,6.4,4.3
2016,5,31,13:00,UTC,,1021.6,44,,,23.7,,50000,175.4,5.9,4
2016,5,31,14:00,UTC,,1021.5,44,,,23.1,,34641,170.3,6.3,4
2016,5,31,15:00,UTC,,1021.5,50,,,21,,40721,171.8,6.5,4.7
2016,5,31,16:00,UTC,,1021.4,52,,,20.8,,45600,176.5,4.2,2.5
2016,5,31,17:00,UTC,,1021.5,60,,,19.2,,49581,169.8,4.9,3.1
2016,5,31,18:00,UTC,,1021.7,63,,,18.4,,50000,162.6,3.8,2.2
2016,5,31,19:00,UTC,,1021.7,74,,,17,,50000,148.2,2.9,2
2016,5,31,20:00,UTC,,1021.8,82,,,15.8,,50000,169.8,2,1.4
2016,5,31,21:00,UTC,,1022,90,,,14.6,,50000,181.6,1.8,1.2
2016,5,31,22:00,UTC,,1022,91,,,13,,50000,173.4,1.8,1.2
2016,5,31,23:00,UTC,,1021.9,89,,,13.8,,50000,84.9,1,0.7
2016,6,1,00:00,UTC,,1021.9,96,,,12.6,,37109,175.4,1.4,0.7
2016,6,1,01:00,UTC,,1021.9,92,,,13.1,,50000,135.3,1.1,0.9
2016,6,1,02:00,UTC,,1022.2,95,,,13.3,,39729,153.8,2.4,2.2
2016,6,1,03:00,UTC,,1021.7,85,,,15.2,,50000,128.1,2.1,1.7
2016,6,1,04:00,UTC,,1021.5,82,,,16,,50000,138.4,3.1,2.3
2016,6,1,05:00,UTC,,1021.1,69,,,17.5,,50000,158.4,4.7,3.2
2016,6,1,06:00,UTC,,1021.4,69,,,17.9,,46649,166.7,8.2,5.3
2016,6,1,07:00,UTC,,1021.6,76,,,17,,44979,168.7,5.2,3.7
2016,6,1,08:00,UTC,,1021.6,87,,,16.2,,32424,178,3.3,1.8
2016,6,1,09:00,UTC,,1021.7,84,,,16.4,,50000,37,1.6,1
2016,6,1,10:00,UTC,,1021.7,86,,,16.8,,50000,165.1,3.1,2.1
2016,6,1,11:00,UTC,,1021.5,83,,,18.2,,50000,176.5,3.3,2.1
2016,6,1,12:00,UTC,,,,,,,,,167.7,4,3.2
2016,6,1,13:00,UTC,,1020.8,65,,,20.5,,47005,153.8,7.8,3.9
2016,6,1,14:00,UTC,,1020.4,64,,,20.3,,50000,155.4,7.5,5.1
2016,6,1,15:00,UTC,,1020.2,67,,,19.1,,38564,173.4,6.5,3.8
2016,6,1,16:00,UTC,,1020,66,,,18.7,,50000,167.7,6.2,3.7
2016,6,1,17:00,UTC,,1019.9,75,,,17.5,,47123,172.9,5.1,2.8
2016,6,1,18:00,UTC,,1019.8,81,,,16.5,,50000,170.8,4.5,2.8
2016,6,1,19:00,UTC,,1019.8,84,,,15.8,,50000,167.7,2.9,1.8
2016,6,1,20:00,UTC,,1019.8,92,,,14.2,,50000,163.6,3.7,2.4
2016,6,1,21:00,UTC,,1020,97,,,13.3,,50000,165.1,2.4,1.4
2016,6,1,22:00,UTC,,1019.9,97,,,13.2,,50000,141,5.3,3.4
2016,6,1,23:00,UTC,,1019.9,98,,,12.8,,38665,159,1.8,1.4
2016,6,2,00:00,UTC,,1019.7,97,,,12.6,,19107,161.5,1.2,0.6
2016,6,2,01:00,UTC,,1020.1,98,,,11.2,,50000,133.2,2.3,1.9
2016,6,2,02:00,UTC,,1020.1,98,,,13.5,,42727,152.3,2.5,2.2
2016,6,2,03:00,UTC,,1020.1,92,,,15.4,,48935,183.7,3.7,1.6
2016,6,2,04:00,UTC,,1020.3,83,,,15.1,,50000,10.8,5.5,3
2016,6,2,05:00,UTC,,1020.5,79,,,15.8,,49343,5.1,4.3,2.4
2016,6,2,06:00,UTC,,1020.8,75,,,16.7,,33389,6.2,4.4,2.3
2016,6,2,07:00,UTC,,1020.9,69,,,17.8,,28459,184.2,5.3,3
2016,6,2,08:00,UTC,,1021,60,,,18.6,,38952,179.5,4.8,2.8
2016,6,2,09:00,UTC,,,,,,,,16922,177.5,5.5,3.4
2016,6,2,10:00,UTC,,,,,,,,33735,,,
2016,6,2,11:00,UTC,,,,,,,,50000,,,
2016,6,2,12:00,UTC,,1020.8,43,,,18.8,,36421,168.2,7.9,5.2
2016,6,2,13:00,UTC,,1020.4,38,,,19.4,,50000,167.2,7.8,5.2
2016,6,2,14:00,UTC,,1020,37,,,19.3,,50000,161.5,7.1,5.1
2016,6,2,15:00,UTC,,1019.7,33,,,19.1,,45012,165.1,6.1,4.1
2016,6,2,16:00,UTC,,1019,40,,,18,,50000,169.8,5.3,3.6
2016,6,2,17:00,UTC,,1018.5,44,,,17,,43669,165.1,5.7,3.8
2016,6,2,18:00,UTC,,1018,49,,,16.3,,50000,165.7,3.9,2.7
2016,6,2,19:00,UTC,,1017.6,58,,,15.5,,50000,159,1,0.5
2016,6,2,20:00,UTC,,1017,79,,,10.6,,50000,129.1,2,1.8
2016,6,2,21:00,UTC,,1016.6,84,,,10,,50000,146.6,0.9,0.8
2016,6,2,22:00,UTC,,1015.7,78,,,10.6,,50000,82.8,0.8,0.6
2016,6,2,23:00,UTC,,1014.7,86,,,9.8,,50000,81.8,1.2,1
2016,6,3,00:00,UTC,,1013.4,85,,,8,,50000,86.9,2.9,2.4
2016,6,3,01:00,UTC,,1012,61,,,11.7,,50000,94.7,4.7,3.9
2016,6,3,02:00,UTC,,1011.1,38,,,13.8,,50000,110.6,8.3,4.5
2016,6,3,03:00,UTC,,1009.9,45,,,14.3,,50000,124,8.9,5.1
2016,6,3,04:00,UTC,,1009.5,79,,,12.5,,50000,139.9,8.2,5.9
2016,6,3,05:00,UTC,,1008.9,70,,,13.5,,49999,151.8,8.5,6
2016,6,3,06:00,UTC,,1008.6,44,,,14.9,,47082,159.5,11,7.7
2016,6,3,07:00,UTC,,1008.7,46,,,14.8,,36812,158.4,12.2,8.8
2016,6,3,08:00,UTC,,1008.9,40,,,15.2,,37573,157.4,12.9,9.2
2016,6,3,09:00,UTC,,1008.9,35,,,15.1,,50000,156.4,12.4,8.9
2016,6,3,10:00,UTC,,1009,38,,,15.1,,41759,160.5,11.2,8.1
2016,6,3,11:00,UTC,,1009,36,,,14.9,,50000,164.1,14.4,8.6
2016,6,3,12:00,UTC,,1008.7,36,,,15.3,,48191,161.5,13.6,9.5
2016,6,3,13:00,UTC,,1009,34,,,15.2,,50000,157.9,13.5,8.2
2016,6,3,14:00,UTC,,1008.7,34,,,15.2,,50000,155.9,13.3,10.3
2016,6,3,15:00,UTC,,1009.1,44,,,14.2,,50000,171.3,10.9,6.5
2016,6,3,16:00,UTC,,1009.2,42,,,13.7,,49370,169.3,12.8,7.7
2016,6,3,17:00,UTC,,1009.6,39,,,13.1,,50000,170.8,8.9,6.1
2016,6,3,18:00,UTC,,1009.4,42,,,12.5,,50000,167.2,9.3,6.2
2016,6,3,19:00,UTC,,1009.6,44,,,11.8,,50000,166.7,11.4,7
2016,6,3,20:00,UTC,,1009.8,44,,,11.3,,50000,169.3,10.5,5.8
2016,6,3,21:00,UTC,,1009.9,47,,,10.8,,50000,169.8,9.8,5.9
2016,6,3,22:00,UTC,,1009.9,50,,,10.5,,50000,170.8,10.4,6.7
2016,6,3,23:00,UTC,,1010.3,55,,,9.7,,50000,171.3,11.6,6.8
2016,6,4,00:00,UTC,,1010.7,55,,,9,,50000,169.8,10.5,6
2016,6,4,01:00,UTC,,1010.8,61,,,8.5,,50000,171.8,9,5.6
2016,6,4,02:00,UTC,,1011,56,,,8.4,,50000,171.8,9.5,5.4
2016,6,4,03:00,UTC,,1011.3,55,,,8.2,,39797,171.3,11,6.6
2016,6,4,04:00,UTC,,1011.7,56,,,8,,46657,171.8,11.2,6.4
2016,6,4,05:00,UTC,,1011.6,57,,,8.4,,42104,167.2,9.1,5.6
2016,6,4,06:00,UTC,,1011.5,57,,,8.2,,39579,170.8,10.7,6.6
2016,6,4,07:00,UTC,,1011.7,51,,,8.4,,41720,170.3,12.3,6.5
2016,6,4,08:00,UTC,,1012,51,,,9.2,,50000,170.3,11.1,6.3
2016,6,4,09:00,UTC,,1011.9,51,,,10.2,,43719,171.3,10.5,6.3
2016,6,4,10:00,UTC,,1012,47,,,9.9,,50000,160,10.9,7.3
2016,6,4,11:00,UTC,,1011.8,43,,,11.1,,49856,161,11.3,7.9
2016,6,4,12:00,UTC,,1011.6,46,,,10.6,,47972,162,12.5,8.9
2016,6,4,13:00,UTC,,1011.7,46,,,10.3,,50000,158.4,10.6,7.9
2016,6,4,14:00,UTC,,1011.2,45,,,11,,50000,162.6,8.6,5.9
2016,6,4,15:00,UTC,,1011.1,40,,,11.9,,50000,157.9,9.8,6.9
2016,6,4,16:00,UTC,,1011.1,55,,,10,,50000,161,9.8,6.4
2016,6,4,17:00,UTC,,1011.4,56,,,9.6,,50000,169.3,10.5,6.7
2016,6,4,18:00,UTC,,1011.4,60,,,8.9,,50000,169.8,7.9,4.8
2016,6,4,19:00,UTC,,1011.8,65,,,8.6,,50000,170.8,6.7,4
2016,6,4,20:00,UTC,,1011.8,66,,,8.6,,50000,170.3,6.8,4.1
2016,6,4,21:00,UTC,,1012.3,62,,,8.4,,50000,173.9,9.4,5.7
2016,6,4,22:00,UTC,,1012.7,64,,,8,,50000,169.8,8.8,6.1
2016,6,4,23:00,UTC,,1013,68,,,7.4,,50000,175.4,8.9,4.2
2016,6,5,00:00,UTC,,1013.4,68,,,6.8,,50000,179,10.5,4.9
2016,6,5,01:00,UTC,,1013.8,72,,,6,,50000,181.6,8.2,4.1
2016,6,5,02:00,UTC,,1014.5,76,,,5.3,,50000,178,6.5,3.7
2016,6,5,03:00,UTC,,1014.9,71,,,6.3,,50000,181.6,6.2,3.7
2016,6,5,04:00,UTC,,1015.4,66,,,6.5,,50000,1,9.1,4.8
2016,6,5,05:00,UTC,,1015.7,61,,,7,,48162,183.7,7.6,4.4
2016,6,5,06:00,UTC,,1016.3,59,,,7.5,,48822,178.5,6.9,4.5
2016,6,5,07:00,UTC,,1016.7,56,,,8.6,,50000,183.7,7.8,4.5
2016,6,5,08:00,UTC,,1017.3,57,,,8.1,,50000,1.5,9.1,4.7
2016,6,5,09:00,UTC,,1017.7,61,,,8.8,,42563,172.9,9.1,4.4
2016,6,5,10:00,UTC,,1018.1,59,,,8.9,,50000,165.7,9,5.3
2016,6,5,11:00,UTC,,1018.4,51,,,9.6,,50000,167.7,10.4,6.5
2016,6,5,12:00,UTC,,1018.6,47,,,10.3,,50000,168.2,11.4,7.4
2016,6,5,13:00,UTC,,1018.9,46,,,10.1,,47908,165.7,12,8.1
2016,6,5,14:00,UTC,,1019.3,50,,,11.1,,50000,167.2,10.9,6.8
2016,6,5,15:00,UTC,,1019.5,49,,,9.7,,50000,170.3,8.9,5.2
2016,6,5,16:00,UTC,,1019.6,50,,,9.5,,50000,170.8,8.5,5.4
2016,6,5,17:00,UTC,,1019.8,47,,,9.4,,50000,172.3,8.9,4.9
2016,6,5,18:00,UTC,,1020.1,49,,,9.3,,50000,172.9,6.1,3.4
2016,6,5,19:00,UTC,,1020.1,49,,,9.2,,50000,178,6.3,3.8
2016,6,5,20:00,UTC,,1020.5,51,,,9,,50000,175.9,6.8,3.8
2016,6,5,21:00,UTC,,1020.8,52,,,8.8,,50000,173.9,5.4,3.3
2016,6,5,22:00,UTC,,1021,55,,,8.6,,50000,170.8,4.9,2.9
2016,6,5,23:00,UTC,,1021.1,51,,,8.8,,50000,175.9,6.4,3.6
2016,6,6,00:00,UTC,,1021.4,53,,,8.6,,50000,173.9,4.2,2.5
2016,6,6,01:00,UTC,,1021.5,57,,,8.2,,50000,179,5.7,2.8
2016,6,6,02:00,UTC,,1021.5,58,,,7.9,,50000,181.1,3.6,2.2
2016,6,6,03:00,UTC,,1021.7,59,,,7.8,,50000,4.1,4.8,2.7
2016,6,6,04:00,UTC,,1021.9,60,,,7.9,,44984,5.7,4.8,2.8
2016,6,6,05:00,UTC,,1021.9,52,,,8.6,,50000,178.5,3.3,1.4
2016,6,6,06:00,UTC,,1021.9,48,,,9,,50000,168.2,4.5,2.8
2016,6,6,07:00,UTC,,1021.9,43,,,9.6,,50000,161.5,6.4,3.9
2016,6,6,08:00,UTC,,1021.8,42,,,9.6,,50000,170.8,5.7,3.8
2016,6,6,09:00,UTC,,1021.8,41,,,10,,43437,180.6,5.9,3.3
2016,6,6,10:00,UTC,,1021.8,38,,,9.8,,50000,175.4,8.1,4.8
2016,6,6,11:00,UTC,,1021.4,38,,,10.1,,27518,167.7,8.1,4.9
2016,6,6,12:00,UTC,,1021.1,41,,,10.9,,43252,173.9,6.5,3.7
2016,6,6,13:00,UTC,,1020.7,42,,,11.3,,45831,150.2,8.8,5.1
2016,6,6,14:00,UTC,,1020.5,39,,,10.9,,50000,153.8,6.3,4.8
2016,6,6,15:00,UTC,,1020.1,38,,,11,,43485,162,5.7,3.5
2016,6,6,16:00,UTC,,1019.7,45,,,11.9,,29116,151.2,5.2,2.2
2016,6,6,17:00,UTC,,1019.3,47,,,10.8,,50000,130.7,4.6,3.4
2016,6,6,18:00,UTC,,1018.8,45,,,10.8,,50000,144.6,3.1,1.6
2016,6,6,19:00,UTC,,1018.6,48,,,10,,50000,22.6,1.5,0.7
2016,6,6,20:00,UTC,,1018.4,64,,,7.3,,50000,80.8,0.6,0.4
2016,6,6,21:00,UTC,,1018.2,73,,,5.7,,50000,104.4,0.4,0.3
2016,6,6,22:00,UTC,,1018,72,,,5,,50000,75.6,3.2,1.6
2016,6,6,23:00,UTC,,1017.6,79,,,4,,50000,68.9,2.3,1.8
2016,6,7,00:00,UTC,,1016.9,83,,,2.6,,50000,68.4,3.2,2.8
2016,6,7,01:00,UTC,,1016.2,80,,,3.4,,50000,68.4,3.7,3.2
2016,6,7,02:00,UTC,,1015.5,76,,,4.3,,50000,71,4.6,3.8
2016,6,7,03:00,UTC,,1014.8,71,,,6,,50000,76.7,5,3.8
2016,6,7,04:00,UTC,,1013.8,66,,,8.5,,50000,73.6,5.5,4.4
2016,6,7,05:00,UTC,,1013,61,,,10.7,,50000,83.9,6.4,4.4
2016,6,7,06:00,UTC,,1012.2,50,,,13,,50000,87.5,6.9,4.7
2016,6,7,07:00,UTC,,1011.7,52,,,14,,32268,122.4,6.5,4.2
2016,6,7,08:00,UTC,,1011.2,58,,,13.9,,50000,111.1,5.9,3.3
2016,6,7,09:00,UTC,,1011.2,78,,,11.7,,36260,137.9,9.6,7.3
2016,6,7,10:00,UTC,,1011.1,77,,,10.8,,50000,138.9,10.7,8.2
2016,6,7,11:00,UTC,,1011,76,,,11,,43832,138.4,8.8,6.9
2016,6,7,12:00,UTC,,1010.8,71,,,10.9,,42193,135.8,8.8,6.8
2016,6,7,13:00,UTC,,1010.4,67,,,12.4,,50000,132.2,6.6,4.8
2016,6,7,14:00,UTC,,1010,54,,,13.8,,47620,139.9,7.6,5.4
2016,6,7,15:00,UTC,,1009.1,58,,,13.5,,50000,142,5.4,4
2016,6,7,16:00,UTC,,1008.4,54,,,14.2,,50000,123,5.1,3.2
2016,6,7,17:00,UTC,,1007.3,55,,,14.1,,50000,107.5,5.1,3.7
2016,6,7,18:00,UTC,,1006.4,57,,,14.3,,50000,107.5,4.2,2.6
2016,6,7,19:00,UTC,,1005.5,63,,,13.9,,50000,108.5,3.2,2.2
2016,6,7,20:00,UTC,,1005.2,91,,,10.6,,46087,108,6.2,3.4
2016,6,7,21:00,UTC,,1004.6,96,,,10.3,,38954,111.6,4.4,2.7
2016,6,7,22:00,UTC,,1003,97,,,9.9,,49695,92.1,5,3.5
2016,6,7,23:00,UTC,,1001.7,96,,,10.4,,50000,95.7,5.7,3.8
2016,6,8,00:00,UTC,,1000.6,94,,,10.4,,38557,101.9,6.5,4.2
2016,6,8,01:00,UTC,,999.8,96,,,9.8,,23879,135.8,8.1,5.3
2016,6,8,02:00,UTC,,999.1,89,,,10,,20361,138.4,10.5,6.8
2016,6,8,03:00,UTC,,999.4,85,,,8,,13753,148.2,10,7
2016,6,8,04:00,UTC,,999.3,75,,,6.9,,50000,149.7,12.1,8.1
2016,6,8,05:00,UTC,,999,68,,,6.7,,50000,150.2,15.6,10.6
2016,6,8,06:00,UTC,,998.9,64,,,7.7,,50000,155.4,14.4,9.8
2016,6,8,07:00,UTC,,998.5,61,,,7.3,,45881,146.1,12.7,9.5
2016,6,8,08:00,UTC,,998.2,71,,,7,,41832,143,16.9,11.4
2016,6,8,09:00,UTC,,997.8,77,,,6,,50000,133.2,9.7,6.2
2016,6,8,10:00,UTC,,996.6,62,,,8.4,,50000,128.1,15.7,11
2016,6,8,11:00,UTC,,995.8,78,,,6.8,,24633,141,16.8,11.4
2016,6,8,12:00,UTC,,995.1,92,,,5.7,,9139,132.7,13.9,8.6
2016,6,8,13:00,UTC,,993.4,92,,,5.7,,28332,139.4,14.7,11
2016,6,8,14:00,UTC,,992.3,91,,,5.9,,9384,144,11.4,7.7
2016,6,8,15:00,UTC,,991.5,94,,,5.1,,12314,144.6,9.9,7
2016,6,8,16:00,UTC,,991,95,,,4.1,,20859,160.5,6.2,4.3
2016,6,8,17:00,UTC,,990.5,97,,,5.4,,24358,159,3.8,2.3
2016,6,8,18:00,UTC,,991,93,,,5.3,,10202,175.4,6,3.3
2016,6,8,19:00,UTC,,991.2,92,,,5.7,,50000,168.2,4.7,3.1
2016,6,8,20:00,UTC,,992,88,,,6,,50000,179,8,4.3
2016,6,8,21:00,UTC,,993.1,89,,,6.1,,50000,180.6,9.2,4.4
2016,6,8,22:00,UTC,,993.6,88,,,6.3,,50000,177.5,10.8,5.6
2016,6,8,23:00,UTC,,994.6,92,,,5.5,,50000,175.4,10.2,6.1
2016,6,9,00:00,UTC,,995.1,91,,,4.8,,50000,175.9,11.4,6.5
2016,6,9,01:00,UTC,,995.7,88,,,4.2,,50000,177,12.2,6.5
2016,6,9,02:00,UTC,,996,87,,,4.1,,50000,183.1,12.2,6.4
2016,6,9,03:00,UTC,,996.3,86,,,3.9,,50000,176.5,9.4,5.2
2016,6,9,04:00,UTC,,996.7,85,,,3.8,,50000,181.1,10.2,5
2016,6,9,05:00,UTC,,996.9,83,,,3.9,,50000,178.5,9.4,5.4
2016,6,9,06:00,UTC,,997,81,,,4.2,,50000,174.4,8.7,5.8
2016,6,9,07:00,UTC,,997.3,78,,,4.8,,50000,174.4,8.3,5.2
2016,6,9,08:00,UTC,,997.4,82,,,4.9,,50000,170.3,11.3,6.5
2016,6,9,09:00,UTC,,997.6,76,,,5.6,,50000,169.3,9.9,5.8
2016,6,9,10:00,UTC,,997.8,79,,,5.5,,44873,166.7,9.8,6.9
2016,6,9,11:00,UTC,,998,77,,,6.1,,50000,165.1,10.1,6.7
2016,6,9,12:00,UTC,,998.1,73,,,6.7,,50000,156.9,8,5.7
2016,6,9,13:00,UTC,,998.1,75,,,6.8,,50000,165.1,7.7,4.7
2016,6,9,14:00,UTC,,998.4,72,,,7.1,,50000,154.3,6.6,4.6
2016,6,9,15:00,UTC,,998.5,75,,,7.1,,50000,155.4,7.1,4.9
2016,6,9,16:00,UTC,,998.5,73,,,7.8,,49017,163.6,6,4.3
2016,6,9,17:00,UTC,,998.5,79,,,7.3,,50000,165.1,7.8,5.1
2016,6,9,18:00,UTC,,998.7,83,,,7,,50000,161,7,4.5
2016,6,9,19:00,UTC,,998.7,89,,,6.5,,50000,156.9,5.7,4.1
2016,6,9,20:00,UTC,,998.8,90,,,6.8,,50000,154.3,5.1,3.7
2016,6,9,21:00,UTC,,998.9,90,,,6.6,,50000,152.8,4.7,3.5
2016,6,9,22:00,UTC,,998.8,97,,,6.6,,28030,142.5,4.1,3.2
2016,6,9,23:00,UTC,,999,98,,,6.7,,21706,98.8,4,3
2016,6,10,00:00,UTC,,999.4,99,,,6.4,,50000,113.7,2.3,1.2
2016,6,10,01:00,UTC,,999.8,97,,,7.4,,50000,29.8,2.5,1.3
2016,6,10,02:00,UTC,,1000.4,93,,,8.4,,50000,15.9,5.4,2.7
2016,6,10,03:00,UTC,,1001.1,90,,,8.7,,50000,18,4.1,2.1
2016,6,10,04:00,UTC,,1001.7,87,,,9,,50000,25.7,5.4,2.6
2016,6,10,05:00,UTC,,1002.5,82,,,9.6,,50000,24.2,6.5,3
2016,6,10,06:00,UTC,,1003.3,82,,,9.5,,50000,17.5,6.1,3.3
2016,6,10,07:00,UTC,,1004,83,,,9.2,,50000,14.4,7.4,4.5
2016,6,10,08:00,UTC,,1005,81,,,9.1,,50000,21.6,6.5,3.7
2016,6,10,09:00,UTC,,1005.8,74,,,9.4,,50000,26.2,7.9,4.2
2016,6,10,10:00,UTC,,1006.4,69,,,10,,50000,29.3,7.1,4.1
2016,6,10,11:00,UTC,,1007,65,,,10.2,,50000,22.1,8.2,4.3
2016,6,10,12:00,UTC,,1007.5,63,,,9.8,,50000,28.3,8.1,4.4
2016,6,10,13:00,UTC,,1007.9,61,,,10.1,,50000,30.9,6.6,3.9
2016,6,10,14:00,UTC,,1008.3,62,,,10.2,,50000,23.1,6.5,3.6
2016,6,10,15:00,UTC,,1008.7,60,,,10.6,,50000,26.2,6.1,2.9
2016,6,10,16:00,UTC,,1009.1,60,,,10.5,,50000,35.5,6.5,3.4
2016,6,10,17:00,UTC,,1009.3,56,,,10.8,,47783,35,6.7,4.4
2016,6,10,18:00,UTC,,1009.9,61,,,10.4,,50000,34,5.9,3
2016,6,10,19:00,UTC,,1010.3,59,,,9.7,,50000,39.1,6.6,3.8
2016,6,10,20:00,UTC,,1010.9,64,,,9,,50000,42.7,3.8,2.3
2016,6,10,21:00,UTC,,1011.4,68,,,8.4,,50000,37,2.9,2
2016,6,10,22:00,UTC,,1011.6,73,,,7.8,,50000,33.4,2.1,1.2
2016,6,10,23:00,UTC,,1012,81,,,6.9,,50000,26.8,2.3,1.3
2016,6,11,00:00,UTC,,1012.4,81,,,6.4,,50000,33.4,3.2,1.8
2016,6,11,01:00,UTC,,1012.7,83,,,5.7,,50000,36.5,3.7,2.4
2016,6,11,02:00,UTC,,1012.9,86,,,5.9,,50000,26.8,3.6,1.8
2016,6,11,03:00,UTC,,1013,83,,,6,,47522,33.4,3.4,1.9
2016,6,11,04:00,UTC,,1013.3,83,,,6.2,,50000,39.1,3.3,2.3
2016,6,11,05:00,UTC,,1013.5,78,,,7,,50000,40.1,4.3,2.8
2016,6,11,06:00,UTC,,1013.7,74,,,7.9,,50000,34,3.7,2.2
2016,6,11,07:00,UTC,,1013.9,70,,,8.9,,50000,38.1,3.9,2.2
2016,6,11,08:00,UTC,,1014,65,,,9.7,,50000,12.9,4.6,2.6
2016,6,11,09:00,UTC,,1013.9,58,,,10.9,,50000,24.7,4.1,2.2
2016,6,11,10:00,UTC,,1013.8,50,,,12.1,,48919,9.3,4.3,2.1
2016,6,11,11:00,UTC,,1013.6,65,,,11.5,,48497,172.3,6.3,3.5
2016,6,11,12:00,UTC,,1013.5,67,,,11,,37983,172.3,6.4,3.8
2016,6,11,13:00,UTC,,1013.3,65,,,11.1,,49939,171.3,5.7,3.7
2016,6,11,14:00,UTC,,1013.3,66,,,11.2,,50000,175.9,7.2,4.5
2016,6,11,15:00,UTC,,1013.2,69,,,11.2,,50000,180.1,3.5,2
2016,6,11,16:00,UTC,,1012.9,64,,,10.9,,50000,174.9,6.1,3.7
2016,6,11,17:00,UTC,,1012.8,63,,,12.2,,47405,179.5,3.9,2.3
2016,6,11,18:00,UTC,,1012.8,70,,,11.6,,44332,173.4,4,2.6
2016,6,11,19:00,UTC,,1012.8,69,,,11.5,,50000,184.2,3.6,1.9
2016,6,11,20:00,UTC,,1012.7,75,,,10.5,,50000,3.1,1.8,0.9
2016,6,11,21:00,UTC,,1012.5,81,,,9.7,,50000,3.6,1.9,0.9
2016,6,11,22:00,UTC,,1012.5,82,,,9.5,,50000,9.3,3,1.7
2016,6,11,23:00,UTC,,1012.5,83,,,8.7,,50000,4.1,2.7,1.5
2016,6,12,00:00,UTC,,1012.4,83,,,9.2,,50000,6.2,2.8,1.4
2016,6,12,01:00,UTC,,1012.3,82,,,8.9,,50000,8.2,2.7,1.7
2016,6,12,02:00,UTC,,1012.1,80,,,8.7,,50000,25.2,2.9,1.6
2016,6,12,03:00,UTC,,1012.2,81,,,8.2,,50000,38.1,2.9,1.7
2016,6,12,04:00,UTC,,1012,74,,,8.6,,50000,55,4,2.8
2016,6,12,05:00,UTC,,1011.8,66,,,9.3,,50000,58.6,3.6,2.6
2016,6,12,06:00,UTC,,1011.5,56,,,10.3,,50000,49.4,4.5,2.4
2016,6,12,07:00,UTC,,1011.1,50,,,11.8,,30629,8.2,3.6,2.2
2016,6,12,08:00,UTC,,1010.7,54,,,12.7,,50000,178.5,3.2,2
2016,6,12,09:00,UTC,,1010.3,45,,,14,,21850,19.5,5.1,1.9
2016,6,12,10:00,UTC,,1009.7,50,,,13.6,,43455,171.8,6,3.7
2016,6,12,11:00,UTC,,1009.4,49,,,13.9,,44708,165.7,6.3,4.6
2016,6,12,12:00,UTC,,1008.9,43,,,14.5,,36295,169.3,7.8,5.1
2016,6,12,13:00,UTC,,1008.4,52,,,14.5,,50000,171.8,6.8,4.4
2016,6,12,14:00,UTC,,1008.1,52,,,14.7,,50000,166.7,8.9,5.6
2016,6,12,15:00,UTC,,1007.9,54,,,14,,50000,168.7,7,4.3
2016,6,12,16:00,UTC,,1007.7,57,,,13.5,,44635,168.7,7.2,4.5
2016,6,12,17:00,UTC,,1007.5,57,,,12.8,,48929,172.9,6,3.5
2016,6,12,18:00,UTC,,1007.4,59,,,13.1,,50000,173.9,5.8,2.7
2016,6,12,19:00,UTC,,1007.3,55,,,12.2,,50000,170.3,5.2,3.6
2016,6,12,20:00,UTC,,1006.9,68,,,10.3,,50000,167.2,3.3,2.4
2016,6,12,21:00,UTC,,1006.3,77,,,8.8,,50000,171.8,2.5,1.8
2016,6,12,22:00,UTC,,1005.9,79,,,8.7,,50000,171.8,3.6,2.6
2016,6,12,23:00,UTC,,1005.8,79,,,8.5,,50000,173.4,3.7,2.3
2016,6,13,00:00,UTC,,1005.6,80,,,8.5,,50000,174.9,2.6,1.9
2016,6,13,01:00,UTC,,1005.3,76,,,8.3,,50000,167.2,3.7,2.6
2016,6,13,02:00,UTC,,1005,78,,,9.5,,50000,173.4,2.9,1.9
2016,6,13,03:00,UTC,,1004.6,64,,,11.1,,43945,174.9,4,2.6
2016,6,13,04:00,UTC,,1004.1,61,,,12,,47526,172.9,5.2,3.2
2016,6,13,05:00,UTC,,1003.7,52,,,13.1,,50000,170.8,5.9,3.7
2016,6,13,06:00,UTC,,1003.5,46,,,13.7,,50000,171.3,6.6,4.2
2016,6,13,07:00,UTC,,1003,41,,,14.8,,50000,168.7,8.3,4.8
2016,6,13,08:00,UTC,,1002.6,38,,,15.3,,44501,171.3,8.8,5.6
2016,6,13,09:00,UTC,,1002.4,33,,,15.8,,27156,165.7,10.4,7.1
2016,6,13,10:00,UTC,,1002.2,32,,,17.5,,50000,162,9.3,5.7
2016,6,13,11:00,UTC,,1001.9,32,,,16.8,,50000,161.5,10.3,7.9
2016,6,13,12:00,UTC,,1001.6,34,,,17.2,,48526,155.9,8.9,6.2
2016,6,13,13:00,UTC,,1001.6,53,,,15.8,,50000,135.8,8.2,6.4
2016,6,13,14:00,UTC,,1001.6,51,,,14.6,,46449,141,8.4,6.4
2016,6,13,15:00,UTC,,1001.7,54,,,14.9,,50000,137.4,8,5.7
2016,6,13,16:00,UTC,,1001.6,48,,,14.3,,50000,137.9,7,5
2016,6,13,17:00,UTC,,1001.4,50,,,14.2,,50000,138.4,6.2,4.8
2016,6,13,18:00,UTC,,1001.4,52,,,13.7,,50000,138.9,4.8,3.7
2016,6,13,19:00,UTC,,1001.3,61,,,11.9,,50000,137.9,3.1,2.3
2016,6,13,20:00,UTC,,1001.2,73,,,9.7,,50000,128.6,2.3,1.7
2016,6,13,21:00,UTC,,1001.4,84,,,8.5,,50000,180.1,2.5,1.7
2016,6,13,22:00,UTC,,1001.4,79,,,7.9,,50000,152.3,1.3,0.6
2016,6,13,23:00,UTC,,1001.1,82,,,6.3,,50000,82.8,1.5,1.1
2016,6,14,00:00,UTC,,1001,87,,,6.8,,50000,86.4,2.4,1.8
2016,6,14,01:00,UTC,,1000.8,89,,,6.1,,50000,65.8,3.6,2.8
2016,6,14,02:00,UTC,,1000.6,86,,,5.9,,50000,69.4,2.8,2.5
2016,6,14,03:00,UTC,,1000.6,79,,,7.2,,50000,52.5,1.4,1
2016,6,14,04:00,UTC,,1000.4,63,,,10.7,,50000,62.8,4,3
2016,6,14,05:00,UTC,,1000.2,56,,,12.4,,42700,94.7,4.3,2.4
2016,6,14,06:00,UTC,,1000.2,62,,,12,,50000,127.1,4.1,2.2
2016,6,14,07:00,UTC,,1000.6,73,,,11.8,,45877,145.1,6.1,4.2
2016,6,14,08:00,UTC,,1000.9,71,,,13.1,,50000,150.2,4.9,2.9
2016,6,14,09:00,UTC,,1001.3,74,,,13.2,,32178,134.8,7.7,5.6
2016,6,14,10:00,UTC,,1001.7,65,,,14.2,,40904,142.5,6.8,4.9
2016,6,14,11:00,UTC,,1002.2,65,,,14.2,,47005,156.9,7.8,5.2
2016,6,14,12:00,UTC,,1002.6,63,,,14.3,,29457,142,7.9,5.8
2016,6,14,13:00,UTC,,1003.2,58,,,13.4,,47347,135.3,10.2,7.6
2016,6,14,14:00,UTC,,1003.7,49,,,13.2,,49336,134.3,9,6.9
2016,6,14,15:00,UTC,,1004.1,52,,,13.1,,49714,141,9.4,6.8
2016,6,14,16:00,UTC,,1004.2,56,,,12.7,,50000,139.4,10.6,8.1
2016,6,14,17:00,UTC,,1004.2,65,,,13,,50000,139.4,6.7,5
2016,6,14,18:00,UTC,,1004.5,53,,,13.3,,50000,129.1,6.1,4.2
2016,6,14,19:00,UTC,,1004.8,54,,,12.8,,50000,127.1,5.2,3.3
2016,6,14,20:00,UTC,,1005.2,60,,,11.6,,50000,127.6,3.5,2.5
2016,6,14,21:00,UTC,,1005.5,70,,,10.1,,50000,119.9,3.8,2.4
2016,6,14,22:00,UTC,,1005.9,77,,,9.6,,50000,114.2,3.9,2.7
2016,6,14,23:00,UTC,,1006.2,81,,,8.8,,50000,123.5,4.3,2.9
2016,6,15,00:00,UTC,,1006.7,86,,,7.9,,50000,119.4,4.2,2.9
2016,6,15,01:00,UTC,,1007.1,88,,,7.7,,50000,114.2,4.3,3.1
2016,6,15,02:00,UTC,,1007.5,86,,,8.6,,50000,123,2.6,1.9
2016,6,15,03:00,UTC,,1008,79,,,10.2,,50000,112.1,3.2,2.1
2016,6,15,04:00,UTC,,1008.5,73,,,11.2,,49824,103.4,2.6,1.9
2016,6,15,05:00,UTC,,1008.9,64,,,12.4,,50000,112.1,3.1,1.6
2016,6,15,06:00,UTC,,1009.2,53,,,14.1,,48358,161.5,2.1,1.1
2016,6,15,07:00,UTC,,1009.6,43,,,14.8,,50000,75.6,3.1,1.5
2016,6,15,08:00,UTC,,1009.9,46,,,15.5,,46919,85.4,2.7,1.3
2016,6,15,09:00,UTC,,1010.3,42,,,16.1,,50000,132.2,3.8,2.4
2016,6,15,10:00,UTC,,1010.1,47,,,16.7,,47407,130.7,4.3,2.5
2016,6,15,11:00,UTC,,1010,46,,,17.4,,49482,17.5,2.2,1
2016,6,15,12:00,UTC,,1010,48,,,17.4,,41985,171.8,3.3,1.9
2016,6,15,13:00,UTC,,1009.9,50,,,17.5,,50000,11.8,3.9,2.3
2016,6,15,14:00,UTC,,1010.1,42,,,19,,47927,171.3,2.5,1.6
2016,6,15,15:00,UTC,,1010,45,,,18.5,,50000,168.7,1.6,0.7
2016,6,15,16:00,UTC,,1009.9,40,,,19,,45972,146.6,3.6,2.2
2016,6,15,17:00,UTC,,1009.9,41,,,19.3,,42937,8.2,1.8,1
2016,6,15,18:00,UTC,,1010.1,46,,,18.6,,50000,20.1,2.2,1.4
2016,6,15,19:00,UTC,,1010.3,46,,,18.1,,49107,33.4,1.4,0.9
2016,6,15,20:00,UTC,,1010.6,41,,,17,,38871,38.1,2.8,1.6
2016,6,15,21:00,UTC,,1010.6,40,,,16.3,,50000,42.2,4.2,3
2016,6,15,22:00,UTC,,1010.7,52,,,14,,50000,50.4,2.9,2.2
2016,6,15,23:00,UTC,,1011,60,,,13.4,,50000,64.3,3.8,3.4
2016,6,16,00:00,UTC,,1011.1,64,,,12.7,,50000,64.3,4.6,3.9
2016,6,16,01:00,UTC,,1011.1,67,,,11.8,,50000,66.4,4.6,3.6
2016,6,16,02:00,UTC,,1011.2,64,,,12.6,,49464,66.9,5.1,3.3
2016,6,16,03:00,UTC,,1011.3,57,,,14.1,,39804,68.4,5.4,4.4
2016,6,16,04:00,UTC,,1011.4,54,,,15.1,,50000,68.9,5.6,3.7
2016,6,16,05:00,UTC,,1011.3,47,,,17.3,,50000,66.4,6.5,5.1
2016,6,16,06:00,UTC,,1011.1,40,,,19.3,,50000,63.3,8.1,5.6
2016,6,16,07:00,UTC,,1010.8,39,,,20.3,,42803,58.1,6.8,4.9
2016,6,16,08:00,UTC,,1010.5,36,,,20.8,,41313,56.1,8.8,6.5
2016,6,16,09:00,UTC,,1010.6,40,,,20.9,,47896,64.3,8.9,6.7
2016,6,16,10:00,UTC,,1011.1,44,,,20.3,,50000,73.1,11.1,7
2016,6,16,11:00,UTC,,1012,77,,,15.8,,34799,72,7.6,4.7
2016,6,16,12:00,UTC,,1011,88,,,14.9,,50000,32.4,4.1,2.4
2016,6,16,13:00,UTC,,1010.4,84,,,14.8,,32109,35.5,5.1,3.1
2016,6,16,14:00,UTC,,1009.7,81,,,15,,50000,29.8,6.6,3.8
2016,6,16,15:00,UTC,,1008.9,82,,,14.5,,50000,28.3,7.4,3.6
2016,6,16,16:00,UTC,,1008.2,83,,,14.3,,46665,32.4,6.8,3.9
2016,6,16,17:00,UTC,,1007.6,84,,,14,,40164,25.7,6.8,4.2
2016,6,16,18:00,UTC,,1006.9,84,,,14,,50000,26.8,5.6,3.3
2016,6,16,19:00,UTC,,1006.9,78,,,14.6,,50000,31.9,5.6,3.1
2016,6,16,20:00,UTC,,1006.6,84,,,14,,50000,28.3,7,3.3
2016,6,16,21:00,UTC,,1006.6,85,,,14.2,,21889,36.5,4.4,2.9
2016,6,16,22:00,UTC,,1005.8,93,,,14,,46144,25.7,5.9,3.5
2016,6,16,23:00,UTC,,1004.9,92,,,14.5,,50000,26.8,6.5,4
2016,6,17,00:00,UTC,,1004.8,89,,,14.1,,50000,35.5,6.3,3.7
2016,6,17,01:00,UTC,,1003.9,94,,,13.5,,22182,32.9,5.4,3.3
2016,6,17,02:00,UTC,,1003.5,92,,,13.4,,31520,35.5,7,4.3
2016,6,17,03:00,UTC,,1003.1,91,,,13.6,,22475,39.1,7.7,4.5
2016,6,17,04:00,UTC,,1002.5,93,,,13.6,,50000,42.7,6.6,4.2
2016,6,17,05:00,UTC,,1001.7,92,,,13.9,,19604,42.7,7.2,4.6
2016,6,17,06:00,UTC,,1001,95,,,13.5,,13062,41.2,6.4,4.2
2016,6,17,07:00,UTC,,1000.5,93,,,14.8,,48945,41.7,5.4,3.3
2016,6,17,08:00,UTC,,1000.1,89,,,16.2,,50000,49.4,6.4,4.5
2016,6,17,09:00,UTC,,999.7,94,,,15.9,,5551,49.4,6.6,4.6
2016,6,17,10:00,UTC,,999.6,96,,,16.1,,9117,56.6,5.4,4
2016,6,17,11:00,UTC,,999.8,97,,,16.3,,15675,72,5.2,4.1
2016,6,17,12:00,UTC,,1000.6,94,,,16.2,,46603,98.3,5.1,3.8
2016,6,17,13:00,UTC,,1000.9,89,,,16.8,,50000,94.1,5.8,4
2016,6,17,14:00,UTC,,1000.9,76,,,18.3,,50000,98.8,6.6,4.7
2016,6,17,15:00,UTC,,1001.1,68,,,18.8,,50000,91.6,5.8,3.9
2016,6,17,16:00,UTC,,1000.8,67,,,18.9,,49733,103.9,3.5,2.3
2016,6,17,17:00,UTC,,1000.7,73,,,17.9,,50000,139.9,5.4,4.2
2016,6,17,18:00,UTC,,1001.4,93,,,14.6,,48643,143.5,3.6,2.6
2016,6,17,19:00,UTC,,1001.3,93,,,14.3,,50000,4.6,2.2,1.5
2016,6,17,20:00,UTC,,1001.5,99,,,13.4,,38667,167.2,2,1.4
2016,6,17,21:00,UTC,,1001.5,97,,,14.2,,47912,68.9,1.9,1.3
2016,6,17,22:00,UTC,,1001.2,97,,,14.1,,47240,49.9,1,0.5
2016,6,17,23:00,UTC,,1001.2,97,,,14,,50000,73.6,5.1,3.8
2016,6,18,00:00,UTC,,1001.3,98,,,13.7,,46189,73.1,5,3.8
2016,6,18,01:00,UTC,,1000.9,99,,,13.1,,36345,63.3,4.7,3.3
2016,6,18,02:00,UTC,,1000.6,97,,,13.3,,37979,67.4,4.7,3.4
2016,6,18,03:00,UTC,,1000.1,94,,,14.2,,48475,59.2,5,3.8
2016,6,18,04:00,UTC,,999.4,88,,,15.7,,50000,58.6,6.9,4.6
2016,6,18,05:00,UTC,,998.8,82,,,16.5,,49700,44.2,6.5,4.1
2016,6,18,06:00,UTC,,998,80,,,16.9,,50000,41.2,7.6,4.7
2016,6,18,07:00,UTC,,997.2,77,,,18,,50000,43.2,8.2,4.9
2016,6,18,08:00,UTC,,996.1,83,,,17.6,,39434,36.5,8.3,4.3
2016,6,18,09:00,UTC,,995.2,93,,,16.7,,16489,29.3,5,2.8
2016,6,18,10:00,UTC,,994.5,96,,,16.7,,33341,35.5,5.9,3.2
2016,6,18,11:00,UTC,,994,94,,,17.1,,45608,34.5,6.1,3.4
2016,6,18,12:00,UTC,,993.4,93,,,17.5,,25178,44.2,7.9,4.7
2016,6,18,13:00,UTC,,992.9,92,,,18.1,,41061,42.2,5.1,3.1
2016,6,18,14:00,UTC,,992.1,83,,,20.5,,43458,35.5,5.6,3.5
2016,6,18,15:00,UTC,,991.6,82,,,18,,50000,80.3,11.7,7
2016,6,18,16:00,UTC,,992.3,87,,,16.3,,50000,76.7,5.6,3.9
2016,6,18,17:00,UTC,,992.4,93,,,15.7,,50000,62.2,5.1,4
2016,6,18,18:00,UTC,,992.3,93,,,15.9,,50000,64.8,6.4,4.6
2016,6,18,19:00,UTC,,992.4,93,,,15.8,,50000,57.1,4.4,3.5
2016,6,18,20:00,UTC,,992.5,95,,,14.9,,49769,59.2,4.5,3.7
2016,6,18,21:00,UTC,,992.5,95,,,14.8,,50000,50.4,3.1,2.2
2016,6,18,22:00,UTC,,992.3,96,,,14.5,,50000,52,4,3
2016,6,18,23:00,UTC,,992.2,97,,,14.2,,50000,61.2,4.1,3.2
2016,6,19,00:00,UTC,,992.4,98,,,13.8,,50000,61.2,3.9,3.2
2016,6,19,01:00,UTC,,992.6,98,,,14,,50000,68.9,3,2.2
2016,6,19,02:00,UTC,,992.8,98,,,14.2,,50000,66.4,3.2,2.5
2016,6,19,03:00,UTC,,993,97,,,14.6,,50000,56.6,3.1,2.1
2016,6,19,04:00,UTC,,993.4,95,,,14.9,,48524,68.4,2.5,1.8
2016,6,19,05:00,UTC,,993.8,93,,,15.2,,50000,135.3,1.3,0.7
2016,6,19,06:00,UTC,,994.4,90,,,15.8,,50000,147.6,3.2,1.9
2016,6,19,07:00,UTC,,995.1,90,,,16.3,,50000,137.9,3,2.3
2016,6,19,08:00,UTC,,995.9,85,,,17,,48186,156.9,4.3,3
2016,6,19,09:00,UTC,,996.7,90,,,16.3,,41681,134.3,5.5,4.2
2016,6,19,10:00,UTC,,997.9,93,,,15.3,,9840,125.5,7.2,5.2
2016,6,19,11:00,UTC,,999.4,89,,,13.4,,50000,117.8,7.7,5.2
2016,6,19,12:00,UTC,,1000.7,92,,,11.8,,48190,126,8.6,6.4
2016,6,19,13:00,UTC,,1001.9,96,,,11.3,,7254,133.8,12.4,8.5
2016,6,19,14:00,UTC,,1003.5,98,,,10.6,,4538,128.6,10.4,7
2016,6,19,15:00,UTC,,1004.4,95,,,10.8,,50000,134.8,10.9,7.6
2016,6,19,16:00,UTC,,1005.4,90,,,11,,50000,130.7,9.8,7.1
2016,6,19,17:00,UTC,,1006.3,86,,,11.5,,48096,124.5,7.4,5.3
2016,6,19,18:00,UTC,,1006.8,82,,,12.1,,50000,124.5,6.3,4.6
2016,6,19,19:00,UTC,,1007.5,84,,,12,,50000,124,4.4,3
2016,6,19,20:00,UTC,,1008,88,,,11.8,,50000,108,4.7,3.4
2016,6,19,21:00,UTC,,1008.4,97,,,11,,6072,106,5.5,3.8
2016,6,19,22:00,UTC,,1008.7,98,,,10.7,,4000,115.7,6.1,3.4
2016,6,19,23:00,UTC,,1008.9,98,,,10.8,,50000,111.6,4.7,3.3
2016,6,20,00:00,UTC,,1009.2,94,,,11.1,,50000,109.1,4.5,2.9
2016,6,20,01:00,UTC,,1009.6,94,,,11.4,,50000,106.5,5.3,3.2
2016,6,20,02:00,UTC,,1010.1,91,,,11,,50000,102.4,7.3,4.6
2016,6,20,03:00,UTC,,1010.3,87,,,11.2,,44610,99.3,6.2,4.3
2016,6,20,04:00,UTC,,1010.6,84,,,11.6,,50000,101.9,6.9,4.8
2016,6,20,05:00,UTC,,1010.9,83,,,11.9,,47713,93.6,7.1,4.3
2016,6,20,06:00,UTC,,1010.9,78,,,12.8,,50000,92.1,8.2,5.6
2016,6,20,07:00,UTC,,1011,68,,,14.1,,48280,109.1,7.7,4.5
2016,6,20,08:00,UTC,,1011.2,54,,,15.1,,50000,109.1,8.7,6.2
2016,6,20,09:00,UTC,,1011.4,55,,,15.6,,50000,127.1,8.8,6.3
2016,6,20,10:00,UTC,,1011.7,51,,,16.1,,36459,128.1,9.4,6.7
2016,6,20,11:00,UTC,,1011.9,48,,,15.7,,42653,126,9.6,6.8
2016,6,20,12:00,UTC,,1012.1,44,,,16.3,,41645,124,12,8.2
2016,6,20,13:00,UTC,,1012.7,49,,,14.7,,47726,127.6,12.2,8.6
2016,6,20,14:00,UTC,,1012.9,41,,,15.3,,50000,123.5,11,7.5
2016,6,20,15:00,UTC,,1013.1,49,,,14.6,,37020,128.6,9.1,6.8
2016,6,20,16:00,UTC,,1013.3,48,,,14.7,,50000,126.6,8.8,6.2
2016,6,20,17:00,UTC,,1013.5,49,,,14,,50000,119.9,7.9,5.5
2016,6,20,18:00,UTC,,1013.5,51,,,13.9,,48762,124.5,7.9,4.7
2016,6,20,19:00,UTC,,1013.6,54,,,13.5,,50000,113.2,5.2,2.8
2016,6,20,20:00,UTC,,1013.7,56,,,12.6,,50000,110.1,4,2.6
2016,6,20,21:00,UTC,,1013.9,62,,,11.8,,50000,95.7,1.5,1
2016,6,20,22:00,UTC,,1013.9,75,,,9,,50000,66.9,1.4,0.8
2016,6,20,23:00,UTC,,1013.8,79,,,8.2,,50000,68.9,3,2.6
2016,6,21,00:00,UTC,,1014,82,,,7.7,,50000,66.4,2.2,1.8
2016,6,21,01:00,UTC,,1013.8,79,,,8.9,,50000,73.1,2.9,2.5
2016,6,21,02:00,UTC,,1013.7,78,,,9.4,,49188,72.5,3.6,2.9
2016,6,21,03:00,UTC,,1013.6,78,,,10.3,,50000,79.2,4.3,3.2
2016,6,21,04:00,UTC,,1013.2,74,,,11.8,,50000,74.6,3.9,3.2
2016,6,21,05:00,UTC,,1012.8,72,,,13.4,,50000,77.2,4.1,3.1
2016,6,21,06:00,UTC,,1012.8,70,,,14.6,,49666,78.7,3.6,3
2016,6,21,07:00,UTC,,1012.5,63,,,17,,50000,80.8,4.2,3
2016,6,21,08:00,UTC,,1012.1,59,,,18.2,,32507,75.1,5.5,3
2016,6,21,09:00,UTC,,1011.7,54,,,19.2,,50000,92.1,6,4.4
2016,6,21,10:00,UTC,,1011.7,52,,,19.9,,50000,99.8,5.5,3.6
2016,6,21,11:00,UTC,,1011.4,53,,,19.3,,50000,134.8,5.9,3.8
2016,6,21,12:00,UTC,,1011.4,60,,,19.2,,50000,142.5,7.5,5.8
2016,6,21,13:00,UTC,,1011.5,61,,,18.1,,47322,145.6,8.2,6.5
2016,6,21,14:00,UTC,,1011.5,58,,,18.9,,40076,153.8,6.6,5
2016,6,21,15:00,UTC,,1011.4,59,,,18.7,,42715,157.9,6.1,4.6
2016,6,21,16:00,UTC,,1011.2,69,,,17,,44632,183.1,3.9,2.5
2016,6,21,17:00,UTC,,1011.3,73,,,15.4,,48371,177.5,4.6,2.9
2016,6,21,18:00,UTC,,1011.1,79,,,14.1,,50000,170.3,3.7,2.5
2016,6,21,19:00,UTC,,1011.3,78,,,14,,45448,164.6,3.5,2.4
2016,6,21,20:00,UTC,,1011.2,82,,,13.7,,50000,183.1,1.8,1.2
2016,6,21,21:00,UTC,,1011.4,84,,,13.4,,50000,76.1,0.9,0.7
2016,6,21,22:00,UTC,,1011.2,88,,,12.6,,50000,73.6,2.7,2
2016,6,21,23:00,UTC,,1011.2,92,,,12.5,,50000,84.4,2.5,2
2016,6,22,00:00,UTC,,1011.2,86,,,13.3,,50000,99.3,3.5,2.5
2016,6,22,01:00,UTC,,1011.3,86,,,13.2,,50000,107,4.2,3
2016,6,22,02:00,UTC,,1011.6,87,,,13.1,,50000,118.8,4.6,3.1
2016,6,22,03:00,UTC,,1011.7,88,,,13.1,,43787,124.5,3.3,2.6
2016,6,22,04:00,UTC,,1011.9,86,,,13.8,,50000,126,5.1,3.7
2016,6,22,05:00,UTC,,1012,83,,,14.9,,48892,124.5,4.4,3
2016,6,22,06:00,UTC,,1012.4,87,,,14.1,,29114,138.4,6.3,4.8
2016,6,22,07:00,UTC,,1012.4,78,,,16.3,,50000,134.3,6,4.2
2016,6,22,08:00,UTC,,1013,87,,,14.3,,45119,136.8,6.3,5
2016,6,22,09:00,UTC,,1013.6,84,,,14.5,,35225,145.6,6.5,5.1
2016,6,22,10:00,UTC,,1013.8,68,,,15.6,,46292,141,7.2,5.6
2016,6,22,11:00,UTC,,1014.4,59,,,16,,50000,144.6,10.6,8
2016,6,22,12:00,UTC,,1015,57,,,16,,50000,141,10.5,7.8
2016,6,22,13:00,UTC,,1015.3,54,,,16.2,,50000,138.9,10.4,8.1
2016,6,22,14:00,UTC,,1015.6,52,,,16.9,,42924,137.4,8.7,6.7
2016,6,22,15:00,UTC,,1015.7,50,,,17.8,,40737,131.7,8,5.8
2016,6,22,16:00,UTC,,1015.9,52,,,17.3,,39052,128.1,7.5,5.2
2016,6,22,17:00,UTC,,1016.1,52,,,17.3,,35693,127.6,7.3,4.9
2016,6,22,18:00,UTC,,1016.4,56,,,16.9,,50000,130.7,6.4,4.7
2016,6,22,19:00,UTC,,1016.6,61,,,15.6,,39388,123,3.5,2.1
2016,6,22,20:00,UTC,,1016.8,68,,,14.1,,50000,127.6,3.6,2.7
2016,6,22,21:00,UTC,,1017,72,,,13.2,,50000,119.9,3,2.1
2016,6,22,22:00,UTC,,1017.3,78,,,12,,50000,124.5,4.3,3.1
2016,6,22,23:00,UTC,,1017.6,83,,,11.3,,50000,120.9,4.1,3.3
2016,6,23,00:00,UTC,,1017.8,88,,,10.9,,50000,104.4,1.1,0.6
2016,6,23,01:00,UTC,,1018.2,85,,,10.7,,50000,110.6,1.5,0.9
2016,6,23,02:00,UTC,,1018.6,86,,,11.7,,48021,162,2.5,1.1
2016,6,23,03:00,UTC,,1018.9,83,,,13,,50000,115.7,3.9,1.6
2016,6,23,04:00,UTC,,1019.2,83,,,14.2,,46156,129.1,2.7,1.6
2016,6,23,05:00,UTC,,1019,71,,,16.5,,42671,80.3,1.4,0.7
2016,6,23,06:00,UTC,,1019.3,63,,,18,,50000,67.9,2.7,1.2
2016,6,23,07:00,UTC,,1019.5,51,,,19.2,,50000,142,1.8,0.8
2016,6,23,08:00,UTC,,1019.8,39,,,19.8,,50000,117.3,3.6,2.3
2016,6,23,09:00,UTC,,1019.5,37,,,20.2,,48550,143.5,4.1,2.3
2016,6,23,10:00,UTC,,1019.3,36,,,20.8,,48926,151.2,4.3,2.1
2016,6,23,11:00,UTC,,1019.1,38,,,20.6,,41823,14.9,4.5,2.6
2016,6,23,12:00,UTC,,1019.2,41,,,20.5,,50000,10.3,4.6,2.5
2016,6,23,13:00,UTC,,1018.8,39,,,20.8,,44585,178.5,3.8,1.9
2016,6,23,14:00,UTC,,1018.4,41,,,20.3,,49526,185.2,3.4,2
2016,6,23,15:00,UTC,,1018.1,42,,,19.6,,50000,181.1,3.2,2
2016,6,23,16:00,UTC,,1017.8,50,,,19.2,,50000,174.9,3.6,2.3
2016,6,23,17:00,UTC,,1017.6,53,,,19.2,,50000,182.1,2.3,1.1
2016,6,23,18:00,UTC,,1017.1,58,,,18.6,,43029,181.6,1.9,1
2016,6,23,19:00,UTC,,1017.1,64,,,18,,50000,176.5,2.2,1.1
2016,6,23,20:00,UTC,,1017.5,64,,,17.8,,50000,93.6,0.8,0.4
2016,6,23,21:00,UTC,,1017.9,70,,,16.7,,50000,133.8,4.8,3.7
2016,6,23,22:00,UTC,,1017.9,76,,,15.1,,50000,145.6,4.7,3.6
2016,6,23,23:00,UTC,,1017.8,81,,,14.5,,50000,134.3,3.5,2.9
2016,6,24,00:00,UTC,,1017.5,83,,,13.6,,50000,172.9,1.8,1.1
2016,6,24,01:00,UTC,,1017.6,94,,,13,,50000,142.5,1.9,1.1
2016,6,24,02:00,UTC,,1017.8,91,,,13.5,,50000,114.7,1.9,1.4
2016,6,24,03:00,UTC,,1017.9,95,,,13.4,,50000,133.2,4.2,1.8
2016,6,24,04:00,UTC,,1017.6,91,,,14.4,,35779,137.9,2.4,1.5
2016,6,24,05:00,UTC,,1017.4,81,,,15.7,,41137,141,3.1,2.3
2016,6,24,06:00,UTC,,1017.4,74,,,16.9,,38303,136.8,4.6,2.9
2016,6,24,07:00,UTC,,1017.4,76,,,16.7,,38103,143,4.3,3.1
2016,6,24,08:00,UTC,,1017.3,67,,,18,,43844,162.6,3.7,2.2
2016,6,24,09:00,UTC,,1017.5,69,,,18.5,,50000,145.1,7,5.4
2016,6,24,10:00,UTC,,1017.1,67,,,18.5,,41780,152.8,5.3,3.9
2016,6,24,11:00,UTC,,1016.3,62,,,19.4,,42463,147.1,7.6,5.7
2016,6,24,12:00,UTC,,1015.7,60,,,19,,50000,145.1,7.5,5.6
2016,6,24,13:00,UTC,,1015.2,60,,,19.4,,41489,145.1,8.6,6.4
2016,6,24,14:00,UTC,,1015.1,61,,,19.2,,50000,146.6,7.4,6.2
2016,6,24,15:00,UTC,,1014.9,61,,,19,,32767,142,7.4,5.7
2016,6,24,16:00,UTC,,1014.6,63,,,18.7,,40266,142.5,8.1,5.6
2016,6,24,17:00,UTC,,1014.1,62,,,18.9,,50000,140.4,4.4,3.5
2016,6,24,18:00,UTC,,1014.1,68,,,17.4,,50000,163.1,1.6,1.3
2016,6,24,19:00,UTC,,1014,72,,,16.7,,50000,151.8,1.1,0.7
2016,6,24,20:00,UTC,,1013.8,69,,,16.9,,50000,87.5,1.7,1.2
2016,6,24,21:00,UTC,,1013.6,71,,,15.9,,50000,90.5,2.1,1.6
2016,6,24,22:00,UTC,,1013.5,83,,,14.8,,50000,88.5,2.7,1.8
2016,6,24,23:00,UTC,,1013.1,88,,,14,,50000,80.8,2.2,1.7
2016,6,25,00:00,UTC,,1012.8,80,,,14.8,,50000,89,3.6,2.5
2016,6,25,01:00,UTC,,1012.7,74,,,15.5,,50000,104.9,3.2,2.4
2016,6,25,02:00,UTC,,1012.6,83,,,13.7,,50000,76.1,2,1.3
2016,6,25,03:00,UTC,,1012.2,82,,,14.2,,50000,77.2,4.4,2.2
2016,6,25,04:00,UTC,,1012.3,78,,,16,,50000,90.5,2.3,1.5
2016,6,25,05:00,UTC,,1012.1,70,,,18,,37833,125.5,3.8,1.9
2016,6,25,06:00,UTC,,1011.8,70,,,18.8,,49283,142,4.2,3
2016,6,25,07:00,UTC,,1011.4,65,,,19.4,,50000,124,2.6,1.5
2016,6,25,08:00,UTC,,1011.4,68,,,19,,46389,178,2.8,1.4
2016,6,25,09:00,UTC,,1012.4,95,,,14.6,,13089,146.1,5.7,4.3
2016,6,25,10:00,UTC,,1012.7,97,,,14.7,,11023,156.4,2.6,2
2016,6,25,11:00,UTC,,1012.3,96,,,14.8,,11995,177,3,1.8
2016,6,25,12:00,UTC,,1011.8,93,,,15.2,,28464,20.1,3.3,1.9
2016,6,25,13:00,UTC,,1011.9,91,,,16,,44115,55.6,2.9,1.9
2016,6,25,14:00,UTC,,1011.8,89,,,16.4,,45645,93.6,3.3,2.3
2016,6,25,15:00,UTC,,1011.9,86,,,16.8,,44647,118.3,3.8,2.8
2016,6,25,16:00,UTC,,1012.1,81,,,17.4,,43872,150.2,4.8,3.7
2016,6,25,17:00,UTC,,1012.1,84,,,16.8,,50000,153.3,4.3,3.1
2016,6,25,18:00,UTC,,1012.2,95,,,14.3,,48007,134.8,5.2,3.7
2016,6,25,19:00,UTC,,1012.6,98,,,13.8,,7462,132.7,3.3,2.3
2016,6,25,20:00,UTC,,1013.2,100,,,13.6,,1964,145.1,3.8,2.9
2016,6,25,21:00,UTC,,1013.7,100,,,13.4,,4955,147.1,4.3,3.3
2016,6,25,22:00,UTC,,1014.1,100,,,13.1,,1523,148.2,3.3,2.5
2016,6,25,23:00,UTC,,1014.3,100,,,13,,1076,137.9,2.8,2.2
2016,6,26,00:00,UTC,,1014.8,100,,,12.7,,5887,141,5,3.5
2016,6,26,01:00,UTC,,1015.1,100,,,12.5,,4262,144,3.3,2.5
2016,6,26,02:00,UTC,,1015.3,100,,,12.2,,11593,166.2,2.4,1.4
2016,6,26,03:00,UTC,,1015.6,99,,,12.7,,38325,97.2,2.2,1.2
2016,6,26,04:00,UTC,,1015.7,96,,,13.4,,48462,89.5,3.5,2
2016,6,26,05:00,UTC,,1015.7,87,,,14.7,,48156,74.6,3.7,2.2
2016,6,26,06:00,UTC,,1016,90,,,14.4,,44187,119.4,3.7,2.6
2016,6,26,07:00,UTC,,1015.8,82,,,15.3,,50000,90.5,3.9,2.5
2016,6,26,08:00,UTC,,1015.8,86,,,16.1,,44611,46.3,3.5,2.4
2016,6,26,09:00,UTC,,1015.8,79,,,17.7,,50000,68.4,2.5,1.5
2016,6,26,10:00,UTC,,1015.6,69,,,19.3,,46079,89,3.6,2.4
2016,6,26,11:00,UTC,,1015.3,57,,,20.4,,42042,80.8,4.6,2.4
2016,6,26,12:00,UTC,,1014.9,46,,,20.9,,50000,48.4,3.7,2.2
2016,6,26,13:00,UTC,,1014.7,49,,,21.3,,50000,96.7,4.1,2.2
2016,6,26,14:00,UTC,,1014.3,46,,,22.2,,42538,83.9,4.7,2.5
2016,6,26,15:00,UTC,,1013.9,46,,,23,,50000,137.9,2.9,1.4
2016,6,26,16:00,UTC,,1013.5,48,,,22,,49955,43.7,2.9,2.4
2016,6,26,17:00,UTC,,1013.4,47,,,21.7,,49809,46.3,5.2,3.4
2016,6,26,18:00,UTC,,1013.4,52,,,21,,50000,40.6,2.9,1.8
2016,6,26,19:00,UTC,,1013.3,50,,,20.3,,50000,45.3,3.1,2.3
2016,6,26,20:00,UTC,,1013.6,55,,,19.2,,47721,48.9,3.3,2.4
2016,6,26,21:00,UTC,,1013.9,61,,,17.6,,50000,52,4.5,3.3
2016,6,26,22:00,UTC,,1014,61,,,16.8,,50000,54,6.3,4.8
2016,6,26,23:00,UTC,,1014.2,61,,,16.2,,50000,59.2,6.4,4.9
2016,6,27,00:00,UTC,,1013.9,64,,,15.2,,50000,64.3,5.8,4.6
2016,6,27,01:00,UTC,,1013.8,64,,,15.5,,50000,66.4,5.6,4.5
2016,6,27,02:00,UTC,,1013.7,67,,,15,,50000,70,5.6,4
2016,6,27,03:00,UTC,,1013.7,65,,,15.9,,50000,68.4,6.7,4.8
2016,6,27,04:00,UTC,,1013.7,65,,,16.3,,50000,70,6.1,4.6
2016,6,27,05:00,UTC,,1013.5,60,,,17.7,,46985,67.9,5.9,4.5
2016,6,27,06:00,UTC,,1013.2,57,,,18.8,,49565,67.9,5.9,4.4
2016,6,27,07:00,UTC,,1012.9,46,,,20.4,,50000,70,7.6,5.6
2016,6,27,08:00,UTC,,1012.7,40,,,21.6,,36502,74.6,8.7,6.9
2016,6,27,09:00,UTC,,1012.3,37,,,22,,49553,65.3,9.9,7
2016,6,27,10:00,UTC,,1011.8,39,,,22.1,,37037,66.4,11,7.5
2016,6,27,11:00,UTC,,1011.5,39,,,22.4,,47729,67.4,10.3,8
2016,6,27,12:00,UTC,,1011.1,40,,,21.5,,34379,65.8,10,7.6
2016,6,27,13:00,UTC,,1010.6,39,,,21.1,,49691,59.7,9.6,7.2
2016,6,27,14:00,UTC,,1010.1,42,,,21,,50000,55.6,9.7,7.6
2016,6,27,15:00,UTC,,1009.8,44,,,20.6,,50000,58.1,9.3,7.2
2016,6,27,16:00,UTC,,1009.4,46,,,20.3,,50000,56.1,8.3,6.4
2016,6,27,17:00,UTC,,1009.2,49,,,19.8,,50000,53.5,6.5,5
2016,6,27,18:00,UTC,,1008.9,53,,,19.3,,50000,57.6,5.8,4.1
2016,6,27,19:00,UTC,,1008.7,57,,,18.5,,50000,62.2,4.4,3.4
2016,6,27,20:00,UTC,,1008.7,57,,,18.4,,50000,68.4,5.4,4
2016,6,27,21:00,UTC,,1009,71,,,16.6,,38606,112.7,6.3,4.3
2016,6,27,22:00,UTC,,1009.1,82,,,15.3,,35431,84.9,6,3.5
2016,6,27,23:00,UTC,,1009,89,,,14.6,,44519,70,2.7,2.1
2016,6,28,00:00,UTC,,1009,94,,,14,,10037,76.1,3.4,2.6
2016,6,28,01:00,UTC,,1008.8,96,,,13.9,,17930,62.8,3.3,2.7
2016,6,28,02:00,UTC,,1008.7,95,,,14,,14730,66.9,4.8,3.5
2016,6,28,03:00,UTC,,1008.6,95,,,14.2,,31601,69.4,5.5,3.3
2016,6,28,04:00,UTC,,1008.6,95,,,14.3,,16047,72.5,5.9,4.3
2016,6,28,05:00,UTC,,1008.6,97,,,14.1,,11403,72.5,6.4,4.3
2016,6,28,06:00,UTC,,1008.5,95,,,14.6,,29879,71,6.5,4.8
2016,6,28,07:00,UTC,,1008.7,94,,,14.7,,41818,70.5,7.1,5.1
2016,6,28,08:00,UTC,,1008.9,94,,,15,,47178,71.5,7.3,4.7
2016,6,28,09:00,UTC,,1009.2,93,,,15,,50000,73.6,7,4.8
2016,6,28,10:00,UTC,,1009.4,87,,,15.6,,46357,74.6,8.4,6.1
2016,6,28,11:00,UTC,,1009.6,85,,,16.7,,49148,76.7,7.6,5.5
2016,6,28,12:00,UTC,,1009.6,76,,,18.3,,47229,73.6,8,6.3
2016,6,28,13:00,UTC,,1009.5,73,,,18.5,,50000,67.9,7.8,5.2
2016,6,28,14:00,UTC,,1009.6,75,,,18.2,,50000,58.6,7.5,6.1
2016,6,28,15:00,UTC,,1009.6,75,,,18.4,,50000,63.3,6.2,4.7
2016,6,28,16:00,UTC,,1009.8,76,,,18,,49531,61.2,5.1,4
2016,6,28,17:00,UTC,,1009.8,75,,,18.3,,50000,64.8,6.2,5
2016,6,28,18:00,UTC,,1009.9,77,,,17.9,,50000,66.4,5,3.8
2016,6,28,19:00,UTC,,1010.2,81,,,17.4,,50000,66.9,4,3
2016,6,28,20:00,UTC,,1010.5,84,,,16.8,,50000,69.4,3.5,2.5
2016,6,28,21:00,UTC,,1011,86,,,16.3,,36029,93.1,1.6,1
2016,6,28,22:00,UTC,,1011.1,93,,,15,,50000,116.8,1.1,0.4
2016,6,28,23:00,UTC,,1011.2,92,,,14.1,,50000,179.5,1.6,1.1
2016,6,29,00:00,UTC,,1011.3,98,,,14.1,,50000,24.7,1.9,1.2
2016,6,29,01:00,UTC,,1011.4,99,,,13,,49205,162.6,1.6,1
2016,6,29,02:00,UTC,,1011.7,93,,,14.9,,50000,58.6,3.5,2.2
2016,6,29,03:00,UTC,,1011.7,93,,,15,,47818,68.9,4.2,2.4
2016,6,29,04:00,UTC,,1011.9,92,,,15.4,,45432,65.3,3.3,2.7
2016,6,29,05:00,UTC,,1011.8,90,,,16,,49514,65.8,4,3.1
2016,6,29,06:00,UTC,,1011.9,90,,,16.4,,50000,63.8,4.5,3.6
2016,6,29,07:00,UTC,,1012,86,,,17.1,,49672,68.9,5.3,4.1
2016,6,29,08:00,UTC,,1012,74,,,19,,50000,63.8,6.7,4.8
2016,6,29,09:00,UTC,,1011.8,70,,,20.2,,43486,65.3,5.7,4
2016,6,29,10:00,UTC,,1011.7,69,,,20.3,,50000,74.6,5.7,4.2
2016,6,29,11:00,UTC,,1011.5,66,,,20.9,,43152,55.6,4.2,2.7
2016,6,29,12:00,UTC,,1011.3,63,,,21.2,,45127,74.1,4.1,2
2016,6,29,13:00,UTC,,1011.7,85,,,16.4,,7033,118.8,7.6,5.3
2016,6,29,14:00,UTC,,1010.9,72,,,19.3,,49351,38.6,3.8,2.8
2016,6,29,15:00,UTC,,1011,82,,,18.3,,50000,31.4,3.9,2.3
2016,6,29,16:00,UTC,,1011.3,83,,,18.6,,47756,37.6,2.9,1.7
2016,6,29,17:00,UTC,,1010.9,75,,,19.8,,50000,55.6,5.3,3.9
2016,6,29,18:00,UTC,,1010.6,69,,,19.8,,50000,67.4,5.5,4.5
2016,6,29,19:00,UTC,,1010.8,79,,,18.5,,50000,59.7,4.2,3.1
2016,6,29,20:00,UTC,,1011,85,,,17.9,,50000,55,2.1,1.7
2016,6,29,21:00,UTC,,1011.2,90,,,16.9,,50000,57.6,3.4,3
2016,6,29,22:00,UTC,,1011.4,93,,,15.9,,50000,56.1,2.1,1.5
2016,6,29,23:00,UTC,,1011.4,96,,,14.8,,50000,58.6,2.1,1.4
2016,6,30,00:00,UTC,,1011.6,96,,,14.4,,50000,74.1,3.2,2.5
2016,6,30,01:00,UTC,,1011.5,98,,,13.3,,32745,67.9,1.2,1
2016,6,30,02:00,UTC,,1011.7,96,,,13.8,,45020,72.5,3,2.1
2016,6,30,03:00,UTC,,1011.7,95,,,14.5,,50000,70,4.5,2.8
2016,6,30,04:00,UTC,,1011.6,90,,,16.4,,37850,62.2,1.6,0.8
2016,6,30,05:00,UTC,,1011.8,84,,,17.8,,36766,71.5,2.6,1.3
2016,6,30,06:00,UTC,,1011.8,81,,,18.6,,50000,71.5,1.7,0.6
2016,6,30,07:00,UTC,,1011.8,67,,,20.5,,31180,66.9,2.6,1.3
2016,6,30,08:00,UTC,,1011.5,62,,,21.2,,44606,96.2,2.9,1.2
2016,6,30,09:00,UTC,,1011.4,60,,,21.9,,50000,80.3,5.5,2.6
2016,6,30,10:00,UTC,,1010.9,59,,,22.4,,42647,85.4,4,2.5
2016,6,30,11:00,UTC,,1010.3,53,,,22.9,,48964,59.7,6,4
2016,6,30,12:00,UTC,,1009.9,42,,,23.8,,50000,70.5,6.4,4.6
2016,6,30,13:00,UTC,,1011,84,,,17.5,,14943,64.8,9.7,7
2016,6,30,14:00,UTC,,1011.1,88,,,16.9,,50000,35.5,0.9,0.3
2016,6,30,15:00,UTC,,1010.2,85,,,17.6,,29312,7.7,1.3,0.8
2016,6,30,16:00,UTC,,1010,90,,,17.3,,50000,39.1,2.6,1.8
2016,6,30,17:00,UTC,,1009.4,85,,,19.3,,47358,48.4,5.5,3.5
2016,6,30,18:00,UTC,,1009.3,85,,,18.5,,50000,60.2,5.6,4.1
2016,6,30,19:00,UTC,,1009.1,89,,,17.4,,50000,62.2,4.9,4
2016,6,30,20:00,UTC,,1009.1,90,,,17,,50000,63.3,4.1,3
2016,6,30,21:00,UTC,,1009.1,92,,,16.7,,50000,62.8,4.7,3.9
2016,6,30,22:00,UTC,,1008.9,89,,,17.2,,50000,68.4,5.3,4.3
2016,6,30,23:00,UTC,,1008.8,91,,,17,,50000,69.4,4.9,3.8
2016,7,1,00:00,UTC,,1008.7,90,,,17,,50000,74.1,4.2,3.1
2016,7,1,01:00,UTC,,1009.1,92,,,16.4,,43196,76.1,3.1,2.3
2016,7,1,02:00,UTC,,1009.1,95,,,16.2,,42263,89,2.7,1.6
2016,7,1,03:00,UTC,,1009.2,90,,,16.6,,50000,116.8,1.9,1.1
2016,7,1,04:00,UTC,,1009.5,88,,,17,,50000,90,2.5,1.6
2016,7,1,05:00,UTC,,1009.5,88,,,17,,47673,108.5,2.9,1.4
2016,7,1,06:00,UTC,,1009.7,87,,,17.3,,49840,106.5,3.4,2.3
2016,7,1,07:00,UTC,,1009.8,83,,,18.5,,32086,72.5,2.5,1.5
2016,7,1,08:00,UTC,,1009.8,75,,,19.7,,35941,84.4,2.1,1.3
2016,7,1,09:00,UTC,,1010.1,74,,,19.2,,49834,130.7,3.3,2.5
2016,7,1,10:00,UTC,,1010.2,71,,,19.6,,45234,118.8,3.7,2.5
2016,7,1,11:00,UTC,,1010.5,87,,,17.9,,12633,117.3,2.6,1.7
2016,7,1,12:00,UTC,,1010.5,86,,,17.8,,14744,134.3,2.9,1.9
2016,7,1,13:00,UTC,,1011,92,,,17.5,,8517,113.7,3.1,2.1
2016,7,1,14:00,UTC,,1010.7,83,,,17.6,,50000,63.8,1.3,0.7
2016,7,1,15:00,UTC,,1010.7,86,,,17.7,,49978,75.6,4.8,2.5
2016,7,1,16:00,UTC,,1010.4,84,,,18.7,,22294,72.5,3.1,2.2
2016,7,1,17:00,UTC,,1010.5,82,,,19,,50000,81.8,3.4,2.5
2016,7,1,18:00,UTC,,1010.3,82,,,18.9,,50000,73.1,3.7,2.8
2016,7,1,19:00,UTC,,1010.5,83,,,17.9,,50000,74.1,6,3.5
2016,7,1,20:00,UTC,,1010.5,89,,,16.9,,50000,73.6,4.4,3.4
2016,7,1,21:00,UTC,,1010.6,93,,,16.1,,50000,73.6,4.4,3.4
2016,7,1,22:00,UTC,,1010.5,94,,,15.4,,50000,71.5,3.9,3.2
2016,7,1,23:00,UTC,,1010.3,94,,,14.8,,50000,74.6,4.1,3.3
2016,7,2,00:00,UTC,,1010.2,95,,,14.5,,50000,71,4.5,3.5
2016,7,2,01:00,UTC,,1009.9,93,,,14.8,,50000,68.9,4.7,3.8
2016,7,2,02:00,UTC,,1009.8,90,,,15.5,,50000,74.6,5.2,4.1
2016,7,2,03:00,UTC,,1009.7,89,,,15.9,,50000,71.5,5,3.1
2016,7,2,04:00,UTC,,1010.1,86,,,17,,50000,80.3,4.9,3.2
2016,7,2,05:00,UTC,,1010.2,79,,,18.1,,41601,86.4,7.8,4.9
2016,7,2,06:00,UTC,,1010.4,80,,,18.7,,50000,84.4,5.3,3.5
2016,7,2,07:00,UTC,,1010.6,65,,,20.3,,50000,103.4,6.2,4.4
2016,7,2,08:00,UTC,,1010.6,63,,,21.1,,44712,94.1,6.5,4.2
2016,7,2,09:00,UTC,,1010.7,63,,,21.6,,42407,85.4,5.8,4.3
2016,7,2,10:00,UTC,,1010.7,61,,,22.3,,50000,84.9,7.5,4.4
2016,7,2,11:00,UTC,,1010.4,64,,,22.2,,50000,79.7,6.1,4.2
2016,7,2,12:00,UTC,,1010.2,61,,,22.7,,50000,79.2,6.3,4.6
2016,7,2,13:00,UTC,,1009.8,64,,,22.6,,36632,73.6,6.8,4.7
2016,7,2,14:00,UTC,,1009.5,70,,,22.2,,50000,79.7,5.3,3.3
2016,7,2,15:00,UTC,,1009.1,72,,,22.7,,44498,69.4,3.3,2.6
2016,7,2,16:00,UTC,,1008.7,67,,,23.5,,50000,76.1,3.4,2.4
2016,7,2,17:00,UTC,,1008.3,60,,,24.1,,42437,75.1,6.2,4
2016,7,2,18:00,UTC,,1008.4,61,,,23.2,,50000,81.8,7.5,4.7
2016,7,2,19:00,UTC,,1008,62,,,22.7,,50000,72.5,6.8,5.2
2016,7,2,20:00,UTC,,1007.9,70,,,21,,50000,66.9,5.7,4.3
2016,7,2,21:00,UTC,,1007.8,73,,,20.4,,50000,67.4,5.8,4.2
2016,7,2,22:00,UTC,,1007.6,73,,,20.3,,50000,70,7.3,4.8
2016,7,2,23:00,UTC,,1007.3,73,,,20.3,,50000,72.5,7.5,4.9
2016,7,3,00:00,UTC,,1007.1,74,,,19.8,,50000,70.5,6.4,4.6
2016,7,3,01:00,UTC,,1007,85,,,17.7,,50000,61.2,5.2,4.4
2016,7,3,02:00,UTC,,1006.5,81,,,18.7,,50000,63.8,6.2,4.4
2016,7,3,03:00,UTC,,1005.9,75,,,19.7,,50000,67.9,8.5,5.8
2016,7,3,04:00,UTC,,1005.4,74,,,20.2,,50000,69.4,8,5.6
2016,7,3,05:00,UTC,,1005,79,,,19.9,,47036,74.1,6.8,5.2
2016,7,3,06:00,UTC,,1004.6,71,,,21.8,,48304,75.6,8.1,5.7
2016,7,3,07:00,UTC,,1004.4,83,,,20.1,,45762,76.7,7.2,5.5
2016,7,3,08:00,UTC,,1005,84,,,20.2,,49531,86.4,7.6,4.8
2016,7,3,09:00,UTC,,1006.4,93,,,14.2,,50000,138.4,8.9,5.5
2016,7,3,10:00,UTC,,1007.4,96,,,14.1,,6887,131.7,5.3,4
2016,7,3,11:00,UTC,,1008.1,94,,,14.9,,46962,119.9,3.3,2.5
2016,7,3,12:00,UTC,,1008,82,,,16.2,,50000,130.2,7.1,4.7
2016,7,3,13:00,UTC,,1008.2,70,,,17.4,,49008,115.7,6.1,3.3
2016,7,3,14:00,UTC,,1008.4,67,,,17.6,,35990,150.7,5.6,3.8
2016,7,3,15:00,UTC,,1008.6,58,,,18.1,,40536,133.8,7.6,5.2
2016,7,3,16:00,UTC,,1008.6,71,,,17,,50000,144,6.3,4.8
2016,7,3,17:00,UTC,,1008.8,67,,,16.2,,49517,136.8,4.9,3.2
2016,7,3,18:00,UTC,,1008.6,69,,,15.2,,50000,141,3.7,2.6
2016,7,3,19:00,UTC,,1009.1,72,,,14.6,,50000,130.7,3.4,2.2
2016,7,3,20:00,UTC,,1009.1,74,,,14.5,,50000,125.5,2.8,2.2
2016,7,3,21:00,UTC,,1009.1,74,,,14.5,,50000,123,3.9,2.6
2016,7,3,22:00,UTC,,1009.3,77,,,14.3,,50000,124,2.6,1.9
2016,7,3,23:00,UTC,,1009.3,77,,,14.1,,50000,118.3,2.5,1.7
2016,7,4,00:00,UTC,,1009.1,77,,,14,,50000,106.5,2.3,1.5
2016,7,4,01:00,UTC,,1008.9,78,,,13.7,,50000,84.9,2.7,1.8
2016,7,4,02:00,UTC,,1008.9,87,,,13.1,,49456,81.3,2.1,1.7
2016,7,4,03:00,UTC,,1008.7,84,,,13.2,,49350,72.5,2.9,2.2
2016,7,4,04:00,UTC,,1008.7,84,,,13.3,,50000,71,3.9,3
2016,7,4,05:00,UTC,,1008.5,85,,,13.6,,50000,70,3.2,2.4
2016,7,4,06:00,UTC,,1008.4,85,,,13.6,,50000,65.8,3.2,2.3
2016,7,4,07:00,UTC,,1008.1,92,,,13.3,,38980,118.8,3.4,2.6
2016,7,4,08:00,UTC,,1007.5,86,,,13.8,,50000,151.2,2.3,1.7
2016,7,4,09:00,UTC,,1007.9,89,,,13.5,,43147,126.6,4.4,3
2016,7,4,10:00,UTC,,1008,86,,,13.7,,46482,124,3.1,2.3
2016,7,4,11:00,UTC,,1007.1,90,,,14.1,,50000,25.7,2.4,1.2
2016,7,4,12:00,UTC,,1006.9,84,,,15,,50000,156.9,3.7,2.9
2016,7,4,13:00,UTC,,1006.2,79,,,15,,50000,149.7,5.2,4.3
2016,7,4,14:00,UTC,,1005.5,72,,,14.9,,50000,154.8,6,4.4
2016,7,4,15:00,UTC,,1005.9,83,,,14.1,,50000,153.8,7.2,4.8
2016,7,4,16:00,UTC,,1005.1,92,,,13.7,,50000,172.9,5.5,3.5
2016,7,4,17:00,UTC,,1004.4,89,,,13.9,,48761,171.8,4.6,2.8
2016,7,4,18:00,UTC,,1005.5,95,,,13.2,,9545,147.1,3,2.4
2016,7,4,19:00,UTC,,1002.9,96,,,12.8,,26092,162.6,7.5,5.1
2016,7,4,20:00,UTC,,1003.2,88,,,13,,50000,175.9,6.6,3.7
2016,7,4,21:00,UTC,,1002.5,85,,,11.6,,23079,171.8,8.5,5
2016,7,4,22:00,UTC,,1001.7,92,,,12.2,,17866,171.8,7.3,4.2
2016,7,4,23:00,UTC,,1001.2,93,,,12.4,,24426,173.4,8,4.3
2016,7,5,00:00,UTC,,1000.2,95,,,12.3,,41507,173.4,8.8,5
2016,7,5,01:00,UTC,,999.1,95,,,12.4,,46616,174.4,6.6,4
2016,7,5,02:00,UTC,,998.4,96,,,12.5,,45001,181.6,5.9,3.2
2016,7,5,03:00,UTC,,997.3,97,,,12.3,,50000,184.2,5.5,2.8
2016,7,5,04:00,UTC,,996.8,97,,,12.5,,24522,178.5,4.2,2.1
2016,7,5,05:00,UTC,,995.8,98,,,12.6,,5384,169.8,4,2.4
2016,7,5,06:00,UTC,,995.3,99,,,12.7,,7444,169.3,3.3,2.2
2016,7,5,07:00,UTC,,995.3,99,,,13.3,,15702,1,3,1.3
2016,7,5,08:00,UTC,,995.4,95,,,13.9,,26885,168.2,1.6,0.8
2016,7,5,09:00,UTC,,995.3,92,,,14.7,,29121,138.9,1.6,0.8
2016,7,5,10:00,UTC,,994.9,92,,,14.9,,50000,156.4,1.5,1.1
2016,7,5,11:00,UTC,,994.6,92,,,15,,27071,75.6,1.7,0.7
2016,7,5,12:00,UTC,,994.6,91,,,15.1,,41889,143,4.5,3.7
2016,7,5,13:00,UTC,,993.5,99,,,14.4,,12946,155.4,6.1,4.3
2016,7,5,14:00,UTC,,995.1,97,,,14.7,,17581,122.4,5.1,2.1
2016,7,5,15:00,UTC,,992.5,99,,,14.6,,13086,170.3,7.7,4.7
2016,7,5,16:00,UTC,,993.3,99,,,15.3,,13025,127.1,3,2.4
2016,7,5,17:00,UTC,,994.3,98,,,15.1,,14469,107.5,3.2,2
2016,7,5,18:00,UTC,,993.4,99,,,14.6,,3454,129.6,4.2,3
2016,7,5,19:00,UTC,,993.1,100,,,14.5,,1105,126,4.2,3
2016,7,5,20:00,UTC,,992.7,100,,,14.4,,6131,125.5,4.1,3.1
2016,7,5,21:00,UTC,,993.2,100,,,14.6,,2373,96.7,2,1.4
2016,7,5,22:00,UTC,,992.6,100,,,14.2,,1894,107,3.5,2.3
2016,7,5,23:00,UTC,,992.2,100,,,13.6,,2195,121.4,5,3.3
2016,7,6,00:00,UTC,,991.9,100,,,13.7,,4292,131.7,4.8,3.2
2016,7,6,01:00,UTC,,991.8,100,,,14.2,,1289,156.9,3.4,2.1
2016,7,6,02:00,UTC,,991.6,100,,,14.2,,916,141.5,1.2,0.9
2016,7,6,03:00,UTC,,991.1,100,,,14.4,,11004,153.8,1.8,1.4
2016,7,6,04:00,UTC,,990.8,100,,,14.6,,14505,150.2,2,1.5
2016,7,6,05:00,UTC,,990.7,100,,,15.1,,21754,161,1.9,1.3
2016,7,6,06:00,UTC,,990.5,100,,,15.5,,16285,159,2.5,1.7
2016,7,6,07:00,UTC,,990.4,100,,,16,,16617,5.1,2.7,1.6
2016,7,6,08:00,UTC,,990.4,97,,,16.9,,22719,178.5,2,1.3
2016,7,6,09:00,UTC,,990.4,95,,,18.2,,46081,155.9,3,2
2016,7,6,10:00,UTC,,990.4,79,,,19.9,,44075,135.3,4.6,3.5
2016,7,6,11:00,UTC,,990.1,85,,,19.6,,31346,135.8,7.2,5.5
2016,7,6,12:00,UTC,,990.3,84,,,19.8,,40225,135.8,7.6,5.5
2016,7,6,13:00,UTC,,990.1,80,,,20.2,,25460,153.3,8.9,6.9
2016,7,6,14:00,UTC,,990.4,83,,,19.3,,28875,141.5,8.9,7
2016,7,6,15:00,UTC,,991.4,82,,,18.6,,38056,146.6,8,5.9
2016,7,6,16:00,UTC,,991.5,97,,,15.5,,18463,140.4,6.3,5
2016,7,6,17:00,UTC,,991,95,,,16.3,,50000,134.3,6.3,4.7
2016,7,6,18:00,UTC,,990.9,98,,,15.3,,28961,137.4,7.2,5
2016,7,6,19:00,UTC,,991.3,97,,,15.3,,50000,141.5,3,2.1
2016,7,6,20:00,UTC,,991.4,97,,,15,,33599,127.6,3.7,2
2016,7,6,21:00,UTC,,991.4,98,,,15.2,,18720,136.8,4.1,3.1
2016,7,6,22:00,UTC,,991.6,98,,,15,,20222,142.5,1.2,0.6
2016,7,6,23:00,UTC,,991.4,99,,,14.4,,14366,104.4,1.6,1.1
2016,7,7,00:00,UTC,,991.7,100,,,14.9,,12304,96.2,1.2,0.7
2016,7,7,01:00,UTC,,991.8,99,,,15.1,,12288,78.2,0.7,0.4
2016,7,7,02:00,UTC,,992,99,,,15.5,,13596,57.6,0.9,0.6
2016,7,7,03:00,UTC,,992.2,98,,,16.1,,11680,13.9,1.2,0.5
2016,7,7,04:00,UTC,,992.5,96,,,17,,40577,5.1,2.2,1.2
2016,7,7,05:00,UTC,,992.7,94,,,17.3,,41087,174.9,3.1,1.8
2016,7,7,06:00,UTC,,992.8,92,,,17.5,,50000,177.5,2.5,1.6
2016,7,7,07:00,UTC,,993.2,97,,,16.8,,13351,168.7,4.1,2.8
2016,7,7,08:00,UTC,,993.6,96,,,17.1,,45128,169.3,5.7,3.6
2016,7,7,09:00,UTC,,994,97,,,16,,14692,166.2,6,3.8
2016,7,7,10:00,UTC,,994.4,98,,,15.8,,10354,166.7,4.2,2.8
2016,7,7,11:00,UTC,,994.8,98,,,15.9,,23732,160,4.5,3.3
2016,7,7,12:00,UTC,,995.1,97,,,16.3,,33766,160,4.1,2.7
2016,7,7,13:00,UTC,,995.3,97,,,17,,44956,162.6,4,2.7
2016,7,7,14:00,UTC,,995.3,97,,,16.7,,26591,164.1,3.7,2.5
2016,7,7,15:00,UTC,,995.1,96,,,16.4,,19888,152.8,4.4,3.7
2016,7,7,16:00,UTC,,995.6,96,,,16.1,,38607,167.2,1.9,1.3
2016,7,7,17:00,UTC,,996,95,,,16.4,,32344,117.3,2.6,1.3
2016,7,7,18:00,UTC,,996.3,96,,,16.4,,38011,112.1,2.2,1.5
2016,7,7,19:00,UTC,,996.2,96,,,16.5,,28017,143,2.5,2
2016,7,7,20:00,UTC,,996.2,98,,,16.4,,19637,120.9,2.4,1.9
2016,7,7,21:00,UTC,,996.6,99,,,16.3,,10129,88.5,2.9,1.9
2016,7,7,22:00,UTC,,996.6,100,,,15.6,,9681,121.9,2.9,1.9
2016,7,7,23:00,UTC,,996.3,100,,,15.8,,2102,136.8,3.4,2.3
2016,7,8,00:00,UTC,,996.9,100,,,15.9,,6858,90,1.5,0.6
2016,7,8,01:00,UTC,,996.8,100,,,15.6,,825,92.6,2.5,1.9
2016,7,8,02:00,UTC,,997,100,,,15.5,,1260,66.4,2.2,1.4
2016,7,8,03:00,UTC,,997.1,100,,,15.1,,5727,65.3,2.5,1.5
2016,7,8,04:00,UTC,,997.3,100,,,14.7,,12895,77.7,2.7,2
2016,7,8,05:00,UTC,,997.5,100,,,15.1,,24750,97.7,2.4,1.6
2016,7,8,06:00,UTC,,997.6,94,,,15.8,,29969,67.4,3.5,2.2
2016,7,8,07:00,UTC,,997.8,93,,,15.9,,41869,85.9,3,1.9
2016,7,8,08:00,UTC,,997.9,85,,,18.8,,40464,80.8,2.3,1.1
2016,7,8,09:00,UTC,,997.6,72,,,19.8,,50000,120.9,3.6,2.3
2016,7,8,10:00,UTC,,997.5,78,,,20.3,,38612,142,5.1,3.4
2016,7,8,11:00,UTC,,997.9,88,,,18,,40923,169.8,7.7,4.6
2016,7,8,12:00,UTC,,997.6,72,,,19.9,,44968,171.8,5.1,3.1
2016,7,8,13:00,UTC,,997.8,60,,,20.8,,45528,152.3,4.2,2.4
2016,7,8,14:00,UTC,,997.9,84,,,18.6,,42482,144,6.8,5.4
2016,7,8,15:00,UTC,,997.9,67,,,19,,48749,157.9,8.3,5.5
2016,7,8,16:00,UTC,,998.1,77,,,18.1,,43550,162,9.4,6.3
2016,7,8,17:00,UTC,,997.9,84,,,16.4,,48800,167.2,8.2,5.3
2016,7,8,18:00,UTC,,998.2,84,,,16.2,,50000,166.7,7,4.5
2016,7,8,19:00,UTC,,998,87,,,15.3,,49635,161,6.5,4.6
2016,7,8,20:00,UTC,,997.9,89,,,15.1,,46471,153.3,5.4,4
2016,7,8,21:00,UTC,,997.9,92,,,14.9,,24459,160,4.8,3.1
2016,7,8,22:00,UTC,,997.9,96,,,13.8,,10469,161.5,4.7,3.4
2016,7,8,23:00,UTC,,998,94,,,13.8,,11539,168.2,5.6,3.5
2016,7,9,00:00,UTC,,998,95,,,13.6,,50000,167.2,3,2.2
2016,7,9,01:00,UTC,,997.8,94,,,13.7,,50000,159.5,3.8,2.8
2016,7,9,02:00,UTC,,997.8,94,,,13.7,,50000,164.1,5.9,3.8
2016,7,9,03:00,UTC,,997.8,92,,,13.9,,50000,163.6,5.4,3.9
2016,7,9,04:00,UTC,,997.6,90,,,14.4,,50000,164.6,6.1,3.5
2016,7,9,05:00,UTC,,997.7,89,,,14.6,,50000,162.6,6.9,4.8
2016,7,9,06:00,UTC,,997.7,87,,,14.5,,49952,162.6,5.9,4
2016,7,9,07:00,UTC,,997.9,84,,,14.8,,43782,165.7,6.9,5
2016,7,9,08:00,UTC,,998.1,81,,,15.4,,50000,162.6,6.5,4.6
2016,7,9,09:00,UTC,,998.2,79,,,15,,49878,161,7.4,4.9
2016,7,9,10:00,UTC,,998.5,77,,,14.9,,41858,161.5,7.6,5.6
2016,7,9,11:00,UTC,,998.9,78,,,15.6,,33406,153.3,6,4.7
2016,7,9,12:00,UTC,,999.1,82,,,14.9,,50000,156.9,5.9,4
2016,7,9,13:00,UTC,,999.2,80,,,15.1,,38433,157.4,4.9,3.5
2016,7,9,14:00,UTC,,999.3,82,,,15,,50000,157.4,4.8,3.3
2016,7,9,15:00,UTC,,999.3,77,,,15.5,,42773,148.7,6.3,4.9
2016,7,9,16:00,UTC,,999.6,86,,,15,,50000,137.9,4.9,3.7
2016,7,9,17:00,UTC,,999.6,84,,,15.2,,41084,138.4,5.5,4.1
2016,7,9,18:00,UTC,,999.7,82,,,15,,50000,133.2,4.9,3.2
2016,7,9,19:00,UTC,,999.7,84,,,14.7,,50000,132.7,4.5,3.5
2016,7,9,20:00,UTC,,999.9,85,,,14.2,,50000,133.2,4.4,3.1
2016,7,9,21:00,UTC,,999.9,90,,,13.8,,50000,125.5,4.1,3
2016,7,9,22:00,UTC,,999.9,91,,,13.6,,50000,119.9,3.1,2.2
2016,7,9,23:00,UTC,,999.9,94,,,13,,48768,119.9,3,2.1
2016,7,10,00:00,UTC,,999.9,96,,,12.3,,50000,110.1,2.8,2
2016,7,10,01:00,UTC,,999.8,97,,,11.9,,41519,116.3,2.7,2
2016,7,10,02:00,UTC,,999.8,96,,,12.5,,50000,114.7,2.7,2.3
2016,7,10,03:00,UTC,,999.9,92,,,13.4,,50000,108,3.1,2.2
2016,7,10,04:00,UTC,,999.9,90,,,14,,42925,104.4,3.4,2.4
2016,7,10,05:00,UTC,,1000,86,,,15.1,,42754,110.1,2.9,2.1
2016,7,10,06:00,UTC,,1000.3,83,,,15.4,,39458,125.5,3.8,3
2016,7,10,07:00,UTC,,1000.7,83,,,15.7,,50000,128.1,3.4,2.3
2016,7,10,08:00,UTC,,1000.6,76,,,16.8,,48630,118.8,5.1,2
2016,7,10,09:00,UTC,,1000.7,74,,,17.4,,50000,114.2,3.7,2.4
2016,7,10,10:00,UTC,,1000.9,79,,,17.7,,50000,156.4,4.2,2.8
2016,7,10,11:00,UTC,,1000.7,75,,,18.6,,50000,150.2,5.2,2.9
2016,7,10,12:00,UTC,,1000.7,69,,,19,,37163,141.5,5.4,4
2016,7,10,13:00,UTC,,1000.8,72,,,19,,50000,144.6,6.1,3.5
2016,7,10,14:00,UTC,,1000.9,67,,,18.9,,39241,126,4.7,3
2016,7,10,15:00,UTC,,1001,76,,,18.4,,50000,131.2,3.2,2.1
2016,7,10,16:00,UTC,,1001.1,77,,,18.2,,39541,131.7,3,1.8
2016,7,10,17:00,UTC,,1001,77,,,18.4,,50000,127.6,2.2,1.3
2016,7,10,18:00,UTC,,1001.1,79,,,18.2,,42406,119.9,2.6,1.1
2016,7,10,19:00,UTC,,1001,86,,,17,,50000,149.7,1.8,1.5
2016,7,10,20:00,UTC,,1001.3,89,,,16.3,,49789,150.7,1.4,1.1
2016,7,10,21:00,UTC,,1001.4,95,,,15.1,,49467,141,0.7,0.4
2016,7,10,22:00,UTC,,1001.4,96,,,13.5,,45057,147.6,1.7,1
2016,7,10,23:00,UTC,,1001.4,97,,,13.1,,24774,31.4,0.5,0.3
2016,7,11,00:00,UTC,,1001.5,95,,,12.5,,50000,55.6,0.7,0.4
2016,7,11,01:00,UTC,,1001.5,98,,,11.9,,44828,64.3,1.5,1.2
2016,7,11,02:00,UTC,,1001.6,97,,,12.2,,44397,65.8,1.7,1.5
2016,7,11,03:00,UTC,,1001.5,97,,,12.9,,40753,62.2,2.7,2.1
2016,7,11,04:00,UTC,,1001.4,99,,,13.4,,13130,69.4,2.3,1.6
2016,7,11,05:00,UTC,,1001.6,85,,,16.3,,37897,78.7,4.3,2.3
2016,7,11,06:00,UTC,,1001.3,75,,,18.1,,29227,62.8,3.5,2.4
2016,7,11,07:00,UTC,,1001.2,66,,,19.1,,28690,76.7,4.9,3
2016,7,11,08:00,UTC,,1001,61,,,19.9,,49902,83.3,5.3,3.2
2016,7,11,09:00,UTC,,1000.9,59,,,21,,37959,126,4.2,2.6
2016,7,11,10:00,UTC,,1000.8,53,,,21.9,,32955,67.9,4,2.8
2016,7,11,11:00,UTC,,1000.8,61,,,21.3,,36078,175.4,4.5,3
2016,7,11,12:00,UTC,,1000.6,66,,,20.7,,34366,154.3,6.2,3.7
2016,7,11,13:00,UTC,,1000.5,65,,,20.5,,37353,154.3,7,4.6
2016,7,11,14:00,UTC,,1000.2,64,,,20.5,,42891,145.1,5.9,4.5
2016,7,11,15:00,UTC,,1000.2,60,,,19.9,,50000,156.9,5.6,3.8
2016,7,11,16:00,UTC,,1000,64,,,19.6,,46564,177.5,4.3,2.6
2016,7,11,17:00,UTC,,999.7,63,,,19.2,,50000,172.9,3.8,2.5
2016,7,11,18:00,UTC,,999.5,63,,,18.5,,50000,179,3.2,2.1
2016,7,11,19:00,UTC,,999.4,68,,,17.7,,39042,165.1,2.7,1.9
2016,7,11,20:00,UTC,,999.3,79,,,15.8,,50000,168.7,2,1.4
2016,7,11,21:00,UTC,,999,88,,,14.1,,50000,178,1.3,0.8
2016,7,11,22:00,UTC,,998.8,91,,,14.2,,50000,4.1,1.7,1
2016,7,11,23:00,UTC,,998.3,88,,,14.7,,50000,6.2,2.3,1.2
2016,7,12,00:00,UTC,,997.9,87,,,14.3,,50000,10.3,2.2,1.5
2016,7,12,01:00,UTC,,997.7,84,,,13.9,,50000,26.2,2.2,1.1
2016,7,12,02:00,UTC,,997.4,79,,,14.6,,50000,29.3,2.4,1.2
2016,7,12,03:00,UTC,,997.2,76,,,16,,50000,35.5,2,1.1
2016,7,12,04:00,UTC,,996.9,75,,,17.3,,40051,34.5,2.7,1.5
2016,7,12,05:00,UTC,,996.4,72,,,18.8,,49470,26.8,3.4,2.1
2016,7,12,06:00,UTC,,996,65,,,20.6,,28513,36.5,3.8,2.1
2016,7,12,07:00,UTC,,996,58,,,21.7,,22995,20.6,4.3,2.4
2016,7,12,08:00,UTC,,995.8,54,,,22.7,,47103,10.8,4.7,2.5
2016,7,12,09:00,UTC,,995.7,52,,,22.4,,43521,14.9,2.6,1.5
2016,7,12,10:00,UTC,,995.3,54,,,23.1,,31534,175.9,5,3.1
2016,7,12,11:00,UTC,,995.2,55,,,22.8,,43658,169.8,6.8,4.4
2016,7,12,12:00,UTC,,995,54,,,22.3,,45615,174.9,7.4,4.6
2016,7,12,13:00,UTC,,994.9,53,,,21.8,,41604,171.8,6.8,4
2016,7,12,14:00,UTC,,995.1,53,,,22.5,,45933,5.7,5.3,3.2
2016,7,12,15:00,UTC,,995.1,45,,,22.6,,47669,171.3,6.5,4.4
2016,7,12,16:00,UTC,,995.3,57,,,21.7,,50000,64.8,5.5,4.4
2016,7,12,17:00,UTC,,995.2,55,,,22.6,,48374,102.9,4.1,2.7
2016,7,12,18:00,UTC,,995.4,57,,,21.7,,50000,131.7,3,2.4
2016,7,12,19:00,UTC,,995.4,61,,,21.1,,50000,153.3,2.1,1.6
2016,7,12,20:00,UTC,,995.5,82,,,19,,40053,151.2,2.4,1.8
2016,7,12,21:00,UTC,,995.7,86,,,18.6,,50000,184.2,2.3,1.2
2016,7,12,22:00,UTC,,995.8,90,,,17.7,,50000,1,1.8,0.9
2016,7,12,23:00,UTC,,996,91,,,16.5,,50000,132.2,2.8,2
2016,7,13,00:00,UTC,,996.2,97,,,15.5,,50000,133.8,1.4,1.2
2016,7,13,01:00,UTC,,996.3,95,,,15.1,,50000,122.4,2.1,1.4
2016,7,13,02:00,UTC,,996.3,95,,,15.7,,50000,112.7,2.5,1.6
2016,7,13,03:00,UTC,,996.4,97,,,15.3,,43751,124.5,1.7,1.3
2016,7,13,04:00,UTC,,996.6,90,,,16.8,,50000,129.1,4.8,3.4
2016,7,13,05:00,UTC,,997.2,82,,,18.7,,50000,149.2,3,2.3
2016,7,13,06:00,UTC,,997.8,81,,,19.8,,47926,154.8,4.8,3.6
2016,7,13,07:00,UTC,,998.2,80,,,19.3,,50000,137.9,6.1,4.4
2016,7,13,08:00,UTC,,998.6,74,,,20,,42136,139.4,6.6,4.9
2016,7,13,09:00,UTC,,999,75,,,19.6,,35150,132.7,5.3,4.3
2016,7,13,10:00,UTC,,999.2,63,,,21.3,,40335,138.9,5.2,3.8
2016,7,13,11:00,UTC,,999.1,64,,,21.4,,41003,136.3,6.3,4.3
2016,7,13,12:00,UTC,,999.1,67,,,21.6,,33986,133.8,6.2,5
2016,7,13,13:00,UTC,,999.2,71,,,20.8,,32428,142,5.7,4.5
2016,7,13,14:00,UTC,,999.3,72,,,20.6,,50000,137.4,6.1,4.9
2016,7,13,15:00,UTC,,999.2,72,,,19.9,,50000,139.4,6.3,5.1
2016,7,13,16:00,UTC,,999.6,72,,,19.8,,39225,138.4,6.1,4.6
2016,7,13,17:00,UTC,,1000,78,,,19.1,,50000,139.4,6.7,5.4
2016,7,13,18:00,UTC,,999.9,78,,,19.3,,41352,149.7,4.2,2.8
2016,7,13,19:00,UTC,,1000.1,81,,,18.9,,50000,128.1,2.5,1.5
2016,7,13,20:00,UTC,,1000.3,87,,,17.3,,50000,119.9,2.2,1.6
2016,7,13,21:00,UTC,,1000.6,94,,,16.2,,50000,120.4,3.6,2.7
2016,7,13,22:00,UTC,,1000.8,95,,,15.6,,50000,115.2,2.7,2.1
2016,7,13,23:00,UTC,,1000.7,96,,,14.8,,50000,118.3,3.2,2.4
2016,7,14,00:00,UTC,,1001,96,,,14.9,,50000,123.5,2.7,1.8
2016,7,14,01:00,UTC,,1001.2,96,,,15.3,,42707,123,4,3.1
2016,7,14,02:00,UTC,,1001.3,94,,,15.9,,47757,125.5,5.1,3.5
2016,7,14,03:00,UTC,,1001.6,93,,,16.5,,41197,126.6,4.3,3.5
2016,7,14,04:00,UTC,,1001.9,86,,,17.3,,46324,132.2,4.8,3.6
2016,7,14,05:00,UTC,,1002.3,81,,,18,,48183,134.8,3.6,2.6
2016,7,14,06:00,UTC,,1002.5,79,,,18.1,,46489,141.5,4.2,2.6
2016,7,14,07:00,UTC,,1002.8,85,,,18.6,,29076,142,5.2,3.9
2016,7,14,08:00,UTC,,1003.4,83,,,18.5,,42343,141.5,7.9,6.3
2016,7,14,09:00,UTC,,1003.9,79,,,19.8,,45688,139.4,8.7,6.4
2016,7,14,10:00,UTC,,1004.2,78,,,19.3,,38272,137.4,8.4,6.3
2016,7,14,11:00,UTC,,1004.4,78,,,19.5,,37603,136.8,7.3,5.6
2016,7,14,12:00,UTC,,1004.6,79,,,19.7,,40290,139.9,8,6.1
2016,7,14,13:00,UTC,,1005.1,82,,,19.2,,43768,142.5,9.5,7.1
2016,7,14,14:00,UTC,,1005.5,80,,,18.8,,45645,143,9.7,7.5
2016,7,14,15:00,UTC,,1006,75,,,19,,40158,143.5,8.8,6.8
2016,7,14,16:00,UTC,,1006.2,75,,,19.1,,44583,148.2,6.1,4.4
2016,7,14,17:00,UTC,,1006.2,73,,,19.2,,41278,143.5,4.1,2.7
2016,7,14,18:00,UTC,,1006.6,75,,,18.6,,41430,152.8,3.6,2.7
2016,7,14,19:00,UTC,,1007,78,,,18.2,,50000,159,1.9,1.5
2016,7,14,20:00,UTC,,1007.3,83,,,16.7,,50000,123.5,1.8,1.6
2016,7,14,21:00,UTC,,1007.8,84,,,16.8,,50000,102.9,3.1,2
2016,7,14,22:00,UTC,,1008,88,,,16.1,,50000,119.9,5.7,2.9
2016,7,14,23:00,UTC,,1008.1,96,,,14.8,,29660,124.5,4.1,3
2016,7,15,00:00,UTC,,1008.3,97,,,14.4,,40970,156.4,1.6,0.9
2016,7,15,01:00,UTC,,1008.7,96,,,14.8,,36324,117.8,2.7,1.8
2016,7,15,02:00,UTC,,1009.1,95,,,14.9,,22737,104.4,2.5,1.8
2016,7,15,03:00,UTC,,1009.4,95,,,14.6,,37391,135.3,2.9,1.6
2016,7,15,04:00,UTC,,1009.4,95,,,14.8,,33352,108.5,3.7,1.4
2016,7,15,05:00,UTC,,1009.7,93,,,14.9,,37172,74.6,3.5,1.7
2016,7,15,06:00,UTC,,1010.1,93,,,15.3,,35725,73.1,1.9,1.2
2016,7,15,07:00,UTC,,1010.4,92,,,15.3,,42425,58.6,3.2,2.2
2016,7,15,08:00,UTC,,1010.5,81,,,17.3,,33740,103.4,2.9,1
2016,7,15,09:00,UTC,,1010.3,74,,,19.2,,41653,37.6,1.9,0.9
2016,7,15,10:00,UTC,,1009.8,66,,,21.6,,26515,22.1,2.8,1.3
2016,7,15,11:00,UTC,,1009.6,71,,,20.7,,41479,173.4,5.1,3.8
2016,7,15,12:00,UTC,,1009.7,84,,,19,,30274,23.1,3.4,1.9
2016,7,15,13:00,UTC,,1009.4,94,,,18.3,,22349,168.2,4.4,3.1
2016,7,15,14:00,UTC,,1009.3,87,,,18.8,,50000,167.7,4.9,3.5
2016,7,15,15:00,UTC,,1009.3,90,,,18.2,,49909,168.2,4,2.6
2016,7,15,16:00,UTC,,1008.7,85,,,19.7,,50000,182.1,3.3,1.5
2016,7,15,17:00,UTC,,1008.4,81,,,19.3,,49821,39.1,2.1,1.1
2016,7,15,18:00,UTC,,1007.8,84,,,18.8,,50000,17.5,3.2,1.6
2016,7,15,19:00,UTC,,1007.5,87,,,18.2,,50000,26.8,2.5,1.1
2016,7,15,20:00,UTC,,1006.8,89,,,18.1,,50000,26.2,3.4,1.9
2016,7,15,21:00,UTC,,1006.3,89,,,18,,40056,37,3.8,2.5
2016,7,15,22:00,UTC,,1005.6,88,,,17.8,,50000,31.4,3.7,2
2016,7,15,23:00,UTC,,1004.7,92,,,17.3,,13701,29.8,4,2.3
2016,7,16,00:00,UTC,,1004.5,93,,,16.9,,18685,123,3.1,1
2016,7,16,01:00,UTC,,1003.7,95,,,16.3,,50000,167.7,2.6,1.9
2016,7,16,02:00,UTC,,1002.9,97,,,16.7,,50000,2.1,3.7,1.3
2016,7,16,03:00,UTC,,1001.8,95,,,16.7,,49036,22.1,4.1,2.4
2016,7,16,04:00,UTC,,1001.3,96,,,16.7,,23722,178,2.1,1.2
2016,7,16,05:00,UTC,,1001,98,,,16.5,,14743,167.2,2.7,1.8
2016,7,16,06:00,UTC,,1000,97,,,16.7,,39055,181.1,4.3,2.3
2016,7,16,07:00,UTC,,999.7,94,,,16.5,,46119,43.7,2.6,1.9
2016,7,16,08:00,UTC,,999.3,92,,,16.5,,50000,38.6,4.3,2.6
2016,7,16,09:00,UTC,,999.3,94,,,16.3,,13008,29.8,2.2,1.3
2016,7,16,10:00,UTC,,999.6,94,,,16.2,,10043,58.6,1.3,0.8
2016,7,16,11:00,UTC,,1000,95,,,16.8,,20888,112.1,2.5,1.7
2016,7,16,12:00,UTC,,1000.3,92,,,17.7,,31877,150.2,5.6,3.4
2016,7,16,13:00,UTC,,1000.9,92,,,16.9,,50000,134.8,10.8,6.7
2016,7,16,14:00,UTC,,1001.7,89,,,16.7,,50000,130.2,9.6,6.8
2016,7,16,15:00,UTC,,1002.4,87,,,16.3,,43665,128.6,10,6.5
2016,7,16,16:00,UTC,,1002.6,83,,,17.2,,37226,124,6.8,4.8
2016,7,16,17:00,UTC,,1002.8,75,,,17.4,,50000,114.2,7,4.5
2016,7,16,18:00,UTC,,1002.7,67,,,17.4,,44119,119.9,7.8,5
2016,7,16,19:00,UTC,,1003,66,,,17,,50000,114.2,7.1,4.7
2016,7,16,20:00,UTC,,1002.9,76,,,16.3,,50000,108.5,5.1,3.3
2016,7,16,21:00,UTC,,1003,81,,,15.2,,50000,81.3,3.7,2.5
2016,7,16,22:00,UTC,,1003.1,79,,,14.7,,50000,79.2,4.4,2.7
2016,7,16,23:00,UTC,,1003.1,82,,,14.4,,50000,84.4,4.1,2.9
2016,7,17,00:00,UTC,,1003,85,,,14.2,,50000,82.3,4.7,2.9
2016,7,17,01:00,UTC,,1002.8,89,,,14.1,,50000,82.3,5.5,3.7
2016,7,17,02:00,UTC,,1003.1,87,,,15.2,,50000,93.6,6.4,4.3
2016,7,17,03:00,UTC,,1003.3,87,,,15.4,,50000,93.1,6.3,4.7
2016,7,17,04:00,UTC,,1003.3,86,,,15.5,,50000,91.1,6.3,4.3
2016,7,17,05:00,UTC,,1003.5,85,,,15.8,,50000,98.8,6.4,4.6
2016,7,17,06:00,UTC,,1003.4,84,,,15.9,,48176,97.2,5.6,4
2016,7,17,07:00,UTC,,1003,80,,,16.7,,47941,91.6,6.4,3.9
2016,7,17,08:00,UTC,,1002.9,79,,,17.4,,50000,88.5,7.3,4.6
2016,7,17,09:00,UTC,,1002.7,70,,,19.5,,22704,99.3,9.2,6
2016,7,17,10:00,UTC,,1002.6,70,,,19.2,,50000,90.5,10.4,7
2016,7,17,11:00,UTC,,1002.6,73,,,18.3,,50000,122.4,4,2.2
2016,7,17,12:00,UTC,,1001.9,82,,,17.4,,50000,164.6,3.7,2.3
2016,7,17,13:00,UTC,,1002.6,91,,,14.3,,42461,131.2,9,5.5
2016,7,17,14:00,UTC,,1002.4,92,,,14.8,,50000,79.7,4.4,2.8
2016,7,17,15:00,UTC,,1002.3,88,,,16.5,,46782,79.2,5.4,3.9
2016,7,17,16:00,UTC,,1002.3,69,,,16.9,,50000,117.8,10.1,5.7
2016,7,17,17:00,UTC,,1003,73,,,16.3,,50000,124,6.9,4.6
2016,7,17,18:00,UTC,,1003.3,77,,,15.3,,50000,126.6,4.8,3.6
2016,7,17,19:00,UTC,,1003.7,79,,,15,,49781,117.8,4.6,2.2
2016,7,17,20:00,UTC,,1004,87,,,13.7,,50000,115.2,4.2,2.8
2016,7,17,21:00,UTC,,1004.3,89,,,13.5,,50000,94.7,3.4,2.4
2016,7,17,22:00,UTC,,1004.2,88,,,13.3,,50000,100.8,4.3,2.5
2016,7,17,23:00,UTC,,1004.1,86,,,12.8,,47587,93.1,4.3,3
2016,7,18,00:00,UTC,,1004.4,92,,,11.8,,50000,93.6,4.1,2.7
2016,7,18,01:00,UTC,,1004.5,93,,,11.6,,50000,91.1,5.8,3.3
2016,7,18,02:00,UTC,,1004.4,90,,,12.5,,50000,94.7,4.3,3.3
2016,7,18,03:00,UTC,,1004.3,92,,,12.2,,50000,88.5,4.2,2.8
2016,7,18,04:00,UTC,,1004.3,89,,,13.6,,46418,89.5,4.3,2.7
2016,7,18,05:00,UTC,,1004.3,79,,,15.7,,50000,104.4,5,3.4
2016,7,18,06:00,UTC,,1004.5,80,,,15.7,,50000,101.3,5.2,3.5
2016,7,18,07:00,UTC,,1004.6,71,,,17.2,,42318,119.4,6.6,4.7
2016,7,18,08:00,UTC,,1004.8,68,,,18,,33561,124,6.8,4.6
2016,7,18,09:00,UTC,,1005,62,,,18.8,,50000,121.9,6.3,4.1
2016,7,18,10:00,UTC,,1005.2,66,,,18.5,,35924,143.5,7.7,5.9
2016,7,18,11:00,UTC,,1005.7,60,,,18.5,,43726,139.9,9.3,6.8
2016,7,18,12:00,UTC,,1006,64,,,17.9,,37797,142,9.6,7.1
2016,7,18,13:00,UTC,,1006.1,54,,,17.9,,45702,141.5,9.8,7.2
2016,7,18,14:00,UTC,,1006.3,59,,,17.5,,38327,141,8.6,6.5
2016,7,18,15:00,UTC,,1006.7,65,,,16.8,,40707,139.9,8,5.8
2016,7,18,16:00,UTC,,1007.1,61,,,16.8,,49517,136.8,7.3,5.6
2016,7,18,17:00,UTC,,1007.3,69,,,16.6,,50000,135.8,5.9,4.6
2016,7,18,18:00,UTC,,1007.5,76,,,16,,49623,138.9,6,4.5
2016,7,18,19:00,UTC,,1007.9,76,,,15.4,,50000,143.5,3.7,2.7
2016,7,18,20:00,UTC,,1008.1,84,,,13.4,,50000,144.6,2.4,1.5
2016,7,18,21:00,UTC,,1008.3,91,,,11.3,,50000,136.8,1.6,1.4
2016,7,18,22:00,UTC,,1008.6,91,,,12,,50000,149.7,2.7,1.7
2016,7,18,23:00,UTC,,1008.9,83,,,12.3,,50000,152.3,2.7,2.4
2016,7,19,00:00,UTC,,1009,87,,,11.8,,50000,157.4,3.3,2.6
2016,7,19,01:00,UTC,,1009.3,75,,,12.7,,50000,167.7,3.4,2.5
2016,7,19,02:00,UTC,,1009.7,77,,,13.6,,50000,174.4,4.4,2.5
2016,7,19,03:00,UTC,,1009.9,76,,,13.1,,43872,174.9,4.2,2.8
2016,7,19,04:00,UTC,,1010.3,72,,,13.2,,36999,177,5.1,3.1
2016,7,19,05:00,UTC,,1010.6,66,,,14.2,,50000,183.7,5.4,3
2016,7,19,06:00,UTC,,1010.8,63,,,15,,48162,171.8,6,3.3
2016,7,19,07:00,UTC,,1011.2,57,,,15.7,,43765,167.2,6.9,4.5
2016,7,19,08:00,UTC,,1011.6,58,,,16.4,,25459,164.6,7.6,5.3
2016,7,19,09:00,UTC,,1012.1,61,,,16.2,,50000,160.5,8.6,5.5
2016,7,19,10:00,UTC,,1012.5,57,,,16,,50000,159.5,9.8,6.7
2016,7,19,11:00,UTC,,1012.5,56,,,16.1,,32435,154.3,9.8,7.5
2016,7,19,12:00,UTC,,1012.8,57,,,16.6,,50000,161.5,10.2,5.9
2016,7,19,13:00,UTC,,1013,53,,,16.8,,40796,160.5,8.4,5.5
2016,7,19,14:00,UTC,,1013,50,,,17.3,,37783,163.1,6.9,4.3
2016,7,19,15:00,UTC,,1013.2,50,,,17.4,,34519,156.4,8.1,5.3
2016,7,19,16:00,UTC,,1013.4,51,,,17.3,,49418,162,7,4.7
2016,7,19,17:00,UTC,,1013.6,55,,,16.8,,50000,149.7,6.9,5
2016,7,19,18:00,UTC,,1013.7,59,,,16.5,,48039,146.1,6,4.6
2016,7,19,19:00,UTC,,1013.7,67,,,15,,44456,148.7,3.5,2.4
2016,7,19,20:00,UTC,,1014,73,,,13.1,,50000,154.8,3.3,2.7
2016,7,19,21:00,UTC,,1014.4,80,,,12.7,,50000,164.1,3.2,2.3
2016,7,19,22:00,UTC,,1014.9,87,,,12.2,,50000,161.5,4,3
2016,7,19,23:00,UTC,,1015.2,87,,,12.5,,50000,165.1,3.1,2.2
2016,7,20,00:00,UTC,,1015.5,89,,,12.2,,47138,163.1,3.9,3.1
2016,7,20,01:00,UTC,,1015.6,91,,,12,,50000,161,3,2.5
2016,7,20,02:00,UTC,,1015.9,88,,,12.9,,47097,174.4,2.1,1.3
2016,7,20,03:00,UTC,,1016.2,84,,,15.1,,50000,169.3,2.7,1.9
2016,7,20,04:00,UTC,,1016.6,83,,,16.4,,50000,11.3,3,1.8
2016,7,20,05:00,UTC,,1017,83,,,16.6,,40052,2.6,3.4,2.1
2016,7,20,06:00,UTC,,1017.3,65,,,17.3,,23398,179.5,3.8,2.3
2016,7,20,07:00,UTC,,1017.7,52,,,18.6,,28275,0.5,3.5,1.8
2016,7,20,08:00,UTC,,1017.8,44,,,19.5,,41660,6.7,3.4,2
2016,7,20,09:00,UTC,,1018,44,,,19.7,,26717,173.4,4.2,2.5
2016,7,20,10:00,UTC,,1018.1,43,,,20.1,,15328,4.6,3.8,1.9
2016,7,20,11:00,UTC,,1018,44,,,20.8,,48741,160.5,6.5,3.6
2016,7,20,12:00,UTC,,1018,44,,,20.3,,24142,173.9,5.7,3.7
2016,7,20,13:00,UTC,,1018.1,44,,,20.4,,29012,168.7,6.3,4
2016,7,20,14:00,UTC,,1018.1,41,,,19.9,,34403,174.9,6.1,4.1
2016,7,20,15:00,UTC,,1018.2,43,,,20,,45675,173.9,5.6,3.7
2016,7,20,16:00,UTC,,1018.3,47,,,19.5,,42636,171.3,5.8,4
2016,7,20,17:00,UTC,,1018.3,53,,,19.2,,50000,167.2,4.3,3.1
2016,7,20,18:00,UTC,,1018.5,60,,,18.6,,48529,169.8,4.2,2.7
2016,7,20,19:00,UTC,,1018.5,71,,,17.3,,50000,167.2,2.7,1.9
2016,7,20,20:00,UTC,,1018.9,76,,,15.5,,50000,168.2,2.1,1.3
2016,7,20,21:00,UTC,,1018.9,81,,,14.8,,50000,167.7,2.1,1.2
2016,7,20,22:00,UTC,,1019,85,,,14.5,,50000,173.9,1.8,1
2016,7,20,23:00,UTC,,1019.3,90,,,14.6,,50000,169.8,2.5,0.9
2016,7,21,00:00,UTC,,1019.5,85,,,13.4,,50000,181.1,2.1,0.9
2016,7,21,01:00,UTC,,1019.7,80,,,11.9,,50000,56.1,2.3,1.7
2016,7,21,02:00,UTC,,1019.9,82,,,11.5,,50000,58.6,2,1.7
2016,7,21,03:00,UTC,,1020,74,,,13.7,,42196,55,2.2,1.9
2016,7,21,04:00,UTC,,1020.2,65,,,15.8,,35860,62.2,3.5,2.7
2016,7,21,05:00,UTC,,1020.5,61,,,17,,19924,50.4,2.9,2.1
2016,7,21,06:00,UTC,,1020.3,57,,,18.8,,49188,43.2,3.6,2.3
2016,7,21,07:00,UTC,,1020.2,46,,,20.2,,44035,43.7,5.8,3.8
2016,7,21,08:00,UTC,,1019.9,38,,,20.7,,50000,42.7,6.7,4.6
2016,7,21,09:00,UTC,,1019.5,36,,,21.9,,40127,44.8,7.7,4.7
2016,7,21,10:00,UTC,,1019.3,31,,,22.3,,42542,42.7,8.2,4.6
2016,7,21,11:00,UTC,,1019.2,30,,,22.9,,48362,29.3,6.5,3.8
2016,7,21,12:00,UTC,,1018.9,32,,,23.4,,47215,34,6.6,3.4
2016,7,21,13:00,UTC,,1018.5,31,,,23.7,,24957,38.1,5.9,3.3
2016,7,21,14:00,UTC,,1018.1,33,,,24,,27990,32.9,5.5,2.8
2016,7,21,15:00,UTC,,1017.9,35,,,23.9,,32185,19,5.1,2.6
2016,7,21,16:00,UTC,,1017.7,35,,,23.7,,47817,29.3,5,2.6
2016,7,21,17:00,UTC,,1017.9,34,,,23.4,,36369,38.6,4.4,2.9
2016,7,21,18:00,UTC,,1018.1,36,,,22.5,,38294,29.8,3.5,1.9
2016,7,21,19:00,UTC,,1018.3,45,,,21.1,,46760,26.2,2.2,1.2
2016,7,21,20:00,UTC,,1018.6,49,,,19.5,,50000,32.9,2.8,2
2016,7,21,21:00,UTC,,1019,51,,,18,,50000,31.4,3.2,2.3
2016,7,21,22:00,UTC,,1019,54,,,16.6,,50000,42.7,3.8,2.4
2016,7,21,23:00,UTC,,1019.3,62,,,15.1,,50000,31.4,3.9,2.5
2016,7,22,00:00,UTC,,1019.7,62,,,14,,50000,48.4,3.1,2.1
2016,7,22,01:00,UTC,,1019.7,65,,,13.3,,50000,43.7,2.8,1.9
2016,7,22,02:00,UTC,,1019.8,72,,,12.4,,50000,27.8,3.7,1.9
2016,7,22,03:00,UTC,,1019.8,67,,,13.9,,47172,28.3,3.8,2.2
2016,7,22,04:00,UTC,,1019.9,64,,,15.3,,50000,31.9,3.5,2.3
2016,7,22,05:00,UTC,,1020.2,63,,,16.6,,46899,36.5,5.5,3
2016,7,22,06:00,UTC,,1020,60,,,18.2,,33288,35,6.2,3.7
2016,7,22,07:00,UTC,,1019.9,57,,,19.6,,43098,36,7.7,4.3
2016,7,22,08:00,UTC,,1019.8,49,,,20.4,,20472,38.6,5.8,4.1
2016,7,22,09:00,UTC,,1019.4,35,,,22,,43181,41.2,7.1,4.4
2016,7,22,10:00,UTC,,1019.3,32,,,22.9,,49071,38.6,8.5,4
2016,7,22,11:00,UTC,,1019,31,,,23.6,,39672,42.2,6.5,4.1
2016,7,22,12:00,UTC,,1018.8,30,,,24.4,,50000,40.1,6.5,4.2
2016,7,22,13:00,UTC,,1018.5,27,,,25.2,,44775,37,5.6,3.6
2016,7,22,14:00,UTC,,1018.3,27,,,25.5,,44872,43.7,5.6,3.4
2016,7,22,15:00,UTC,,1018.1,27,,,26.1,,38569,53.5,4.6,2
2016,7,22,16:00,UTC,,1018.1,33,,,25.1,,40848,88.5,3.4,2.5
2016,7,22,17:00,UTC,,1018.3,34,,,25,,39793,83.9,2.7,1.9
2016,7,22,18:00,UTC,,1018.3,52,,,23.3,,50000,172.3,2.8,1.8
2016,7,22,19:00,UTC,,1018.5,60,,,22.1,,49623,178,1.5,0.8
2016,7,22,20:00,UTC,,1018.5,77,,,20.1,,47046,3.6,1.4,0.9
2016,7,22,21:00,UTC,,1018.6,83,,,17.9,,50000,141,0.4,0.2
2016,7,22,22:00,UTC,,1018.5,93,,,16.4,,50000,10.8,1.3,0.9
2016,7,22,23:00,UTC,,1018.6,70,,,17.2,,50000,50.9,3,2.2
2016,7,23,00:00,UTC,,1018.8,74,,,18,,50000,55.6,5.2,4.1
2016,7,23,01:00,UTC,,1018.8,77,,,17.5,,50000,59.2,5.1,3.8
2016,7,23,02:00,UTC,,1018.8,79,,,17.4,,45972,61.7,4.4,3.4
2016,7,23,03:00,UTC,,1018.6,77,,,17.8,,41798,47.8,3.1,2.2
2016,7,23,04:00,UTC,,1018.5,76,,,18.3,,48692,52.5,3.5,2.6
2016,7,23,05:00,UTC,,1018.4,74,,,18.6,,46845,49.4,3.1,2.1
2016,7,23,06:00,UTC,,1018.6,71,,,19.4,,50000,58.1,4.4,3.3
2016,7,23,07:00,UTC,,1018.6,71,,,20.3,,30223,68.9,3.7,2.6
2016,7,23,08:00,UTC,,1018.5,62,,,21.7,,50000,50.4,4.1,1.9
2016,7,23,09:00,UTC,,1018.3,61,,,23.2,,25079,45.8,2.4,1.1
2016,7,23,10:00,UTC,,1018.1,57,,,23.4,,21401,19,3.3,1.6
2016,7,23,11:00,UTC,,1018,61,,,23.4,,29847,31.4,2.4,1.1
2016,7,23,12:00,UTC,,1017.9,67,,,22.9,,32708,6.7,3.2,1.8
2016,7,23,13:00,UTC,,1017.8,63,,,23.8,,18078,24.2,2.3,1.1
2016,7,23,14:00,UTC,,1017.5,60,,,24.5,,35952,33.4,2.7,1.3
2016,7,23,15:00,UTC,,1017.3,61,,,24.8,,21558,61.2,3.8,2.4
2016,7,23,16:00,UTC,,1017.4,69,,,23.4,,32624,34.5,2,1.3
2016,7,23,17:00,UTC,,1017.4,67,,,23.4,,25481,59.2,1.3,0.8
2016,7,23,18:00,UTC,,1017.4,71,,,22.3,,33794,4.1,2.3,1.3
2016,7,23,19:00,UTC,,1017.6,76,,,21.6,,28180,63.3,1.7,1.3
2016,7,23,20:00,UTC,,1017.8,82,,,19.9,,27931,59.2,2.6,1.9
2016,7,23,21:00,UTC,,1017.8,86,,,19,,30509,73.6,2.9,2.5
2016,7,23,22:00,UTC,,1017.9,92,,,17.3,,23655,68.4,2.2,1.9
2016,7,23,23:00,UTC,,1018,94,,,16.9,,19132,74.1,2.2,1.7
2016,7,24,00:00,UTC,,1018.1,95,,,16.4,,13835,66.9,2,1.5
2016,7,24,01:00,UTC,,1018.3,96,,,15.9,,11192,70,2.6,2.2
2016,7,24,02:00,UTC,,1018.1,97,,,15.2,,11430,67.9,2.3,1.9
2016,7,24,03:00,UTC,,1018,98,,,15.9,,9566,60.7,3.4,3
2016,7,24,04:00,UTC,,1017.9,96,,,16.7,,12207,68.4,3.5,2.9
2016,7,24,05:00,UTC,,1018,91,,,17.9,,14970,60.7,2.4,1.7
2016,7,24,06:00,UTC,,1018.1,90,,,18.3,,16932,70,3.3,2.5
2016,7,24,07:00,UTC,,1018.2,86,,,19.4,,15417,67.4,3.7,2.9
2016,7,24,08:00,UTC,,1018.1,82,,,21.2,,19582,76.1,3.5,2.5
2016,7,24,09:00,UTC,,1018.1,77,,,22.3,,34026,88.5,3.9,2.9
2016,7,24,10:00,UTC,,1018,67,,,24,,16881,55,2.4,1.2
2016,7,24,11:00,UTC,,1017.8,66,,,24.5,,21485,164.1,3.8,2.5
2016,7,24,12:00,UTC,,1017.7,63,,,24,,16145,2.6,3.3,1.6
2016,7,24,13:00,UTC,,1017.5,72,,,22.2,,18640,130.7,4.5,2.9
2016,7,24,14:00,UTC,,1017.2,79,,,21.7,,42018,124.5,2.9,2.2
2016,7,24,15:00,UTC,,1017,68,,,23.4,,17627,124,2.7,1.5
2016,7,24,16:00,UTC,,1016.9,74,,,23.2,,18838,136.3,4.6,3.7
2016,7,24,17:00,UTC,,1016.9,83,,,21.9,,17532,137.9,4.3,3.2
2016,7,24,18:00,UTC,,1016.9,87,,,21.7,,26145,125.5,2.2,1.9
2016,7,24,19:00,UTC,,1017.2,80,,,20.6,,38593,136.3,3.6,2.7
2016,7,24,20:00,UTC,,1017.3,86,,,19.3,,47275,131.2,2.7,2.3
2016,7,24,21:00,UTC,,1017.3,92,,,18.4,,46537,126,2.5,2.2
2016,7,24,22:00,UTC,,1017.1,96,,,18.1,,32850,139.9,2.4,1
2016,7,24,23:00,UTC,,1017,96,,,17.5,,40923,117.3,2.7,2.2
2016,7,25,00:00,UTC,,1016.8,93,,,17.5,,48719,124,2.2,1.7
2016,7,25,01:00,UTC,,1016.8,92,,,17.8,,50000,95.2,1.8,1.5
2016,7,25,02:00,UTC,,1016.8,92,,,17.7,,47718,96.7,2.1,1.5
2016,7,25,03:00,UTC,,1016.7,93,,,18.1,,40889,107.5,2.7,1.9
2016,7,25,04:00,UTC,,1016.7,93,,,18,,32896,107,3.8,2.6
2016,7,25,05:00,UTC,,1016.6,94,,,17.7,,23207,108.5,5.8,3
2016,7,25,06:00,UTC,,1016.5,89,,,18.2,,41122,117.8,3.5,2.5
2016,7,25,07:00,UTC,,1016.5,84,,,19.3,,26722,123,4.8,3.1
2016,7,25,08:00,UTC,,1016.4,78,,,20.4,,38680,129.6,3.9,2.1
2016,7,25,09:00,UTC,,1016.1,78,,,20.7,,31482,144.6,5.1,3.2
2016,7,25,10:00,UTC,,1015.8,78,,,20.8,,38797,148.7,5.5,4
2016,7,25,11:00,UTC,,1015.5,77,,,21.2,,23143,145.1,5.9,4.1
2016,7,25,12:00,UTC,,1015.2,78,,,21.2,,33858,154.3,4.8,3.7
2016,7,25,13:00,UTC,,1015.1,78,,,21.1,,24017,144.6,5.5,4.1
2016,7,25,14:00,UTC,,1014.8,80,,,20.8,,29638,150.7,5.8,4.2
2016,7,25,15:00,UTC,,1014.5,78,,,21.5,,33024,145.6,6.6,5.1
2016,7,25,16:00,UTC,,1014.5,74,,,21.5,,39864,142.5,6.2,4.7
2016,7,25,17:00,UTC,,1014.5,68,,,21.1,,45351,144.6,5.9,4.2
2016,7,25,18:00,UTC,,1014.4,70,,,20.1,,44073,144.6,4.5,3.2
2016,7,25,19:00,UTC,,1014.6,76,,,19.6,,46416,131.7,0.9,0.7
2016,7,25,20:00,UTC,,1014.5,85,,,17.2,,50000,102.9,0.4,0.2
2016,7,25,21:00,UTC,,1014.5,83,,,16.9,,48770,96.2,0.9,0.7
2016,7,25,22:00,UTC,,1014.5,88,,,16.4,,50000,82.3,4.3,2.5
2016,7,25,23:00,UTC,,1014.5,92,,,15.1,,50000,73.6,2.3,1.9
2016,7,26,00:00,UTC,,1014.5,97,,,14.1,,32131,63.3,2.5,2.1
2016,7,26,01:00,UTC,,1014.3,93,,,16.3,,42415,89,3.4,2.7
2016,7,26,02:00,UTC,,1014.2,97,,,14.2,,27336,68.4,2.9,2.4
2016,7,26,03:00,UTC,,1014.1,92,,,16,,47282,67.4,3.6,2
2016,7,26,04:00,UTC,,1013.9,86,,,18.2,,23429,83.9,4.2,2.3
2016,7,26,05:00,UTC,,1013.8,81,,,19.7,,45450,77.2,3.9,2.5
2016,7,26,06:00,UTC,,1013.7,75,,,21.7,,50000,90.5,4.2,2.5
2016,7,26,07:00,UTC,,1013.7,69,,,23,,34496,109.1,4,2.7
2016,7,26,08:00,UTC,,1013.6,60,,,24.1,,40661,123,5,2.8
2016,7,26,09:00,UTC,,1013.6,61,,,24.5,,33482,144,4.6,2.9
2016,7,26,10:00,UTC,,1013.6,59,,,24.8,,35811,149.2,6.1,4
2016,7,26,11:00,UTC,,1013.3,56,,,25.1,,50000,146.6,5.9,4.3
2016,7,26,12:00,UTC,,1012.9,55,,,24.7,,50000,142,6.6,4.7
2016,7,26,13:00,UTC,,1012.5,52,,,25.2,,50000,147.6,5.3,3.9
2016,7,26,14:00,UTC,,1012.1,47,,,25.5,,49209,144,6.4,4.1
2016,7,26,15:00,UTC,,1011.8,53,,,25.3,,18109,3.1,3.7,2.4
2016,7,26,16:00,UTC,,1011.6,58,,,24.6,,50000,8.2,3,1.7
2016,7,26,17:00,UTC,,1011.3,56,,,24.4,,50000,7.2,2.3,1.6
2016,7,26,18:00,UTC,,1011.3,56,,,24.6,,50000,181.6,1.4,0.9
2016,7,26,19:00,UTC,,1011.1,71,,,22.2,,43942,160.5,1.2,0.9
2016,7,26,20:00,UTC,,1011.1,85,,,20.8,,41612,182.1,1.4,0.9
2016,7,26,21:00,UTC,,1010.7,81,,,20.6,,50000,34,2.1,1.4
2016,7,26,22:00,UTC,,1010.5,78,,,19.9,,49736,73.1,3.7,2.8
2016,7,26,23:00,UTC,,1010.6,74,,,20.4,,50000,97.2,6.7,4.6
2016,7,27,00:00,UTC,,1009.8,81,,,19.2,,50000,119.4,2.8,2.3
2016,7,27,01:00,UTC,,1009.9,86,,,17.7,,50000,68.9,1.5,1.2
2016,7,27,02:00,UTC,,1010.2,84,,,18.1,,47810,84.9,2.4,1.7
2016,7,27,03:00,UTC,,1009.9,87,,,17.9,,50000,81.3,2.9,2.3
2016,7,27,04:00,UTC,,1010.1,93,,,18.8,,44312,107.5,2.8,1.8
2016,7,27,05:00,UTC,,1009.5,92,,,18,,17486,3.6,2.6,1.5
2016,7,27,06:00,UTC,,1009.3,86,,,19.1,,44002,41.7,2.2,0.9
2016,7,27,07:00,UTC,,1009.7,91,,,19.1,,36877,177,2.1,1.2
2016,7,27,08:00,UTC,,1009.6,83,,,20.3,,29729,170.3,1.5,0.9
2016,7,27,09:00,UTC,,1009.6,74,,,21.3,,34383,136.3,3.4,2.2
2016,7,27,10:00,UTC,,1009.6,69,,,21.9,,33028,137.9,3.4,2.2
2016,7,27,11:00,UTC,,1009.8,77,,,21.4,,41556,143.5,7.2,4.4
2016,7,27,12:00,UTC,,1009.7,70,,,21.8,,43387,141,8.7,6.7
2016,7,27,13:00,UTC,,1009.7,64,,,22,,47303,141,8.2,6
2016,7,27,14:00,UTC,,1009.5,61,,,22.3,,43536,142,9.1,6.3
2016,7,27,15:00,UTC,,1009.4,51,,,22.5,,50000,130.2,8.5,5.6
2016,7,27,16:00,UTC,,1009.3,58,,,22,,49194,129.1,7.5,5.5
2016,7,27,17:00,UTC,,1009.4,59,,,21.3,,50000,130.2,7,4.3
2016,7,27,18:00,UTC,,1009.4,67,,,20,,45121,128.1,6.7,4.7
2016,7,27,19:00,UTC,,1009.5,71,,,18.9,,48426,121.4,6.3,4
2016,7,27,20:00,UTC,,1009.6,74,,,18,,50000,119.9,4.7,3.1
2016,7,27,21:00,UTC,,1009.5,83,,,16.9,,50000,110.6,2.9,2.1
2016,7,27,22:00,UTC,,1009.4,88,,,16.7,,50000,103.4,4.9,3.1
2016,7,27,23:00,UTC,,1009.2,85,,,16.8,,50000,103.9,4.8,3.5
2016,7,28,00:00,UTC,,1008.9,86,,,16.4,,50000,101.9,4.4,3.1
2016,7,28,01:00,UTC,,1008.9,89,,,15.7,,50000,102.4,5.2,3.1
2016,7,28,02:00,UTC,,1009,90,,,15.6,,50000,102.4,6.3,4.1
2016,7,28,03:00,UTC,,1008.8,92,,,16,,50000,99.8,4.7,3
2016,7,28,04:00,UTC,,1008.9,92,,,16.6,,50000,98.8,4.6,3
2016,7,28,05:00,UTC,,1009,89,,,17.4,,50000,101.9,4.5,3
2016,7,28,06:00,UTC,,1009.1,85,,,18.1,,50000,96.7,3.8,2.8
2016,7,28,07:00,UTC,,1009.4,76,,,19.1,,44775,108,3.8,2.7
2016,7,28,08:00,UTC,,1009.5,77,,,19.7,,45617,96.7,4.5,3
2016,7,28,09:00,UTC,,1009.6,69,,,20.8,,31668,110.6,5.1,3.1
2016,7,28,10:00,UTC,,1009.7,58,,,22.1,,45370,118.3,4.6,2.1
2016,7,28,11:00,UTC,,1009.7,70,,,20.7,,50000,140.4,5.8,4.5
2016,7,28,12:00,UTC,,1009.6,77,,,21.1,,41233,148.7,5.4,4
2016,7,28,13:00,UTC,,1009.4,76,,,20.8,,49969,146.6,5.3,3.5
2016,7,28,14:00,UTC,,1009.3,69,,,20,,48491,148.2,2.9,2
2016,7,28,15:00,UTC,,1009.3,58,,,21.3,,50000,156.4,3.8,2.7
2016,7,28,16:00,UTC,,1009,61,,,20.7,,50000,156.9,2.9,1.6
2016,7,28,17:00,UTC,,1009,65,,,20.5,,50000,112.1,2.8,1.9
2016,7,28,18:00,UTC,,1008.6,72,,,18.9,,46888,74.6,4.6,2.6
2016,7,28,19:00,UTC,,1009,73,,,18.8,,50000,101.3,2.2,1.7
2016,7,28,20:00,UTC,,1009.2,85,,,16.8,,50000,70,3.1,2.4
2016,7,28,21:00,UTC,,1009,86,,,16.3,,50000,85.4,3.8,3
2016,7,28,22:00,UTC,,1009,93,,,13.8,,50000,65.3,1.6,1.1
2016,7,28,23:00,UTC,,1008.7,96,,,13.1,,50000,65.3,1.8,1.6
2016,7,29,00:00,UTC,,1008.9,96,,,12,,50000,84.9,2.1,1.7
2016,7,29,01:00,UTC,,1008.8,97,,,12.1,,50000,65.8,1.8,1.6
2016,7,29,02:00,UTC,,1008.9,96,,,13.1,,50000,67.9,2.5,2.1
2016,7,29,03:00,UTC,,1008.7,94,,,14,,49026,66.4,3.2,2
2016,7,29,04:00,UTC,,1008.5,93,,,14.7,,50000,63.8,1.8,1.4
2016,7,29,05:00,UTC,,1008.5,84,,,17.6,,46726,80.8,2.3,0.9
2016,7,29,06:00,UTC,,1008.4,87,,,17.5,,50000,68.4,2.1,1.7
2016,7,29,07:00,UTC,,1008.2,69,,,20.3,,45540,91.6,2.7,1.6
2016,7,29,08:00,UTC,,1008.3,63,,,21,,33463,105.5,3.9,2.2
2016,7,29,09:00,UTC,,1008.1,63,,,21.4,,46494,75.6,4.5,2.5
2016,7,29,10:00,UTC,,1007.8,72,,,21.3,,46138,18,3.4,1.7
2016,7,29,11:00,UTC,,1007.6,69,,,21.7,,50000,165.7,2,1.2
2016,7,29,12:00,UTC,,1007.4,83,,,20,,47160,163.6,4,3
2016,7,29,13:00,UTC,,1007.4,75,,,20.8,,50000,174.4,4.6,2.7
2016,7,29,14:00,UTC,,1007.1,65,,,22.1,,40057,165.1,3.1,2
2016,7,29,15:00,UTC,,1006.8,66,,,22,,36950,177,4,2.5
2016,7,29,16:00,UTC,,1006.8,68,,,21.5,,50000,170.3,4.1,2.3
2016,7,29,17:00,UTC,,1006.7,68,,,21.3,,32344,178.5,3.8,2.5
2016,7,29,18:00,UTC,,1006.6,70,,,20.8,,50000,1,2,1.3
2016,7,29,19:00,UTC,,1006.7,80,,,19.3,,50000,152.8,1.6,1.1
2016,7,29,20:00,UTC,,1006.7,87,,,17.8,,50000,157.9,1.7,1.4
2016,7,29,21:00,UTC,,1006.8,93,,,15.9,,50000,158.4,1.2,0.7
2016,7,29,22:00,UTC,,1006.8,92,,,15.2,,50000,11.8,0.8,0.3
2016,7,29,23:00,UTC,,1006.9,93,,,14.8,,50000,89,0.8,0.4
2016,7,30,00:00,UTC,,1006.5,92,,,14.6,,50000,57.6,2.1,1.2
2016,7,30,01:00,UTC,,1006.4,95,,,13.3,,37147,125.5,0.7,0.5
2016,7,30,02:00,UTC,,1006.2,97,,,13.4,,34155,166.2,1.4,1
2016,7,30,03:00,UTC,,1006.3,98,,,14.9,,29475,68.9,2.2,1.6
2016,7,30,04:00,UTC,,1006.1,92,,,16.7,,41813,58.1,1.5,1
2016,7,30,05:00,UTC,,1006.1,87,,,18.7,,50000,42.7,1.4,0.6
2016,7,30,06:00,UTC,,1005.8,80,,,20.1,,46013,19.5,2.3,1.3
2016,7,30,07:00,UTC,,1005.7,67,,,21.6,,39235,34,2.5,1.3
2016,7,30,08:00,UTC,,1005.5,60,,,22.3,,43191,33.4,4.2,2.4
2016,7,30,09:00,UTC,,1005.1,58,,,22.9,,41286,116.3,3.1,1.4
2016,7,30,10:00,UTC,,1004.8,60,,,23.4,,38074,180.1,2.4,1.6
2016,7,30,11:00,UTC,,1004.4,66,,,22.8,,50000,4.1,3.9,2.4
2016,7,30,12:00,UTC,,1004.1,52,,,22.4,,50000,68.4,6.2,3.6
2016,7,30,13:00,UTC,,1004.3,94,,,17.2,,22860,32.9,5.3,3.3
2016,7,30,14:00,UTC,,1003.9,84,,,19.4,,50000,36,2.6,1.6
2016,7,30,15:00,UTC,,1003.7,69,,,21.3,,35596,44.2,2.8,1.9
2016,7,30,16:00,UTC,,1003.3,67,,,21.7,,48820,6.2,2,1.5
2016,7,30,17:00,UTC,,1003.2,73,,,21.5,,36782,30.4,1.9,1.2
2016,7,30,18:00,UTC,,1002.8,69,,,21.2,,45520,26.2,1.8,1.1
2016,7,30,19:00,UTC,,1002.7,75,,,20.2,,50000,19,1.4,0.6
2016,7,30,20:00,UTC,,1002.5,86,,,18.2,,50000,66.4,0.8,0.4
2016,7,30,21:00,UTC,,1002.3,94,,,16.1,,38507,174.9,1,0.6
2016,7,30,22:00,UTC,,1002.3,97,,,15.5,,50000,25.7,0.5,0.2
2016,7,30,23:00,UTC,,1001.9,98,,,15.9,,38081,17.5,1.3,0.9
2016,7,31,00:00,UTC,,1001.7,98,,,15.9,,16276,61.2,0.8,0.4
2016,7,31,01:00,UTC,,1001.6,97,,,15.6,,38581,67.9,1.7,1.4
2016,7,31,02:00,UTC,,1001.4,97,,,15.2,,29215,50.9,2.7,1.6
2016,7,31,03:00,UTC,,1001.2,95,,,16.1,,35763,58.1,3.1,2.2
2016,7,31,04:00,UTC,,1001.2,93,,,15.9,,42608,58.1,3.5,2.7
2016,7,31,05:00,UTC,,1001,93,,,16.2,,37229,65.8,3.3,2.5
2016,7,31,06:00,UTC,,1001,92,,,17.2,,44144,70.5,2.9,1.9
2016,7,31,07:00,UTC,,1001,89,,,18,,33580,77.7,1.5,0.7
2016,7,31,08:00,UTC,,1001.4,90,,,18.3,,36941,90.5,1.9,1
2016,7,31,09:00,UTC,,1001.4,90,,,18.4,,13300,70.5,1.7,1.2
2016,7,31,10:00,UTC,,1000.9,86,,,18.8,,50000,65.3,1.2,0.5
2016,7,31,11:00,UTC,,1001,78,,,20.3,,50000,15.9,2.1,1.1
2016,7,31,12:00,UTC,,1000.7,75,,,21.2,,44758,70,1.8,0.9
2016,7,31,13:00,UTC,,1001.1,49,,,22.1,,43184,58.1,3.1,1.5
2016,7,31,14:00,UTC,,1000.9,67,,,20.6,,50000,59.7,6.5,5
2016,7,31,15:00,UTC,,1000.9,95,,,16.8,,14385,61.2,5.2,4.2
2016,7,31,16:00,UTC,,1001.3,94,,,17.3,,26478,79.7,3.2,1.5
2016,7,31,17:00,UTC,,1000.8,94,,,17.3,,11913,75.1,1.7,0.8
2016,7,31,18:00,UTC,,1000.9,94,,,17.1,,40396,53,2.8,1.5
2016,7,31,19:00,UTC,,1000.8,96,,,16.8,,50000,72.5,4.6,3.4
2016,7,31,20:00,UTC,,1001.1,97,,,16.3,,37551,72,4.3,3.4
2016,7,31,21:00,UTC,,1001.3,98,,,16.3,,23422,78.2,4.1,3.1
2016,7,31,22:00,UTC,,1000.9,94,,,16.3,,46536,107.5,5.5,2.9
2016,7,31,23:00,UTC,,1001,93,,,16.1,,50000,106.5,4.1,2.8
2016,8,1,00:00,UTC,,1001.3,97,,,15.7,,50000,96.7,4.3,2.9
2016,8,1,01:00,UTC,,1001.1,95,,,15.4,,46966,95.2,4.7,3.1
2016,8,1,02:00,UTC,,1001.4,96,,,14.9,,50000,93.6,4.3,3.1
2016,8,1,03:00,UTC,,1001.5,95,,,14.7,,46379,89,4,2.6
2016,8,1,04:00,UTC,,1001.7,94,,,15.2,,50000,95.7,5.3,3.4
2016,8,1,05:00,UTC,,1001.9,90,,,16.5,,33571,99.8,5.9,3.8
2016,8,1,06:00,UTC,,1002,80,,,17.5,,49881,102.4,8.4,5
2016,8,1,07:00,UTC,,1002,70,,,18.7,,44682,100.3,7.9,5.1
2016,8,1,08:00,UTC,,1002.4,67,,,18.7,,50000,109.1,8.8,5.4
2016,8,1,09:00,UTC,,1002.8,65,,,19.3,,50000,107.5,7.1,4.8
2016,8,1,10:00,UTC,,1003.5,64,,,19.8,,49958,124.5,8.5,6
2016,8,1,11:00,UTC,,1003.6,64,,,20.4,,46169,124,8.1,5.6
2016,8,1,12:00,UTC,,1003.7,64,,,20.4,,50000,127.1,7.9,5.8
2016,8,1,13:00,UTC,,1003.8,58,,,20.9,,39459,129.6,9.4,6.4
2016,8,1,14:00,UTC,,1003.8,49,,,20.6,,50000,131.7,9,6.5
2016,8,1,15:00,UTC,,1003.6,54,,,19.9,,48007,134.3,4.9,3.4
2016,8,1,16:00,UTC,,1003.3,49,,,20.1,,50000,130.2,5.5,3.8
2016,8,1,17:00,UTC,,1003.5,49,,,19.6,,50000,131.2,4.6,3.2
2016,8,1,18:00,UTC,,1003.5,57,,,18.5,,48381,123.5,3.1,2.1
2016,8,1,19:00,UTC,,1003.4,62,,,17.8,,50000,107,2.1,1.5
2016,8,1,20:00,UTC,,1003.5,78,,,14.7,,50000,60.7,2.8,2.2
2016,8,1,21:00,UTC,,1003.6,80,,,13.8,,50000,70,2.2,1.8
2016,8,1,22:00,UTC,,1003.4,87,,,13.9,,50000,67.9,2.7,2
2016,8,1,23:00,UTC,,1003.3,91,,,13.7,,50000,73.1,2.5,2
2016,8,2,00:00,UTC,,1003.1,93,,,13,,50000,77.7,1.1,0.7
2016,8,2,01:00,UTC,,1002.9,95,,,12.4,,50000,72,1.1,0.5
2016,8,2,02:00,UTC,,1003.2,96,,,12.1,,50000,75.1,1.5,1
2016,8,2,03:00,UTC,,1003.2,91,,,13,,50000,71,2.2,1.8
2016,8,2,04:00,UTC,,1002.9,89,,,13.9,,50000,72,2,1.4
2016,8,2,05:00,UTC,,1003,90,,,14.4,,46265,78.2,2.2,1.7
2016,8,2,06:00,UTC,,1003.2,96,,,13.4,,42191,66.9,5.2,4
2016,8,2,07:00,UTC,,1003.2,96,,,14.3,,50000,74.1,2.7,1.9
2016,8,2,08:00,UTC,,1003.1,85,,,15.6,,48267,63.3,5.9,4.2
2016,8,2,09:00,UTC,,1002.4,69,,,18.3,,33985,78.7,6,4.2
2016,8,2,10:00,UTC,,1002.9,63,,,16.9,,48820,136.8,3.2,1.9
2016,8,2,11:00,UTC,,1002.8,74,,,16.1,,50000,164.1,5.5,3.3
2016,8,2,12:00,UTC,,1003.1,88,,,15.5,,50000,162.6,2.6,1.9
2016,8,2,13:00,UTC,,1003.9,94,,,14.3,,50000,47.8,4,2.8
2016,8,2,14:00,UTC,,1003.5,92,,,15.8,,48924,41.7,3,2.1
2016,8,2,15:00,UTC,,1003.6,90,,,16.2,,41289,29.3,1.7,0.8
2016,8,2,16:00,UTC,,1003.3,81,,,17.3,,34580,90.5,3.9,2.9
2016,8,2,17:00,UTC,,1003.6,70,,,17.3,,50000,136.3,3.1,2.5
2016,8,2,18:00,UTC,,1003.8,77,,,16.3,,50000,131.7,4,2.9
2016,8,2,19:00,UTC,,1004.3,83,,,14.6,,50000,116.8,2.2,1.7
2016,8,2,20:00,UTC,,1004.6,87,,,14,,50000,91.6,2.1,1.7
2016,8,2,21:00,UTC,,1004.6,91,,,12.4,,50000,76.1,3.5,3
2016,8,2,22:00,UTC,,1004.9,90,,,12.3,,50000,81.8,3.2,2.5
2016,8,2,23:00,UTC,,1004.8,95,,,11.8,,48723,81.8,4.1,3.1
2016,8,3,00:00,UTC,,1004.9,96,,,11.3,,49601,79.2,4.3,3.2
2016,8,3,01:00,UTC,,1005.2,97,,,11,,49861,82.3,3.5,3
2016,8,3,02:00,UTC,,1005.2,98,,,10,,48124,72,3.9,3
2016,8,3,03:00,UTC,,1005.3,95,,,11.5,,47776,82.3,4.5,3.2
2016,8,3,04:00,UTC,,1005.3,93,,,12.1,,50000,80.8,4.3,3.3
2016,8,3,05:00,UTC,,1005.4,89,,,14,,44157,82.3,4.7,3.7
2016,8,3,06:00,UTC,,1005.3,82,,,14.8,,50000,81.8,6.9,4.9
2016,8,3,07:00,UTC,,1005.2,73,,,16.9,,28893,88,6.3,4.3
2016,8,3,08:00,UTC,,1005.4,64,,,17.6,,50000,97.2,8.4,5.3
2016,8,3,09:00,UTC,,1005.1,57,,,18.1,,33725,107.5,6.1,4
2016,8,3,10:00,UTC,,1004.7,61,,,18.8,,50000,86.4,6.6,4.2
2016,8,3,11:00,UTC,,1005,76,,,17.2,,18739,89.5,5.9,3.8
2016,8,3,12:00,UTC,,1005.8,86,,,15.3,,48974,110.1,3.9,2.6
2016,8,3,13:00,UTC,,1006,89,,,15.4,,50000,84.4,4.9,3.2
2016,8,3,14:00,UTC,,1005.9,92,,,14.2,,26283,100.3,3.1,2.1
2016,8,3,15:00,UTC,,1005.6,89,,,15.5,,33767,76.7,4.1,3.2
2016,8,3,16:00,UTC,,1005.1,84,,,16.7,,38481,68.9,4.3,3.2
2016,8,3,17:00,UTC,,1005,77,,,16.9,,50000,85.4,3.6,2.6
2016,8,3,18:00,UTC,,1005.1,76,,,16.4,,50000,85.9,2.8,2
2016,8,3,19:00,UTC,,1005.3,85,,,14.7,,50000,79.2,2.8,2.1
2016,8,3,20:00,UTC,,1005.4,88,,,13.7,,50000,73.6,4,3.1
2016,8,3,21:00,UTC,,1005.6,93,,,13,,50000,76.1,4.3,3
2016,8,3,22:00,UTC,,1005.7,94,,,13.2,,50000,80.3,5.1,3.5
2016,8,3,23:00,UTC,,1005.5,96,,,12.2,,50000,83.9,3.9,3.2
2016,8,4,00:00,UTC,,1005.7,96,,,11.9,,50000,80.8,3.9,2.5
2016,8,4,01:00,UTC,,1005.5,93,,,12.7,,50000,91.6,4.7,3
2016,8,4,02:00,UTC,,1005.6,95,,,11.6,,45584,77.7,3.3,2.5
2016,8,4,03:00,UTC,,1005.5,94,,,12.5,,49064,89.5,3.8,2.6
2016,8,4,04:00,UTC,,1005.3,91,,,13.7,,43566,89.5,4.4,2.9
2016,8,4,05:00,UTC,,1005.3,89,,,14.4,,43656,84.9,4.5,3.4
2016,8,4,06:00,UTC,,1005.3,83,,,16.1,,45254,85.4,5.9,3.1
2016,8,4,07:00,UTC,,1005.4,76,,,17.6,,32492,79.2,6.1,4.3
2016,8,4,08:00,UTC,,1005.2,70,,,18.2,,36038,93.1,6.4,4.4
2016,8,4,09:00,UTC,,1005.1,58,,,19.6,,30015,92.1,6.5,3.7
2016,8,4,10:00,UTC,,1004.8,57,,,20.8,,43370,89,7.5,4.8
2016,8,4,11:00,UTC,,1004.7,53,,,20.9,,50000,98.3,7.2,4.9
2016,8,4,12:00,UTC,,1004.4,50,,,20.7,,34157,92.1,6.3,4.6
2016,8,4,13:00,UTC,,1004,50,,,21.1,,39440,88.5,5.3,3.5
2016,8,4,14:00,UTC,,1004.5,85,,,16.5,,7830,91.6,11.5,7.1
2016,8,4,15:00,UTC,,1004.2,92,,,15,,43114,148.7,2.4,1.8
2016,8,4,16:00,UTC,,1004,91,,,16,,42110,28.3,2,1.2
2016,8,4,17:00,UTC,,1004.2,87,,,15.4,,50000,84.9,7.3,4.2
2016,8,4,18:00,UTC,,1004,91,,,15,,38949,86.4,4.5,2.8
2016,8,4,19:00,UTC,,1003.7,93,,,14.6,,50000,56.6,3.9,2.8
2016,8,4,20:00,UTC,,1003.3,95,,,14.1,,48438,39.1,5.2,3.3
2016,8,4,21:00,UTC,,1003,96,,,13.6,,35085,42.2,4.6,3
2016,8,4,22:00,UTC,,1002.5,97,,,13.5,,30652,39.6,5.7,3.5
2016,8,4,23:00,UTC,,1002.2,96,,,13.6,,50000,36.5,6.2,3.4
2016,8,5,00:00,UTC,,1002,98,,,13.6,,23171,35,4.1,2.4
2016,8,5,01:00,UTC,,1002,98,,,13.7,,41455,40.1,3.3,2.1
2016,8,5,02:00,UTC,,1002.1,98,,,13.8,,50000,30.9,3.3,2
2016,8,5,03:00,UTC,,1002.1,98,,,14.3,,43685,30.9,2.9,1.7
2016,8,5,04:00,UTC,,1002.4,98,,,14.3,,45277,31.4,3.2,1.9
2016,8,5,05:00,UTC,,1002.8,97,,,14.7,,50000,33.4,3,1.8
2016,8,5,06:00,UTC,,1003,96,,,15.2,,45351,7.7,3.1,2
2016,8,5,07:00,UTC,,1003.6,94,,,15.3,,45183,181.6,3.6,2
2016,8,5,08:00,UTC,,1004.3,91,,,15.9,,47878,182.1,3.1,1.7
2016,8,5,09:00,UTC,,1004.9,92,,,15.7,,45098,178.5,4.4,2.7
2016,8,5,10:00,UTC,,1005.7,86,,,16.7,,50000,173.4,3.6,2.5
2016,8,5,11:00,UTC,,1006.2,81,,,17.6,,40983,156.9,6.2,4.6
2016,8,5,12:00,UTC,,1006.5,73,,,18.4,,49237,149.2,7.2,4.7
2016,8,5,13:00,UTC,,1006.9,67,,,19.2,,49071,160.5,6.1,4.5
2016,8,5,14:00,UTC,,1007.3,61,,,19.4,,39324,150.2,6.5,4.5
2016,8,5,15:00,UTC,,1007.7,66,,,18.6,,46098,136.3,8.4,5.7
2016,8,5,16:00,UTC,,1007.9,76,,,18.2,,43312,137.9,7.9,5.4
2016,8,5,17:00,UTC,,1008.5,76,,,17.9,,50000,138.4,6,4.3
2016,8,5,18:00,UTC,,1008.8,80,,,17.3,,50000,132.7,3.4,2.5
2016,8,5,19:00,UTC,,1009.1,87,,,15.7,,50000,121.4,2.3,1.8
2016,8,5,20:00,UTC,,1009.4,93,,,13,,50000,118.8,1.8,1.4
2016,8,5,21:00,UTC,,1009.5,96,,,12.4,,50000,66.4,1.7,1.1
2016,8,5,22:00,UTC,,1009.8,96,,,12.1,,50000,70,2,1.9
2016,8,5,23:00,UTC,,1009.7,99,,,11.3,,50000,64.8,2.2,1.9
2016,8,6,00:00,UTC,,1009.7,98,,,11,,50000,65.8,2.5,2.2
2016,8,6,01:00,UTC,,1009.7,97,,,10.7,,50000,68.4,2.7,2.4
2016,8,6,02:00,UTC,,1009.7,95,,,10.4,,50000,66.4,3.4,2.8
2016,8,6,03:00,UTC,,1009.8,94,,,11.1,,48385,63.8,2.7,2.1
2016,8,6,04:00,UTC,,1009.8,89,,,12.9,,46166,66.4,4,3.3
2016,8,6,05:00,UTC,,1009.8,84,,,14.8,,42496,66.4,3.7,3
2016,8,6,06:00,UTC,,1009.7,77,,,17.1,,25502,67.4,4.8,3.5
2016,8,6,07:00,UTC,,1009.6,69,,,18.7,,37765,65.8,5.2,3.9
2016,8,6,08:00,UTC,,1009.6,62,,,20.4,,41405,67.4,7,4.5
2016,8,6,09:00,UTC,,1009.4,63,,,20.5,,42483,74.1,8.1,5.7
2016,8,6,10:00,UTC,,1009.4,62,,,20.4,,42206,61.7,7.2,5.2
2016,8,6,11:00,UTC,,1009.1,62,,,21.1,,30186,74.1,5.2,3.4
2016,8,6,12:00,UTC,,1009.2,65,,,20.5,,47883,90,3.2,2.3
2016,8,6,13:00,UTC,,1009,68,,,20.2,,50000,90,4.4,2.1
2016,8,6,14:00,UTC,,1008.8,67,,,20.3,,50000,100.8,4.8,2.2
2016,8,6,15:00,UTC,,1008.8,70,,,20.8,,44252,114.2,3.3,1.5
2016,8,6,16:00,UTC,,1008.8,73,,,19.8,,50000,125,1.9,1.3
2016,8,6,17:00,UTC,,1008.5,75,,,20,,47272,149.7,3,1.9
2016,8,6,18:00,UTC,,1009.2,79,,,19.4,,50000,115.7,1.8,1.2
2016,8,6,19:00,UTC,,1009.2,92,,,17.1,,50000,127.1,1.6,1.4
2016,8,6,20:00,UTC,,1009.1,94,,,15.8,,50000,123,0.9,0.6
2016,8,6,21:00,UTC,,1009,94,,,15.3,,50000,88.5,0.9,0.8
2016,8,6,22:00,UTC,,1009.3,95,,,15.7,,50000,108.5,2.3,2
2016,8,6,23:00,UTC,,1009.2,96,,,13.2,,39062,110.6,2.4,1.3
2016,8,7,00:00,UTC,,1009.1,98,,,15.3,,45738,98.8,2.1,1.6
2016,8,7,01:00,UTC,,1009,98,,,14.1,,50000,63.8,1.5,1.2
2016,8,7,02:00,UTC,,1008.9,98,,,13.8,,50000,76.1,2.5,2
2016,8,7,03:00,UTC,,1008.7,98,,,13.9,,49098,66.4,1.9,1.2
2016,8,7,04:00,UTC,,1008.7,98,,,13.8,,29997,67.9,2.6,2.3
2016,8,7,05:00,UTC,,1008.5,94,,,15.7,,50000,83.3,3,2.2
2016,8,7,06:00,UTC,,1008.3,89,,,17.4,,42906,86.9,3.4,2
2016,8,7,07:00,UTC,,1008.2,87,,,18.1,,36095,90.5,3.1,2.3
2016,8,7,08:00,UTC,,1007.8,72,,,19.6,,46645,103.9,5.3,3.5
2016,8,7,09:00,UTC,,1007.7,86,,,18,,48142,97.2,3.4,2.3
2016,8,7,10:00,UTC,,1007.7,89,,,17.9,,10359,131.2,6.3,4.9
2016,8,7,11:00,UTC,,1007.6,81,,,18.8,,50000,128.1,4.3,2.9
2016,8,7,12:00,UTC,,1007.4,81,,,18.5,,50000,140.4,6.9,5.2
2016,8,7,13:00,UTC,,1007.2,78,,,19.4,,50000,132.7,7.4,5
2016,8,7,14:00,UTC,,1007.1,75,,,19.4,,43098,142.5,6.8,5.4
2016,8,7,15:00,UTC,,1006.9,75,,,19.3,,41128,140.4,6.5,4.5
2016,8,7,16:00,UTC,,1006.7,79,,,19,,45708,145.6,5.3,4.1
2016,8,7,17:00,UTC,,1006.4,79,,,19,,50000,141.5,2.7,2
2016,8,7,18:00,UTC,,1006.2,80,,,18.3,,50000,133.2,1.8,1.3
2016,8,7,19:00,UTC,,1006,90,,,15.6,,50000,68.9,1.6,1.2
2016,8,7,20:00,UTC,,1005.9,91,,,14.2,,50000,95.7,2.1,1.5
2016,8,7,21:00,UTC,,1005.6,89,,,15.6,,50000,104.4,2.1,1.7
2016,8,7,22:00,UTC,,1005.3,90,,,15.7,,50000,84.4,3,2.2
2016,8,7,23:00,UTC,,1005,96,,,13,,50000,75.1,2.2,1.9
2016,8,8,00:00,UTC,,1004.5,97,,,11.7,,50000,68.4,2.7,2.2
2016,8,8,01:00,UTC,,1004.3,97,,,11.3,,50000,86.9,2.4,1.7
2016,8,8,02:00,UTC,,1003.5,98,,,10.6,,35903,64.8,3.1,2.9
2016,8,8,03:00,UTC,,1003.1,97,,,12.1,,50000,66.9,4,2.6
2016,8,8,04:00,UTC,,1002.8,93,,,13.7,,38567,76.1,3.5,2.8
2016,8,8,05:00,UTC,,1002.4,87,,,15.5,,38880,83.9,4.5,2.9
2016,8,8,06:00,UTC,,1001.8,81,,,17.1,,44462,91.6,4.9,3.5
2016,8,8,07:00,UTC,,1001.4,76,,,18.2,,40671,84.4,5.7,3.8
2016,8,8,08:00,UTC,,1000.8,71,,,19.1,,49755,85.4,6.4,4.4
2016,8,8,09:00,UTC,,1000.2,64,,,20.7,,43564,83.9,8.1,5.9
2016,8,8,10:00,UTC,,999.7,62,,,20.9,,47958,87.5,7.8,5.7
2016,8,8,11:00,UTC,,999.3,59,,,21.3,,50000,93.6,9.2,6.4
2016,8,8,12:00,UTC,,999,60,,,20.8,,46750,92.1,9.9,6
2016,8,8,13:00,UTC,,998.6,66,,,20.8,,50000,95.2,7.6,5.3
2016,8,8,14:00,UTC,,997.9,67,,,20.4,,50000,90.5,8.5,5.4
2016,8,8,15:00,UTC,,997.4,66,,,20.1,,44362,92.6,7.4,4.6
2016,8,8,16:00,UTC,,997,63,,,20.5,,50000,96.2,10.4,4.7
2016,8,8,17:00,UTC,,996.7,67,,,19.6,,50000,85.9,7.2,3.8
2016,8,8,18:00,UTC,,996.3,72,,,18.9,,50000,80.3,4.5,3.2
2016,8,8,19:00,UTC,,995.8,74,,,18.4,,50000,72,5.1,3.7
2016,8,8,20:00,UTC,,995.4,77,,,18,,50000,76.7,5.2,3.6
2016,8,8,21:00,UTC,,995.3,80,,,17.4,,48395,86.9,4,2.8
2016,8,8,22:00,UTC,,994.7,83,,,16.6,,45577,77.7,4.5,3.1
2016,8,8,23:00,UTC,,994.3,81,,,16.8,,37431,89,6.2,4
2016,8,9,00:00,UTC,,993.5,80,,,16.5,,47444,81.8,6.1,3.9
2016,8,9,01:00,UTC,,993,81,,,15.8,,49438,83.9,7,4.6
2016,8,9,02:00,UTC,,992.6,82,,,15.7,,47640,84.4,6.9,4.7
2016,8,9,03:00,UTC,,992.3,84,,,15.4,,50000,81.3,7.8,5
2016,8,9,04:00,UTC,,992.1,85,,,15.4,,50000,80.8,7.8,5.2
2016,8,9,05:00,UTC,,991.8,83,,,16.2,,50000,85.9,7.4,4.8
2016,8,9,06:00,UTC,,991.7,75,,,17.2,,35943,93.6,10.2,6.7
2016,8,9,07:00,UTC,,991.7,74,,,17.6,,35476,91.1,8.1,5.2
2016,8,9,08:00,UTC,,991.8,68,,,18.1,,50000,92.6,10.3,6.4
2016,8,9,09:00,UTC,,992.2,68,,,17.8,,41291,101.9,9.3,6
2016,8,9,10:00,UTC,,992.7,79,,,16.9,,37781,107.5,10.3,6.8
2016,8,9,11:00,UTC,,993.1,68,,,18.4,,46672,104.4,9.7,6.2
2016,8,9,12:00,UTC,,993.5,87,,,16,,41942,99.3,5.7,4.1
2016,8,9,13:00,UTC,,993.5,59,,,18.5,,41382,111.1,8.7,5.8
2016,8,9,14:00,UTC,,993.5,58,,,18.4,,50000,104.9,9.8,5.8
2016,8,9,15:00,UTC,,993.7,74,,,16.4,,49308,92.6,7.9,3.7
2016,8,9,16:00,UTC,,993.9,58,,,17.8,,40034,100.8,7.9,5.1
2016,8,9,17:00,UTC,,994.4,55,,,16.8,,50000,102.4,12,7.7
2016,8,9,18:00,UTC,,994.7,60,,,15,,50000,92.6,10.5,6.7
2016,8,9,19:00,UTC,,995.2,73,,,13.3,,50000,94.7,10.6,6.6
2016,8,9,20:00,UTC,,995.3,84,,,12.4,,50000,89,9.3,5.9
2016,8,9,21:00,UTC,,995.1,88,,,12,,50000,83.9,8.6,5.4
2016,8,9,22:00,UTC,,994.9,86,,,12.6,,50000,81.3,8.6,6
2016,8,9,23:00,UTC,,994.8,92,,,12.5,,21757,85.4,8.3,5.6
2016,8,10,00:00,UTC,,995,93,,,12.7,,50000,91.1,8.5,6
2016,8,10,01:00,UTC,,995,94,,,12.8,,13851,91.1,8.9,5.8
2016,8,10,02:00,UTC,,995.5,94,,,12.9,,50000,94.1,7.6,5.2
2016,8,10,03:00,UTC,,996.1,93,,,13.3,,50000,100.3,7.9,5
2016,8,10,04:00,UTC,,996.6,95,,,13.3,,8482,100.8,8.8,5.1
2016,8,10,05:00,UTC,,998.1,90,,,13.6,,50000,137.9,8.9,6.2
2016,8,10,06:00,UTC,,999.8,85,,,13.2,,50000,137.4,8.3,6
2016,8,10,07:00,UTC,,1001.2,83,,,13.9,,50000,139.9,7.2,5
2016,8,10,08:00,UTC,,1002.4,80,,,14.3,,50000,131.2,6.2,4.5
2016,8,10,09:00,UTC,,1003.4,75,,,15.3,,50000,129.1,7.4,4.9
2016,8,10,10:00,UTC,,1004.1,70,,,15.5,,49043,141.5,5.8,4.4
2016,8,10,11:00,UTC,,1004.4,70,,,15.8,,40458,157.4,4.2,3
2016,8,10,12:00,UTC,,1004.7,67,,,16.3,,50000,120.9,2.6,1.4
2016,8,10,13:00,UTC,,1005.4,93,,,13.3,,28392,114.7,4.3,2
2016,8,10,14:00,UTC,,1005.3,92,,,14.3,,45779,88,5,3.1
2016,8,10,15:00,UTC,,1005.4,87,,,15,,50000,93.6,6.7,4.3
2016,8,10,16:00,UTC,,1005.9,86,,,13.3,,50000,108,6.5,4
2016,8,10,17:00,UTC,,1005.9,88,,,13.1,,45725,135.3,3.2,2
2016,8,10,18:00,UTC,,1006,95,,,12.4,,50000,65.3,2.5,1.6
2016,8,10,19:00,UTC,,1006,95,,,11.4,,50000,49.9,2.3,1.8
2016,8,10,20:00,UTC,,1006.1,91,,,12.2,,50000,56.1,5.7,3.8
2016,8,10,21:00,UTC,,1006.1,93,,,11.7,,50000,67.9,3.5,2.9
2016,8,10,22:00,UTC,,1006.3,86,,,12.7,,50000,85.9,5.6,3.7
2016,8,10,23:00,UTC,,1006.3,89,,,11.5,,50000,78.2,5,3.4
2016,8,11,00:00,UTC,,1006.5,89,,,10.9,,49814,77.7,5.4,4
2016,8,11,01:00,UTC,,1006.5,88,,,10.7,,50000,75.1,6,4.1
2016,8,11,02:00,UTC,,1006.3,90,,,10.3,,48759,70,4.8,3.4
2016,8,11,03:00,UTC,,1006.2,90,,,10.7,,50000,70,5.3,4.1
2016,8,11,04:00,UTC,,1006.2,89,,,11.5,,50000,74.1,5.8,4.2
2016,8,11,05:00,UTC,,1006.1,86,,,11.9,,50000,78.7,5.6,4.2
2016,8,11,06:00,UTC,,1005.9,85,,,12.5,,50000,84.4,4.9,2.9
2016,8,11,07:00,UTC,,1005.8,81,,,12.9,,41980,78.2,6.1,4.4
2016,8,11,08:00,UTC,,1005.8,78,,,13.7,,50000,78.2,6.2,4.3
2016,8,11,09:00,UTC,,1005.3,77,,,14.5,,50000,77.7,5.8,4.1
2016,8,11,10:00,UTC,,1004.8,71,,,15.2,,50000,69.4,5.9,4.5
2016,8,11,11:00,UTC,,1004.4,65,,,16.5,,48167,70.5,7.8,4.9
2016,8,11,12:00,UTC,,1004.3,64,,,15.9,,39490,65.3,8.7,6
2016,8,11,13:00,UTC,,1004.1,63,,,16.7,,26077,75.6,7.5,5.3
2016,8,11,14:00,UTC,,1004.2,70,,,15.6,,50000,78.7,7.7,5.6
2016,8,11,15:00,UTC,,1004.2,68,,,15.9,,50000,184.7,2.4,1
2016,8,11,16:00,UTC,,1004,66,,,15.3,,46728,24.7,1.3,0.8
2016,8,11,17:00,UTC,,1003.8,86,,,13.5,,50000,27.3,1.8,1.2
2016,8,11,18:00,UTC,,1003.7,89,,,12.8,,50000,45.3,2.4,1.5
2016,8,11,19:00,UTC,,1003.6,91,,,12.4,,50000,55.6,1.7,1
2016,8,11,20:00,UTC,,1003.2,93,,,11.7,,50000,53.5,3,2.3
2016,8,11,21:00,UTC,,1003.2,98,,,10.4,,50000,64.8,3,2.1
2016,8,11,22:00,UTC,,1002.8,97,,,8.8,,50000,62.8,3.3,2.5
2016,8,11,23:00,UTC,,1002.5,97,,,9.7,,50000,63.8,4.2,3.4
2016,8,12,00:00,UTC,,1002.3,97,,,9.8,,50000,74.6,4.9,3.4
2016,8,12,01:00,UTC,,1002.1,97,,,9.8,,50000,78.2,4.4,3.1
2016,8,12,02:00,UTC,,1001.9,97,,,9.9,,50000,79.2,5.3,3.9
2016,8,12,03:00,UTC,,1001.7,96,,,10.6,,50000,83.3,5.5,3.9
2016,8,12,04:00,UTC,,1001.8,94,,,11.4,,13300,103.4,7.9,4.8
2016,8,12,05:00,UTC,,1002.1,95,,,11,,15313,114.7,10.3,6.6
2016,8,12,06:00,UTC,,1002.7,94,,,11,,43509,110.1,7.5,4.8
2016,8,12,07:00,UTC,,1003.5,95,,,10,,6181,103.9,9.6,6.3
2016,8,12,08:00,UTC,,1004,93,,,10.1,,50000,106,9,5.8
2016,8,12,09:00,UTC,,1004.1,86,,,11.1,,50000,110.1,8.1,5
2016,8,12,10:00,UTC,,1004.5,77,,,12.1,,44508,121.9,10.4,6.4
2016,8,12,11:00,UTC,,1004.7,73,,,13.2,,50000,101.9,8.5,6.3
2016,8,12,12:00,UTC,,1004.5,69,,,14.2,,49264,107.5,8.2,5.4
2016,8,12,13:00,UTC,,1004.5,58,,,14.6,,33674,119.4,10.2,6.7
2016,8,12,14:00,UTC,,1004.6,68,,,13.9,,50000,119.9,9.2,6.2
2016,8,12,15:00,UTC,,1004.7,65,,,13.9,,50000,120.4,11.7,7.5
2016,8,12,16:00,UTC,,1004.4,66,,,14.1,,49848,117.3,8.9,6.2
2016,8,12,17:00,UTC,,1004.6,65,,,13.6,,41512,116.8,9.8,6.2
2016,8,12,18:00,UTC,,1004.7,69,,,12.9,,50000,115.2,7.9,4.8
2016,8,12,19:00,UTC,,1004.7,74,,,11.9,,50000,102.4,8.5,5.8
2016,8,12,20:00,UTC,,1004.7,79,,,11,,50000,101.9,8.5,5.8
2016,8,12,21:00,UTC,,1004.8,81,,,10.3,,50000,100.8,8.5,5.3
2016,8,12,22:00,UTC,,1004.7,81,,,9.8,,50000,100.3,7.8,4.8
2016,8,12,23:00,UTC,,1004.4,81,,,9.4,,50000,96.2,7.2,4.3
2016,8,13,00:00,UTC,,1004.4,85,,,8.6,,50000,89,5.4,3.7
2016,8,13,01:00,UTC,,1004.3,87,,,8.6,,50000,88,5.7,3.9
2016,8,13,02:00,UTC,,1004.3,91,,,7.6,,50000,84.4,4.4,3.3
2016,8,13,03:00,UTC,,1004.1,91,,,8.6,,45824,72,4.1,2.8
2016,8,13,04:00,UTC,,1003.9,87,,,10.2,,50000,84.4,7.3,5
2016,8,13,05:00,UTC,,1004,85,,,10.4,,50000,81.8,5.7,4.1
2016,8,13,06:00,UTC,,1003.8,85,,,10.8,,40190,70.5,6.6,5.1
2016,8,13,07:00,UTC,,1003.7,92,,,10.4,,40385,68.9,6.4,5
2016,8,13,08:00,UTC,,1003,94,,,10.7,,29973,61.2,9,6.7
2016,8,13,09:00,UTC,,1002.2,94,,,10.8,,14430,55.6,9.9,6.5
2016,8,13,10:00,UTC,,1001.4,95,,,11,,19565,54,9.7,7.3
2016,8,13,11:00,UTC,,1000.6,96,,,11.3,,14608,54,10.1,7.4
2016,8,13,12:00,UTC,,999.7,96,,,11.9,,6757,59.7,10.5,8.1
2016,8,13,13:00,UTC,,999.3,97,,,12.3,,6597,64.8,8.7,6.6
2016,8,13,14:00,UTC,,998.8,97,,,13,,14265,67.4,7.1,5.3
2016,8,13,15:00,UTC,,998.8,97,,,13.8,,36838,72,5.8,4.2
2016,8,13,16:00,UTC,,998.8,98,,,14.2,,50000,67.9,4,3.2
2016,8,13,17:00,UTC,,998.8,98,,,14.4,,25543,68.4,3.1,2.4
2016,8,13,18:00,UTC,,998.8,98,,,14.7,,50000,74.1,2.8,1.8
2016,8,13,19:00,UTC,,999.3,97,,,14.3,,50000,120.4,3.9,3
2016,8,13,20:00,UTC,,999.9,98,,,13.6,,50000,103.9,4,2.8
2016,8,13,21:00,UTC,,1000.5,97,,,12.7,,50000,96.7,4,2.5
2016,8,13,22:00,UTC,,1000.9,98,,,12.8,,50000,91.6,4.3,2.9
2016,8,13,23:00,UTC,,1001.3,97,,,13.1,,50000,97.2,4.8,2.7
2016,8,14,00:00,UTC,,1001.9,96,,,13,,50000,102.4,5.1,3.4
2016,8,14,01:00,UTC,,1002.2,97,,,12.9,,50000,96.2,4.7,3.2
2016,8,14,02:00,UTC,,1002.4,96,,,12.9,,50000,97.7,4.7,3.3
2016,8,14,03:00,UTC,,1003.1,96,,,12.5,,7520,95.7,5.3,3.6
2016,8,14,04:00,UTC,,1003.7,98,,,12,,15151,97.7,3.8,2.5
2016,8,14,05:00,UTC,,1004.3,98,,,12.6,,50000,107.5,2.6,1.8
2016,8,14,06:00,UTC,,1004.7,91,,,13.8,,50000,116.3,4.7,3
2016,8,14,07:00,UTC,,1005,85,,,15,,37141,123,4.9,3.3
2016,8,14,08:00,UTC,,1005.7,85,,,14.2,,50000,132.2,3.8,2.9
2016,8,14,09:00,UTC,,1006.4,84,,,14.5,,50000,139.4,4.6,3.5
2016,8,14,10:00,UTC,,1007,81,,,14.9,,49384,136.3,5.3,3.8
2016,8,14,11:00,UTC,,1007.5,76,,,15.1,,50000,136.3,6.1,4.1
2016,8,14,12:00,UTC,,1007.8,75,,,15.3,,47816,138.9,6.6,4.8
2016,8,14,13:00,UTC,,1007.9,67,,,16.1,,42863,143.5,5.5,4
2016,8,14,14:00,UTC,,1008.2,68,,,16.1,,50000,148.2,4.6,2.8
2016,8,14,15:00,UTC,,1008.4,79,,,14.5,,49876,168.2,3.8,2.7
2016,8,14,16:00,UTC,,1008.7,75,,,15.2,,36012,181.1,3.5,2.2
2016,8,14,17:00,UTC,,1009,76,,,15.1,,50000,171.8,3.8,2.2
2016,8,14,18:00,UTC,,1009.2,85,,,13.6,,50000,167.2,2.7,2
2016,8,14,19:00,UTC,,1009.2,92,,,12.5,,50000,171.8,2.9,1.7
2016,8,14,20:00,UTC,,1009.5,91,,,12.9,,50000,172.9,1.5,0.8
2016,8,14,21:00,UTC,,1009.6,91,,,12.7,,50000,1.5,2.5,1.2
2016,8,14,22:00,UTC,,1009.7,92,,,12.9,,50000,4.6,1.8,1
2016,8,14,23:00,UTC,,1009.8,94,,,13,,50000,18,2.9,1.4
2016,8,15,00:00,UTC,,1009.8,96,,,12.7,,50000,12.3,3.2,1.8
2016,8,15,01:00,UTC,,1009.9,97,,,12.4,,50000,14.9,3.4,1.8
2016,8,15,02:00,UTC,,1010,97,,,12.5,,50000,20.1,3.6,1.7
2016,8,15,03:00,UTC,,1010.3,97,,,11.8,,42687,22.6,3.6,1.5
2016,8,15,04:00,UTC,,1010.6,98,,,11.8,,16814,14.9,3.5,1.8
2016,8,15,05:00,UTC,,1010.8,99,,,11.9,,7826,5.1,4.4,2.1
2016,8,15,06:00,UTC,,1010.8,95,,,12.4,,38564,15.4,4.5,2.5
2016,8,15,07:00,UTC,,1010.9,91,,,13.7,,50000,9.8,4.5,2.4
2016,8,15,08:00,UTC,,1011.2,88,,,14.1,,47016,1,4.4,2.5
2016,8,15,09:00,UTC,,1011.5,83,,,15,,37023,182.1,5,2.5
2016,8,15,10:00,UTC,,1011.4,79,,,15.9,,50000,177,3.2,1.7
2016,8,15,11:00,UTC,,1011.4,80,,,16.4,,50000,170.8,6.3,4.4
2016,8,15,12:00,UTC,,1011.5,81,,,16.3,,50000,171.8,6.6,4.7
2016,8,15,13:00,UTC,,1011.7,81,,,15.9,,43728,170.3,8.6,5.7
2016,8,15,14:00,UTC,,1011.5,80,,,16.3,,50000,168.7,7.7,4.9
2016,8,15,15:00,UTC,,1011.3,80,,,16.4,,50000,169.8,7.9,4.9
2016,8,15,16:00,UTC,,1011.6,76,,,16.6,,34739,170.8,7.9,5.2
2016,8,15,17:00,UTC,,1011.6,78,,,16,,50000,170.3,7.4,4.6
2016,8,15,18:00,UTC,,1011.7,78,,,15.6,,50000,177.5,6.2,3.6
2016,8,15,19:00,UTC,,1011.8,85,,,14.5,,50000,171.8,7,4.2
2016,8,15,20:00,UTC,,1011.9,86,,,14.2,,50000,177.5,6.5,3.7
2016,8,15,21:00,UTC,,1011.8,97,,,13.4,,37135,180.6,6.2,3.3
2016,8,15,22:00,UTC,,1011.5,95,,,13.6,,50000,179,6.4,3.8
2016,8,15,23:00,UTC,,1011.3,94,,,13.6,,50000,182.1,6.7,3.6
2016,8,16,00:00,UTC,,1011.2,92,,,13.6,,50000,1.5,6.6,3.8
2016,8,16,01:00,UTC,,1011.2,91,,,13.7,,47064,3.6,7.1,3.9
2016,8,16,02:00,UTC,,1010.9,90,,,13.5,,50000,5.1,7.2,4.4
2016,8,16,03:00,UTC,,1011.2,89,,,13.3,,50000,4.6,7.2,4.6
2016,8,16,04:00,UTC,,1011.4,89,,,13,,50000,6.7,9.1,5.6
2016,8,16,05:00,UTC,,1011.3,88,,,13.2,,50000,3.1,7.6,4
2016,8,16,06:00,UTC,,1011.1,83,,,13.4,,50000,3.6,10.1,5.6
2016,8,16,07:00,UTC,,1011.1,82,,,13.7,,39872,2.6,8.4,4.8
2016,8,16,08:00,UTC,,1010.9,78,,,14.2,,49274,184.2,7.5,4.2
2016,8,16,09:00,UTC,,1011,77,,,14.7,,50000,182.6,8.8,4.8
2016,8,16,10:00,UTC,,1010.7,75,,,15,,50000,185.2,10.1,5
2016,8,16,11:00,UTC,,1010.9,81,,,14.1,,35054,3.1,10.1,5.7
2016,8,16,12:00,UTC,,1011.2,87,,,13.8,,39299,185.2,10.1,5
2016,8,16,13:00,UTC,,1011.3,84,,,13.9,,50000,3.1,10.7,6.1
2016,8,16,14:00,UTC,,1011.3,79,,,14.3,,50000,185.2,9,4.6
2016,8,16,15:00,UTC,,1011.5,75,,,14.6,,50000,5.7,10.7,6
2016,8,16,16:00,UTC,,1011.6,78,,,14.1,,50000,2.1,10,5.6
2016,8,16,17:00,UTC,,1011.7,80,,,13.4,,23134,8.2,10,6.2
2016,8,16,18:00,UTC,,1011.7,76,,,13.4,,43637,6.2,11.1,6.7
2016,8,16,19:00,UTC,,1011.8,77,,,13.2,,50000,6.2,9.8,6.1
2016,8,16,20:00,UTC,,1012,80,,,12.8,,50000,6.2,10.8,5.1
2016,8,16,21:00,UTC,,1012.1,81,,,12.7,,50000,6.7,9.2,5.8
2016,8,16,22:00,UTC,,1012.4,81,,,12.6,,49835,7.2,8.7,5.5
2016,8,16,23:00,UTC,,1012.7,82,,,12.5,,50000,9.8,7.9,4.9
2016,8,17,00:00,UTC,,1013,84,,,12.3,,50000,9.3,7.7,4.9
2016,8,17,01:00,UTC,,1013.1,86,,,12,,45645,8.2,8.7,4.8
2016,8,17,02:00,UTC,,1013.3,88,,,11.7,,50000,7.7,8.8,5.3
2016,8,17,03:00,UTC,,1013.6,85,,,11.9,,50000,10.3,7.9,4.9
2016,8,17,04:00,UTC,,1013.9,85,,,12.1,,50000,11.3,9,4.2
2016,8,17,05:00,UTC,,1014.4,84,,,12.2,,50000,13.9,7.3,4.1
2016,8,17,06:00,UTC,,1014.8,84,,,12.4,,50000,18.5,6.1,2.9
2016,8,17,07:00,UTC,,1015.3,84,,,12.7,,50000,19,6.3,3.3
2016,8,17,08:00,UTC,,1016,83,,,13.6,,50000,23.7,6.8,3.4
2016,8,17,09:00,UTC,,1016.6,85,,,13.9,,50000,20.6,5.7,2.8
2016,8,17,10:00,UTC,,1017.1,81,,,15.3,,50000,27.8,5.2,2.8
2016,8,17,11:00,UTC,,1017.5,80,,,15.8,,48105,28.3,5.1,2.7
2016,8,17,12:00,UTC,,1017.7,78,,,16.7,,50000,27.3,5,3.2
2016,8,17,13:00,UTC,,1017.7,73,,,17.7,,50000,27.8,6.4,3.4
2016,8,17,14:00,UTC,,1017.9,67,,,18.7,,50000,25.2,5.2,3.2
2016,8,17,15:00,UTC,,1018.1,68,,,18.8,,42048,30.9,5.3,2.9
2016,8,17,16:00,UTC,,1018.4,71,,,18.9,,50000,18.5,5,2.3
2016,8,17,17:00,UTC,,1018.7,73,,,18.1,,50000,23.1,4.2,2.3
2016,8,17,18:00,UTC,,1019.1,80,,,16.8,,50000,16.5,4.2,1.8
2016,8,17,19:00,UTC,,1019.5,86,,,15.5,,50000,8.2,3.7,2.4
2016,8,17,20:00,UTC,,1019.6,85,,,15,,50000,25.7,5.6,3.2
2016,8,17,21:00,UTC,,1019.9,88,,,14,,50000,36.5,5,3.2
2016,8,17,22:00,UTC,,1020.1,91,,,13.2,,50000,37.6,4.4,2.9
2016,8,17,23:00,UTC,,1020.2,93,,,12.5,,49467,37.6,3.6,2.1
2016,8,18,00:00,UTC,,1020.1,95,,,11.9,,50000,48.9,3.9,2.4
2016,8,18,01:00,UTC,,1020.1,98,,,11.6,,50000,45.8,4.5,3
2016,8,18,02:00,UTC,,1020,96,,,12.1,,50000,37.6,5,3.2
2016,8,18,03:00,UTC,,1020.2,95,,,12.5,,50000,21.6,3.2,1.7
2016,8,18,04:00,UTC,,1020.1,93,,,12.7,,50000,30.4,4.2,2.1
2016,8,18,05:00,UTC,,1020.1,91,,,13.3,,50000,25.7,4.2,2.2
2016,8,18,06:00,UTC,,1019.8,86,,,14.4,,50000,26.8,4,2.3
2016,8,18,07:00,UTC,,1019.5,72,,,17,,39126,25.2,5.1,2.5
2016,8,18,08:00,UTC,,1019.4,65,,,18.2,,31618,21.6,5.4,2.4
2016,8,18,09:00,UTC,,1019.3,64,,,18.8,,36775,28.3,4.9,2.8
2016,8,18,10:00,UTC,,1019.3,63,,,18.9,,50000,45.8,7.6,4.7
2016,8,18,11:00,UTC,,1019.4,65,,,18.3,,50000,41.2,7.2,4.3
2016,8,18,12:00,UTC,,1019.3,65,,,18.7,,37159,51.4,11.9,7.2
2016,8,18,13:00,UTC,,1019.4,66,,,18.7,,50000,49.9,8.9,5.9
2016,8,18,14:00,UTC,,1019.2,61,,,19.7,,50000,64.8,8.8,7
2016,8,18,15:00,UTC,,1019.1,55,,,20.4,,50000,56.1,9.2,7.4
2016,8,18,16:00,UTC,,1019.4,60,,,19.5,,50000,55,7.8,5.9
2016,8,18,17:00,UTC,,1019.6,69,,,18.3,,50000,43.2,3.8,2.3
2016,8,18,18:00,UTC,,1020,76,,,17.2,,50000,33.4,3.6,2.3
2016,8,18,19:00,UTC,,1020.2,81,,,16.3,,48871,35,4.1,2.5
2016,8,18,20:00,UTC,,1020.2,87,,,15.1,,50000,38.6,3,1.6
2016,8,18,21:00,UTC,,1020.3,88,,,14.2,,48960,30.9,3.9,2.3
2016,8,18,22:00,UTC,,1020.2,87,,,14,,50000,31.9,4.5,2.4
2016,8,18,23:00,UTC,,1019.9,88,,,13.7,,50000,33.4,3.9,2.4
2016,8,19,00:00,UTC,,1019.6,90,,,13.4,,50000,35.5,4.5,2.7
2016,8,19,01:00,UTC,,1019.3,91,,,13.1,,50000,32.9,3.3,2
2016,8,19,02:00,UTC,,1018.6,91,,,13.3,,50000,31.9,4.6,2.4
2016,8,19,03:00,UTC,,1018.5,90,,,13.5,,50000,35.5,3.7,2.2
2016,8,19,04:00,UTC,,1017.8,97,,,13.2,,13073,21.1,3.2,1.7
2016,8,19,05:00,UTC,,1016.7,96,,,13.6,,47990,10.3,4.6,2.1
2016,8,19,06:00,UTC,,1016,95,,,14.3,,50000,34.5,6.3,3.1
2016,8,19,07:00,UTC,,1015.8,94,,,15.1,,44524,39.6,7.5,4.2
2016,8,19,08:00,UTC,,1015.6,91,,,16.5,,38494,48.4,7.5,5.4
2016,8,19,09:00,UTC,,1015.3,87,,,17.8,,29082,48.4,9.2,5.9
2016,8,19,10:00,UTC,,1015.2,92,,,17.3,,40938,53.5,7.7,5.4
2016,8,19,11:00,UTC,,1015.1,80,,,19.5,,41988,55,9.6,7
2016,8,19,12:00,UTC,,1014.9,89,,,18.2,,13945,58.6,10,7.9
2016,8,19,13:00,UTC,,1015,84,,,19.3,,38069,72,7.8,4.6
2016,8,19,14:00,UTC,,1015.1,79,,,19.1,,40298,77.7,8.9,6.1
2016,8,19,15:00,UTC,,1015,83,,,18.9,,50000,72.5,6.9,4.5
2016,8,19,16:00,UTC,,1015.2,76,,,20,,50000,79.2,7.3,4.3
2016,8,19,17:00,UTC,,1015.5,79,,,19.2,,50000,70.5,4.1,3.1
2016,8,19,18:00,UTC,,1015.9,82,,,17.5,,36445,66.4,3.5,3
2016,8,19,19:00,UTC,,1016.1,89,,,16.6,,49363,67.9,5.1,3
2016,8,19,20:00,UTC,,1016.3,93,,,14.9,,50000,66.4,3.8,2.8
2016,8,19,21:00,UTC,,1016.5,92,,,14.9,,45898,69.4,4.5,3.2
2016,8,19,22:00,UTC,,1016.8,93,,,14.3,,40436,66.4,4.7,3.9
2016,8,19,23:00,UTC,,1016.7,96,,,13.3,,24884,65.3,3.9,3.2
2016,8,20,00:00,UTC,,1016.4,96,,,13.5,,38814,63.3,4.2,3.6
2016,8,20,01:00,UTC,,1016.4,95,,,13.2,,36516,63.8,4.6,3.6
2016,8,20,02:00,UTC,,1016,96,,,13.1,,38284,63.3,5.5,4.3
2016,8,20,03:00,UTC,,1015.8,96,,,12.7,,20642,63.8,4.9,3.7
2016,8,20,04:00,UTC,,1015.6,98,,,13.1,,16257,64.3,3.9,3.3
2016,8,20,05:00,UTC,,1015.2,95,,,15,,31570,63.3,5.2,4.4
2016,8,20,06:00,UTC,,1015.1,93,,,15.6,,29166,67.4,5.6,4.6
2016,8,20,07:00,UTC,,1014.8,92,,,15.8,,50000,62.8,5.9,4.6
2016,8,20,08:00,UTC,,1014.2,88,,,16.9,,50000,59.2,6.9,5
2016,8,20,09:00,UTC,,1013.9,86,,,17.8,,42851,62.8,4.8,3.7
2016,8,20,10:00,UTC,,1013.6,87,,,17.9,,48179,62.8,5,3.3
2016,8,20,11:00,UTC,,1013.2,85,,,18.5,,38215,62.8,4.8,3.7
2016,8,20,12:00,UTC,,1012.7,78,,,19.1,,48735,59.2,5.2,4.2
2016,8,20,13:00,UTC,,1011.8,71,,,20.2,,32008,56.1,5.3,3.5
2016,8,20,14:00,UTC,,1011.7,70,,,20.1,,50000,73.6,3.4,2.3
2016,8,20,15:00,UTC,,1012,96,,,14.4,,10702,151.8,4.9,3.5
2016,8,20,16:00,UTC,,1011.7,97,,,14.7,,50000,63.8,2.9,2.3
2016,8,20,17:00,UTC,,1011.7,97,,,14.5,,32058,103.9,5.1,2.8
2016,8,20,18:00,UTC,,1012,98,,,14.6,,45455,111.6,3.9,2.4
2016,8,20,19:00,UTC,,1012,97,,,14.8,,42775,108,3.5,2.3
2016,8,20,20:00,UTC,,1012,97,,,14.8,,32742,114.7,3.8,2.9
2016,8,20,21:00,UTC,,1012.1,98,,,13.8,,34898,118.8,3.3,2.5
2016,8,20,22:00,UTC,,1012,98,,,13.2,,20781,108.5,3.2,2.1
2016,8,20,23:00,UTC,,1012.2,95,,,13.2,,50000,104.9,3.2,2.2
2016,8,21,00:00,UTC,,1012.3,94,,,13.7,,50000,104.4,4.1,2.6
2016,8,21,01:00,UTC,,1012.4,96,,,13.4,,48698,90.5,3.2,2
2016,8,21,02:00,UTC,,1012.6,97,,,13.3,,42016,89,4.3,2.6
2016,8,21,03:00,UTC,,1012.9,97,,,13.5,,50000,106.5,3.5,2.4
2016,8,21,04:00,UTC,,1013.2,97,,,13.6,,50000,96.2,3.6,2.3
2016,8,21,05:00,UTC,,1013.5,96,,,14,,49389,97.2,3.6,2.6
2016,8,21,06:00,UTC,,1013.8,93,,,14.5,,48923,107.5,5.3,3.3
2016,8,21,07:00,UTC,,1014.2,89,,,14.7,,50000,108.5,6.9,4.1
2016,8,21,08:00,UTC,,1014.4,88,,,15,,50000,108,5.4,3.9
2016,8,21,09:00,UTC,,1015,86,,,15.6,,50000,114.7,5.3,3.3
2016,8,21,10:00,UTC,,1015.3,81,,,16.1,,50000,109.1,5.5,3.8
2016,8,21,11:00,UTC,,1015.8,79,,,16.5,,50000,111.1,5.8,3.8
2016,8,21,12:00,UTC,,1016.1,79,,,17,,47080,109.6,3.9,2.7
2016,8,21,13:00,UTC,,1016.2,80,,,17.2,,47737,109.1,2.7,1.8
2016,8,21,14:00,UTC,,1016.2,79,,,17.4,,48669,104.9,2.8,1.8
2016,8,21,15:00,UTC,,1016.5,88,,,16.3,,50000,143,4.6,3.6
2016,8,21,16:00,UTC,,1016.6,88,,,16.1,,50000,145.6,1.8,1.5
2016,8,21,17:00,UTC,,1017,87,,,16.4,,46730,166.2,1.3,0.6
2016,8,21,18:00,UTC,,1017.3,90,,,16,,50000,85.9,3.3,1
2016,8,21,19:00,UTC,,1017.3,94,,,15.2,,50000,67.4,2.2,1.6
2016,8,21,20:00,UTC,,1017.2,95,,,15.3,,49896,64.3,2.6,2.1
2016,8,21,21:00,UTC,,1017.1,95,,,15.4,,50000,74.1,3.9,3.1
2016,8,21,22:00,UTC,,1017.1,95,,,15.2,,48393,66.9,3.1,2.3
2016,8,21,23:00,UTC,,1016.9,97,,,14.9,,23627,56.6,3,2.5
2016,8,22,00:00,UTC,,1016.9,97,,,14.8,,35429,50.4,3.8,2.8
2016,8,22,01:00,UTC,,1016.2,97,,,14.7,,25729,46.3,4.2,3.2
2016,8,22,02:00,UTC,,1016,98,,,14.5,,14450,50.4,3.5,2.2
2016,8,22,03:00,UTC,,1015.8,99,,,14.6,,18219,42.2,3.8,2.4
2016,8,22,04:00,UTC,,1015.3,99,,,15.1,,10059,45.3,3.4,2.2
2016,8,22,05:00,UTC,,1014.9,99,,,15.3,,8860,56.1,4.1,2.1
2016,8,22,06:00,UTC,,1014.7,99,,,15.8,,19175,59.2,4,2.8
2016,8,22,07:00,UTC,,1014.7,99,,,16.1,,9005,65.8,3.8,2.7
2016,8,22,08:00,UTC,,1014.9,97,,,16.8,,19541,75.1,3.7,2.7
2016,8,22,09:00,UTC,,1014,95,,,18.3,,20121,52.5,4.6,3.6
2016,8,22,10:00,UTC,,1013.4,93,,,18.7,,44821,53,5.4,4
2016,8,22,11:00,UTC,,1013.2,95,,,18.8,,16169,61.7,4.1,3.4
2016,8,22,12:00,UTC,,1012.7,94,,,19.3,,15712,59.2,4.7,3.7
2016,8,22,13:00,UTC,,1012,92,,,19.1,,34478,70,8.1,5.6
2016,8,22,14:00,UTC,,1011.6,92,,,18.4,,21591,73.6,7.8,5.7
2016,8,22,15:00,UTC,,1010.7,86,,,18.4,,48878,80.3,11.1,7.4
2016,8,22,16:00,UTC,,1010,89,,,17.6,,46178,73.1,9.9,6.9
2016,8,22,17:00,UTC,,1009.7,95,,,17.3,,27026,81.3,7,4.7
2016,8,22,18:00,UTC,,1010.1,96,,,17.3,,7643,93.6,7.2,4
2016,8,22,19:00,UTC,,1010.9,93,,,16.1,,50000,116.3,10.3,5.7
2016,8,22,20:00,UTC,,1010.8,90,,,15.7,,50000,103.9,9.2,6.1
2016,8,22,21:00,UTC,,1010.8,91,,,15.3,,50000,106.5,8.6,5.1
2016,8,22,22:00,UTC,,1010.8,90,,,15,,49588,107,9.2,5.4
2016,8,22,23:00,UTC,,1011,90,,,15,,50000,112.7,8.5,5.4
2016,8,23,00:00,UTC,,1011.3,93,,,14.7,,23380,110.6,7.9,4.9
2016,8,23,01:00,UTC,,1011.8,94,,,14.3,,36217,117.8,9,5.6
2016,8,23,02:00,UTC,,1011.9,93,,,14.4,,50000,113.7,6.5,4.4
2016,8,23,03:00,UTC,,1012.2,92,,,14.7,,50000,115.7,6.8,4.4
2016,8,23,04:00,UTC,,1012.4,91,,,14.5,,50000,114.2,7.7,4.7
2016,8,23,05:00,UTC,,1012.8,91,,,14.5,,50000,117.8,7.2,4.2
2016,8,23,06:00,UTC,,1013.2,89,,,15.2,,50000,110.6,8.1,5.1
2016,8,23,07:00,UTC,,1013.2,84,,,16.4,,46435,124,7.4,5
2016,8,23,08:00,UTC,,1013.8,85,,,16.4,,44828,127.1,9.1,5.9
2016,8,23,09:00,UTC,,1014.2,85,,,16.3,,50000,135.3,8.8,6.3
2016,8,23,10:00,UTC,,1014.4,88,,,15.8,,47119,138.4,9.2,6.6
2016,8,23,11:00,UTC,,1014.8,89,,,15.7,,50000,137.4,8.4,6.1
2016,8,23,12:00,UTC,,1015,90,,,15.3,,50000,134.8,6.7,5.2
2016,8,23,13:00,UTC,,1015.3,89,,,15.4,,47633,137.9,8.3,5.9
2016,8,23,14:00,UTC,,1015.3,89,,,16,,50000,134.3,6.4,4.6
2016,8,23,15:00,UTC,,1015.5,90,,,15.6,,48430,137.9,6.8,5.1
2016,8,23,16:00,UTC,,1015.6,91,,,15.4,,39307,140.4,6.3,4.8
2016,8,23,17:00,UTC,,1015.9,99,,,13.1,,3405,140.4,6.4,5.1
2016,8,23,18:00,UTC,,1016,100,,,13.1,,14097,141.5,7,5.2
2016,8,23,19:00,UTC,,1016.3,97,,,13.1,,49016,151.2,6.6,4.6
2016,8,23,20:00,UTC,,1016.9,77,,,13.3,,50000,169.3,6.9,4.3
2016,8,23,21:00,UTC,,1017.3,80,,,12.5,,50000,169.8,6.8,4.2
2016,8,23,22:00,UTC,,1017.6,79,,,12.1,,50000,171.3,6.7,4.3
2016,8,23,23:00,UTC,,1018.1,76,,,11.6,,50000,172.3,8,4.5
2016,8,24,00:00,UTC,,1018.4,82,,,11.1,,50000,178.5,4,2.5
2016,8,24,01:00,UTC,,1018.8,82,,,11,,50000,180.6,5.6,3.1
2016,8,24,02:00,UTC,,1019,90,,,9.7,,26277,175.4,7.4,3.9
2016,8,24,03:00,UTC,,1019.1,91,,,9.5,,50000,173.9,6.1,3.4
2016,8,24,04:00,UTC,,1019.8,87,,,9.8,,50000,178,7.3,3.3
2016,8,24,05:00,UTC,,1020.2,84,,,9.8,,49409,170.8,6.1,3.5
2016,8,24,06:00,UTC,,1020.7,77,,,11.1,,41347,175.9,4.9,3
2016,8,24,07:00,UTC,,1020.8,74,,,11.4,,44617,172.9,5.7,3.6
2016,8,24,08:00,UTC,,1021.2,72,,,12.3,,32053,169.8,7,4.2
2016,8,24,09:00,UTC,,1021.2,71,,,12.9,,27733,174.9,5.1,3.2
2016,8,24,10:00,UTC,,1021.3,71,,,13.5,,50000,159,7.1,4.5
2016,8,24,11:00,UTC,,1021.3,66,,,14.6,,50000,159,6.9,4.9
2016,8,24,12:00,UTC,,1021.3,64,,,15,,50000,166.7,7.6,5.1
2016,8,24,13:00,UTC,,1021.3,60,,,15.1,,47267,169.3,7.2,4.7
2016,8,24,14:00,UTC,,1021.2,62,,,15.4,,50000,165.1,6.8,4.4
2016,8,24,15:00,UTC,,1021.1,62,,,15.4,,50000,162,5.2,4
2016,8,24,16:00,UTC,,1020.9,66,,,14.8,,45302,158.4,5.2,3.8
2016,8,24,17:00,UTC,,1020.8,73,,,13.7,,50000,145.1,2.5,1.9
2016,8,24,18:00,UTC,,1020.5,84,,,11.6,,49074,138.9,1.2,1
2016,8,24,19:00,UTC,,1020.4,95,,,9,,50000,136.8,1.7,1.2
2016,8,24,20:00,UTC,,1020.5,96,,,7.6,,50000,131.7,1.3,1
2016,8,24,21:00,UTC,,1020,92,,,8.2,,50000,70,1.2,0.9
2016,8,24,22:00,UTC,,1019.7,96,,,7.7,,50000,81.3,1.1,0.7
2016,8,24,23:00,UTC,,1019.4,95,,,7,,50000,70.5,2.3,1.7
2016,8,25,00:00,UTC,,1019.1,97,,,6.2,,50000,66.4,2.1,1.8
2016,8,25,01:00,UTC,,1018.7,97,,,6.8,,49358,66.9,2.3,2
2016,8,25,02:00,UTC,,1018,97,,,7.1,,50000,73.1,2.4,1.9
2016,8,25,03:00,UTC,,1016.7,96,,,7.9,,50000,73.6,4.3,3.5
2016,8,25,04:00,UTC,,1015.8,94,,,8.8,,50000,73.6,5.2,4.1
2016,8,25,05:00,UTC,,1015.3,95,,,9.4,,50000,78.2,4.6,3.7
2016,8,25,06:00,UTC,,1015,95,,,10.3,,50000,80.3,4.3,3.2
2016,8,25,07:00,UTC,,1014.6,96,,,10.9,,32368,78.7,4.7,3.6
2016,8,25,08:00,UTC,,1014.3,96,,,11.7,,50000,91.1,5.6,3.6
2016,8,25,09:00,UTC,,1013.3,94,,,12.1,,50000,74.6,5.5,4.1
2016,8,25,10:00,UTC,,1012.4,92,,,12.6,,50000,77.2,7.3,4.9
2016,8,25,11:00,UTC,,1012.1,86,,,13.8,,50000,86.9,5,2.9
2016,8,25,12:00,UTC,,1011.9,89,,,13.5,,49990,103.4,7.2,4.9
2016,8,25,13:00,UTC,,1011.8,94,,,13.1,,49527,97.7,5.4,3.8
2016,8,25,14:00,UTC,,1011.3,93,,,13.6,,46577,99.8,5.3,3.7
2016,8,25,15:00,UTC,,1011,89,,,14.7,,50000,101.9,6.5,2.9
2016,8,25,16:00,UTC,,1010.8,86,,,15.1,,50000,121.9,4.8,3.4
2016,8,25,17:00,UTC,,1010.6,88,,,15.1,,50000,111.1,4.6,3.1
2016,8,25,18:00,UTC,,1010.8,89,,,14.9,,50000,126,5.6,3.8
2016,8,25,19:00,UTC,,1011.2,90,,,14.5,,50000,143,5.8,4
2016,8,25,20:00,UTC,,1011.5,82,,,13.1,,50000,161.5,4.7,3.3
2016,8,25,21:00,UTC,,1012,84,,,12.4,,50000,160.5,4.8,3.7
2016,8,25,22:00,UTC,,1012.3,88,,,11.8,,50000,160,4,2.9
2016,8,25,23:00,UTC,,1012.5,84,,,12.2,,50000,164.6,4.6,3.4
2016,8,26,00:00,UTC,,1012.9,88,,,11.3,,50000,160,4.3,3.3
2016,8,26,01:00,UTC,,1013.1,93,,,10.4,,50000,157.4,2.5,2.1
2016,8,26,02:00,UTC,,1013.4,96,,,9.5,,50000,148.7,2.4,2.2
2016,8,26,03:00,UTC,,1013.8,98,,,9.3,,50000,150.7,2.1,1.9
2016,8,26,04:00,UTC,,1014,89,,,11.4,,50000,167.2,3.4,2.4
2016,8,26,05:00,UTC,,1014.3,86,,,12.8,,36267,159,3.9,2.4
2016,8,26,06:00,UTC,,1014.6,86,,,12.9,,50000,166.7,5.3,3
2016,8,26,07:00,UTC,,1014.7,82,,,12.9,,50000,172.3,4.2,2.3
2016,8,26,08:00,UTC,,1015,76,,,12.7,,50000,174.9,3.4,2.2
2016,8,26,09:00,UTC,,1015.2,63,,,13.5,,42835,171.8,4.3,2.9
2016,8,26,10:00,UTC,,1015.2,58,,,14.6,,38937,177,4,2.6
2016,8,26,11:00,UTC,,1015,57,,,14.9,,35605,170.8,4.4,2.5
2016,8,26,12:00,UTC,,1014.9,57,,,15.1,,35157,168.7,3.7,2.1
2016,8,26,13:00,UTC,,1014.5,58,,,15,,38680,182.1,3.5,2.1
2016,8,26,14:00,UTC,,1014.1,55,,,15.3,,50000,7.7,2.8,1.8
2016,8,26,15:00,UTC,,1013.4,57,,,15.1,,33304,5.1,2.5,1.6
2016,8,26,16:00,UTC,,1012.4,57,,,14.4,,50000,15.4,2.4,1.5
2016,8,26,17:00,UTC,,1011.8,66,,,13.5,,50000,43.2,2,1.5
2016,8,26,18:00,UTC,,1010.8,65,,,11.9,,50000,51.4,2.5,2.1
2016,8,26,19:00,UTC,,1009.7,67,,,11.9,,50000,62.2,4.6,3.9
2016,8,26,20:00,UTC,,1008.9,67,,,12.1,,50000,61.7,4.3,3.7
2016,8,26,21:00,UTC,,1007.3,69,,,12.5,,50000,54.5,6,4.5
2016,8,26,22:00,UTC,,1005.4,73,,,13,,50000,48.9,7.4,5.2
2016,8,26,23:00,UTC,,1004.4,84,,,12.4,,50000,65.8,8.5,5.6
2016,8,27,00:00,UTC,,1002.8,93,,,11.8,,11518,65.8,6.5,5
2016,8,27,01:00,UTC,,998.9,96,,,12.1,,50000,54.5,9.9,7.4
2016,8,27,02:00,UTC,,996.7,93,,,12.8,,50000,59.7,12.1,9
2016,8,27,03:00,UTC,,994.2,97,,,13,,6469,66.9,12.1,8.4
2016,8,27,04:00,UTC,,992.3,98,,,13.5,,22899,72.5,9,6.8
2016,8,27,05:00,UTC,,990.4,97,,,14.6,,24224,76.1,8,5.7
2016,8,27,06:00,UTC,,989,92,,,16.5,,22836,91.1,8.8,5.7
2016,8,27,07:00,UTC,,988.2,89,,,16.4,,50000,115.2,8.6,5.1
2016,8,27,08:00,UTC,,988.6,76,,,16.3,,41616,113.2,13.6,8
2016,8,27,09:00,UTC,,988.8,68,,,15.3,,50000,119.9,15.9,8.8
2016,8,27,10:00,UTC,,988.8,71,,,15.1,,50000,116.8,11.2,7.5
2016,8,27,11:00,UTC,,988.4,66,,,14.7,,50000,119.4,12.6,7.6
2016,8,27,12:00,UTC,,987.8,92,,,11.8,,9762,106.5,7.8,4.3
2016,8,27,13:00,UTC,,987.6,95,,,12,,33633,119.4,7.6,3.9
2016,8,27,14:00,UTC,,987.9,92,,,12.9,,38574,137.9,8.9,5.7
2016,8,27,15:00,UTC,,989.3,93,,,11.5,,50000,155.9,12.6,8.7
2016,8,27,16:00,UTC,,991.6,89,,,10.4,,50000,165.1,13.9,9
2016,8,27,17:00,UTC,,994.7,81,,,9.5,,50000,172.3,18.2,10.3
2016,8,27,18:00,UTC,,998.1,92,,,8.9,,28336,171.3,16.7,10.6
2016,8,27,19:00,UTC,,1001.3,77,,,9.6,,50000,171.3,16.3,10.1
2016,8,27,20:00,UTC,,1003.4,77,,,9.1,,50000,170.3,15.8,9.7
2016,8,27,21:00,UTC,,1005.2,76,,,8.3,,50000,175.9,11.3,6
2016,8,27,22:00,UTC,,1007,71,,,7.9,,50000,173.9,11,6.1
2016,8,27,23:00,UTC,,1008.8,72,,,7.6,,50000,173.9,8.4,5
2016,8,28,00:00,UTC,,1010.4,72,,,7,,50000,174.9,8.2,4.5
2016,8,28,01:00,UTC,,1011.5,74,,,6.7,,50000,174.9,7.8,4.3
2016,8,28,02:00,UTC,,1012.5,71,,,6.3,,50000,179,7.4,3.5
2016,8,28,03:00,UTC,,1013.2,67,,,6,,50000,180.1,6.2,3.2
2016,8,28,04:00,UTC,,1013.9,62,,,6.6,,50000,180.6,5,2.8
2016,8,28,05:00,UTC,,1014.9,62,,,7.2,,49437,176.5,5.7,2.8
2016,8,28,06:00,UTC,,1015.5,59,,,8,,47792,179.5,4,2.2
2016,8,28,07:00,UTC,,1016.2,55,,,8.6,,50000,162.6,6.9,3.7
2016,8,28,08:00,UTC,,1016.8,56,,,9.3,,41047,154.3,6.7,4.6
2016,8,28,09:00,UTC,,1017.1,54,,,9.7,,32776,152.8,6.8,4.6
2016,8,28,10:00,UTC,,1017.4,52,,,10.8,,48976,135.8,7.9,5.9
2016,8,28,11:00,UTC,,1017.6,55,,,10.9,,50000,131.7,8.1,6.1
2016,8,28,12:00,UTC,,1017.3,57,,,11.4,,25628,133.2,8.3,6.2
2016,8,28,13:00,UTC,,1017.1,58,,,11.1,,46401,137.9,9.3,6.8
2016,8,28,14:00,UTC,,1017.1,58,,,11.5,,47039,133.8,7.9,6.1
2016,8,28,15:00,UTC,,1017.1,56,,,11.7,,50000,133.2,7.4,5.1
2016,8,28,16:00,UTC,,1016.8,60,,,11.3,,50000,134.3,6.5,4.6
2016,8,28,17:00,UTC,,1016.3,70,,,10.5,,50000,119.4,4.6,3.2
2016,8,28,18:00,UTC,,1016.1,77,,,9.4,,48437,114.2,5.3,2.2
2016,8,28,19:00,UTC,,1015.8,82,,,8.4,,50000,97.2,3,2.3
2016,8,28,20:00,UTC,,1015.5,86,,,7.6,,50000,99.3,3.4,2.6
2016,8,28,21:00,UTC,,1015.5,88,,,7,,50000,92.1,3.2,2.6
2016,8,28,22:00,UTC,,1015.3,88,,,6.8,,50000,94.1,3,2.4
2016,8,28,23:00,UTC,,1015.1,87,,,7,,50000,106,4.3,3.3
2016,8,29,00:00,UTC,,1014.7,93,,,5.3,,50000,97.2,3.2,2.6
2016,8,29,01:00,UTC,,1014.4,95,,,3.5,,50000,86.4,2.9,2.2
2016,8,29,02:00,UTC,,1013.8,91,,,7,,50000,107,6.7,4
2016,8,29,03:00,UTC,,1013.5,95,,,2.6,,50000,73.6,4,3.3
2016,8,29,04:00,UTC,,1013.2,93,,,3.4,,50000,71,2.7,2.1
2016,8,29,05:00,UTC,,1013,90,,,5.1,,48206,74.1,2.3,1.8
2016,8,29,06:00,UTC,,1012.6,83,,,7.7,,45179,83.3,3,2.1
2016,8,29,07:00,UTC,,1012.3,70,,,10.4,,30798,89,4.1,3.1
2016,8,29,08:00,UTC,,1012,65,,,12.1,,50000,82.3,4.6,3
2016,8,29,09:00,UTC,,1011.5,44,,,13.6,,42178,95.7,4.6,2.6
2016,8,29,10:00,UTC,,1011.1,48,,,14,,36137,88,4.8,3.1
2016,8,29,11:00,UTC,,1010.5,48,,,13.9,,50000,76.7,3.6,2.3
2016,8,29,12:00,UTC,,1010,47,,,14.3,,39125,121.4,3.5,1.3
2016,8,29,13:00,UTC,,1009.3,52,,,14.1,,38692,22.6,5.4,2.6
2016,8,29,14:00,UTC,,1008.6,57,,,14.3,,50000,6.7,2.9,1.9
2016,8,29,15:00,UTC,,1008,56,,,15.3,,45303,15.9,2.2,1.2
2016,8,29,16:00,UTC,,1007.7,57,,,15.4,,43546,82.8,2.9,2.1
2016,8,29,17:00,UTC,,1007.5,64,,,13.7,,50000,67.4,3.6,2.7
2016,8,29,18:00,UTC,,1007.6,70,,,12.1,,50000,71,2.5,2.1
2016,8,29,19:00,UTC,,1007.4,81,,,9.9,,50000,64.8,2.3,2.1
2016,8,29,20:00,UTC,,1007.1,86,,,8.5,,50000,66.4,2.8,2.4
2016,8,29,21:00,UTC,,1006.9,89,,,7.3,,50000,73.1,3,2.5
2016,8,29,22:00,UTC,,1006.8,91,,,6.5,,50000,71,3,2.6
2016,8,29,23:00,UTC,,1006.7,93,,,6.1,,50000,70,2.8,2.2
2016,8,30,00:00,UTC,,1006.6,95,,,4.9,,47915,71.5,3.6,3.1
2016,8,30,01:00,UTC,,1006.5,96,,,4.5,,50000,67.4,2.6,2.1
2016,8,30,02:00,UTC,,1006.2,96,,,3.9,,49719,65.3,2.7,2.3
2016,8,30,03:00,UTC,,1006.2,98,,,3.4,,50000,66.4,2.8,2.5
2016,8,30,04:00,UTC,,1006.1,96,,,4.7,,50000,67.9,3.2,2.7
2016,8,30,05:00,UTC,,1005.8,94,,,6.3,,50000,68.4,3.9,2.9
2016,8,30,06:00,UTC,,1005.7,88,,,9.4,,42121,73.1,2.2,1.6
2016,8,30,07:00,UTC,,1005.7,82,,,11.6,,40641,74.1,2.7,2.2
2016,8,30,08:00,UTC,,1005.7,72,,,13.4,,42215,89,4.3,3
2016,8,30,09:00,UTC,,1005.3,69,,,14.6,,50000,79.7,4.8,3.3
2016,8,30,10:00,UTC,,1005,63,,,15.3,,38677,87.5,3.8,2.4
2016,8,30,11:00,UTC,,1005,63,,,16.1,,41623,148.7,4.9,3.4
2016,8,30,12:00,UTC,,1004.8,70,,,15,,32144,146.1,5.9,4.3
2016,8,30,13:00,UTC,,1004.6,76,,,15,,49861,139.9,6.5,4.7
2016,8,30,14:00,UTC,,1004.5,64,,,14.7,,50000,125.5,5.2,3.6
2016,8,30,15:00,UTC,,1004.2,71,,,14.2,,50000,133.2,2.6,1.7
2016,8,30,16:00,UTC,,1004.2,74,,,13.8,,50000,126.6,5.5,4
2016,8,30,17:00,UTC,,1004.3,80,,,13.3,,50000,119.4,3,1.9
2016,8,30,18:00,UTC,,1004.4,81,,,12.8,,50000,122.4,3.7,2.5
2016,8,30,19:00,UTC,,1004.9,85,,,12.3,,50000,118.3,3,2.2
2016,8,30,20:00,UTC,,1005.1,88,,,12.1,,49864,117.8,3.3,2.3
2016,8,30,21:00,UTC,,1005.3,91,,,11.7,,50000,116.3,2.7,2.1
2016,8,30,22:00,UTC,,1005.5,95,,,10.2,,50000,120.4,2.8,2.2
2016,8,30,23:00,UTC,,1005.9,93,,,10.1,,50000,147.1,2.9,2.2
2016,8,31,00:00,UTC,,1006.2,93,,,9.7,,50000,149.7,2.7,2.2
2016,8,31,01:00,UTC,,1006.6,95,,,8.8,,50000,143,2,1.4
2016,8,31,02:00,UTC,,1007,98,,,8.7,,50000,148.2,2.6,2.3
2016,8,31,03:00,UTC,,1007.5,97,,,8.4,,50000,141,2.7,2.5
2016,8,31,04:00,UTC,,1008.1,96,,,8.8,,50000,143.5,1.7,1.5
2016,8,31,05:00,UTC,,1008.8,92,,,12.1,,34681,145.1,3.3,2.6
2016,8,31,06:00,UTC,,1009.3,87,,,12.5,,50000,144,5.1,3.8
2016,8,31,07:00,UTC,,1009.8,83,,,13,,43935,138.4,6.1,4.4
2016,8,31,08:00,UTC,,1010.4,82,,,13.8,,50000,131.7,7,5.2
2016,8,31,09:00,UTC,,1010.8,74,,,13.7,,33798,138.4,7.1,5.5
2016,8,31,10:00,UTC,,1011.1,75,,,13.6,,50000,143,7,5.4
2016,8,31,11:00,UTC,,1011.4,69,,,14.1,,47819,138.4,7,5.1
2016,8,31,12:00,UTC,,1011.3,68,,,14.6,,50000,142.5,5.7,4.3
2016,8,31,13:00,UTC,,1011.5,58,,,14.4,,32522,130.2,5.8,3.9
2016,8,31,14:00,UTC,,1011,51,,,14.9,,50000,105.5,3.2,2.3
2016,8,31,15:00,UTC,,1010.3,57,,,14.6,,50000,83.3,3.2,2.3
2016,8,31,16:00,UTC,,1010,62,,,14.5,,50000,81.3,4.3,2.5
2016,8,31,17:00,UTC,,1009.7,65,,,13.8,,50000,74.6,4.3,3.4
2016,8,31,18:00,UTC,,1008.8,68,,,13.6,,50000,78.7,6.9,4.5
2016,8,31,19:00,UTC,,1008.2,71,,,13.2,,50000,79.7,5.7,4.4
2016,8,31,20:00,UTC,,1007.7,75,,,12.7,,50000,76.1,4.8,3.7
2016,8,31,21:00,UTC,,1007.2,77,,,13,,50000,79.2,4.7,3.3
2016,8,31,22:00,UTC,,1006.2,76,,,14.1,,50000,79.7,7.5,5.2
2016,8,31,23:00,UTC,,1005.5,80,,,13.6,,49983,78.7,6.2,4.7
2016,9,1,00:00,UTC,,1004.2,83,,,13.2,,50000,76.7,7.6,5.3
2016,9,1,01:00,UTC,,1003.2,85,,,13.3,,50000,75.1,6.3,4.7
2016,9,1,02:00,UTC,,1002.5,87,,,13.7,,50000,81.8,5.3,4
2016,9,1,03:00,UTC,,1001.6,86,,,14.7,,50000,84.4,6.9,4.8
2016,9,1,04:00,UTC,,1000.9,90,,,14.5,,33477,91.1,7.9,4.7
2016,9,1,05:00,UTC,,1000.4,95,,,14.4,,38121,90.5,6.4,4.6
2016,9,1,06:00,UTC,,1000.5,91,,,15.3,,50000,99.8,8,4.9
2016,9,1,07:00,UTC,,1000.4,93,,,15.2,,4073,109.6,8.1,5
2016,9,1,08:00,UTC,,1000.2,91,,,15.3,,42467,107.5,8.4,5.1
2016,9,1,09:00,UTC,,1000.5,87,,,15.8,,50000,117.8,7.4,4.9
2016,9,1,10:00,UTC,,1000.5,84,,,15.6,,50000,123.5,10,6.7
2016,9,1,11:00,UTC,,1000.4,84,,,16,,50000,118.3,9,5.6
2016,9,1,12:00,UTC,,1000.4,83,,,16.2,,20618,118.3,8.6,5.9
2016,9,1,13:00,UTC,,1000.3,73,,,17,,50000,121.9,10.3,6.8
2016,9,1,14:00,UTC,,1000.3,67,,,17.6,,48517,117.3,7.5,4.8
2016,9,1,15:00,UTC,,1000.6,70,,,16.8,,46439,116.3,7.1,4.5
2016,9,1,16:00,UTC,,1000.8,71,,,16.5,,40281,115.7,5.9,4
2016,9,1,17:00,UTC,,1000.8,79,,,14.9,,45881,113.2,6,3.7
2016,9,1,18:00,UTC,,1000.8,85,,,13.7,,50000,111.1,5.3,2.9
2016,9,1,19:00,UTC,,1001,86,,,13.4,,50000,109.1,6.4,4.1
2016,9,1,20:00,UTC,,1001,89,,,12.5,,50000,110.1,4.7,3.2
2016,9,1,21:00,UTC,,1001,90,,,12.3,,50000,110.1,5.6,3.7
2016,9,1,22:00,UTC,,1001,92,,,11.7,,50000,107,4.6,3.3
2016,9,1,23:00,UTC,,1001,93,,,11.1,,50000,111.1,4.5,2.8
2016,9,2,00:00,UTC,,1000.8,94,,,10.9,,49852,104.9,4.1,2.6
2016,9,2,01:00,UTC,,1000.9,92,,,10.9,,50000,105.5,5.1,3.3
2016,9,2,02:00,UTC,,1000.8,92,,,10.4,,50000,102.9,5.3,3.8
2016,9,2,03:00,UTC,,1000.5,91,,,10.5,,50000,97.2,5.7,3.8
2016,9,2,04:00,UTC,,1000.5,94,,,10.1,,50000,99.3,4.9,3.7
2016,9,2,05:00,UTC,,1000.7,93,,,10.6,,50000,109.6,4.2,3.3
2016,9,2,06:00,UTC,,1000.9,91,,,11.5,,50000,111.1,4.7,2.9
2016,9,2,07:00,UTC,,1001.2,89,,,11.7,,45397,123.5,5,3.3
2016,9,2,08:00,UTC,,1000.8,95,,,11.1,,16315,104.9,2.9,2.2
2016,9,2,09:00,UTC,,1000.7,95,,,11.7,,50000,92.6,3.7,2.4
2016,9,2,10:00,UTC,,1001.1,89,,,12.9,,50000,100.3,4.6,3
2016,9,2,11:00,UTC,,1001.2,82,,,13.1,,50000,125.5,6.2,4.6
2016,9,2,12:00,UTC,,1001.4,71,,,14.4,,36031,122.4,9.1,6.1
2016,9,2,13:00,UTC,,1001.5,70,,,14.2,,36542,126,9,5.9
2016,9,2,14:00,UTC,,1001.8,68,,,14.1,,50000,135.3,7.7,5.3
2016,9,2,15:00,UTC,,1002,67,,,14.3,,50000,125.5,7.5,5.2
2016,9,2,16:00,UTC,,1002.5,69,,,13.9,,50000,121.4,6.9,4.4
2016,9,2,17:00,UTC,,1002.7,75,,,13.2,,50000,118.8,6.5,4.2
2016,9,2,18:00,UTC,,1002.9,82,,,11.9,,50000,114.7,4.1,2.8
2016,9,2,19:00,UTC,,1003.1,88,,,10.9,,50000,117.3,3.1,2.3
2016,9,2,20:00,UTC,,1003.3,92,,,10.6,,50000,118.3,4.2,3
2016,9,2,21:00,UTC,,1003.6,95,,,9.9,,50000,131.2,3.1,2.6
2016,9,2,22:00,UTC,,1004,91,,,10.8,,50000,164.1,4.6,3.3
2016,9,2,23:00,UTC,,1004.6,88,,,9.8,,50000,181.1,2.6,1.4
2016,9,3,00:00,UTC,,1005.1,91,,,8.7,,50000,176.5,2.4,1.3
2016,9,3,01:00,UTC,,1005.4,96,,,6,,50000,82.8,0.8,0.4
2016,9,3,02:00,UTC,,1005.8,98,,,4.7,,50000,4.6,1.4,1
2016,9,3,03:00,UTC,,1006.2,99,,,6.6,,50000,180.1,2.1,1.2
2016,9,3,04:00,UTC,,1006.7,98,,,6.9,,47273,178.5,2,0.7
2016,9,3,05:00,UTC,,1007,89,,,8.6,,50000,24.7,1.9,1
2016,9,3,06:00,UTC,,1007.3,81,,,9.6,,50000,31.9,1.7,1.1
2016,9,3,07:00,UTC,,1007.5,79,,,10.1,,50000,55.6,2.2,1.3
2016,9,3,08:00,UTC,,1007.7,76,,,11,,35276,9.8,2.4,1.3
2016,9,3,09:00,UTC,,1007.8,69,,,11.9,,50000,8.7,2.2,1
2016,9,3,10:00,UTC,,1007.9,68,,,12.7,,33224,46.3,2.9,1.5
2016,9,3,11:00,UTC,,1007.9,66,,,13.4,,35121,6.2,2.9,1.2
2016,9,3,12:00,UTC,,1007.7,68,,,13.2,,47916,3.6,3.8,2.2
2016,9,3,13:00,UTC,,1007.4,64,,,13.9,,46686,4.6,2.8,1.9
2016,9,3,14:00,UTC,,1007.2,62,,,14.3,,45436,6.7,2.5,1.6
2016,9,3,15:00,UTC,,1007,60,,,14.6,,41221,5.7,3.2,2
2016,9,3,16:00,UTC,,1007,69,,,14,,40447,8.2,2.6,1.5
2016,9,3,17:00,UTC,,1006.9,69,,,13,,50000,41.7,3.7,2.6
2016,9,3,18:00,UTC,,1007,75,,,11.1,,50000,42.2,4.8,3.1
2016,9,3,19:00,UTC,,1007,77,,,10.5,,48658,43.7,4.8,3.2
2016,9,3,20:00,UTC,,1006.8,82,,,9.5,,50000,44.2,3,2
2016,9,3,21:00,UTC,,1006.5,84,,,8.7,,50000,43.7,3.5,2.1
2016,9,3,22:00,UTC,,1006.2,85,,,8.2,,40237,42.7,3.1,2.1
2016,9,3,23:00,UTC,,1006.1,87,,,7.8,,50000,47.3,3,2.1
2016,9,4,00:00,UTC,,1005.8,90,,,7.8,,9848,49.4,3.3,2.3
2016,9,4,01:00,UTC,,1005.6,92,,,7.6,,8488,42.2,2.6,1.8
2016,9,4,02:00,UTC,,1005.5,93,,,7.4,,10211,48.4,3.3,2.2
2016,9,4,03:00,UTC,,1005.2,94,,,7.3,,6636,51.4,2.9,2.3
2016,9,4,04:00,UTC,,1005.3,92,,,7.5,,6989,44.2,3.3,2.2
2016,9,4,05:00,UTC,,1005.2,90,,,8.4,,8072,49.9,3.5,2.6
2016,9,4,06:00,UTC,,1005.4,83,,,10.5,,38576,60.7,4.4,3.8
2016,9,4,07:00,UTC,,1005.4,75,,,12.3,,47261,54.5,4.1,3.1
2016,9,4,08:00,UTC,,1005.2,67,,,14.4,,34365,65.3,5.6,3.5
2016,9,4,09:00,UTC,,1005.1,62,,,15.7,,36764,73.6,3.5,2.1
2016,9,4,10:00,UTC,,1005,53,,,16.9,,37295,90.5,5.2,3.2
2016,9,4,11:00,UTC,,1005,56,,,16.8,,26396,44.8,3.6,2.2
2016,9,4,12:00,UTC,,1005,62,,,15.7,,50000,25.7,1.5,0.9
2016,9,4,13:00,UTC,,1005,50,,,17.7,,38961,167.2,2.7,1.3
2016,9,4,14:00,UTC,,1005,60,,,16.3,,45971,10.3,2.6,1.4
2016,9,4,15:00,UTC,,1005.1,59,,,16.7,,31606,183.1,3.3,1.6
2016,9,4,16:00,UTC,,1005.3,63,,,16.5,,50000,180.1,2.3,1.2
2016,9,4,17:00,UTC,,1005.5,71,,,14.9,,50000,174.4,1.8,1.2
2016,9,4,18:00,UTC,,1005.6,95,,,10.3,,50000,173.4,1.2,0.8
2016,9,4,19:00,UTC,,1005.8,94,,,9.5,,50000,184.2,1.4,0.9
2016,9,4,20:00,UTC,,1005.8,97,,,8.8,,50000,80.3,0.8,0.3
2016,9,4,21:00,UTC,,1005.8,97,,,7.6,,37659,98.3,0.6,0.5
2016,9,4,22:00,UTC,,1006,99,,,7.2,,47233,143.5,1.6,0.9
2016,9,4,23:00,UTC,,1006,97,,,7.1,,50000,79.7,1.9,1
2016,9,5,00:00,UTC,,1006.2,97,,,7.1,,50000,97.7,1.3,1
2016,9,5,01:00,UTC,,1006.5,97,,,7.7,,50000,124,1.4,1.1
2016,9,5,02:00,UTC,,1006.7,99,,,11,,45647,148.7,3,2.4
2016,9,5,03:00,UTC,,1007,97,,,11.9,,50000,161.5,7.8,4.2
2016,9,5,04:00,UTC,,1008,91,,,11.1,,50000,177.5,5.9,3.5
2016,9,5,05:00,UTC,,1009,88,,,10.6,,43718,183.1,8.6,4.2
2016,9,5,06:00,UTC,,1010,71,,,10.4,,50000,180.1,8.1,4.5
2016,9,5,07:00,UTC,,1010.7,62,,,10.5,,46045,178.5,6.4,3.7
2016,9,5,08:00,UTC,,1011.1,56,,,11.2,,49880,169.3,7.1,4.4
2016,9,5,09:00,UTC,,1011.7,56,,,11.2,,50000,171.3,8.7,5.4
2016,9,5,10:00,UTC,,1012,57,,,11.8,,45312,161.5,9.2,5.8
2016,9,5,11:00,UTC,,1012.7,54,,,11.6,,44919,167.2,9.4,6.1
2016,9,5,12:00,UTC,,1012.9,58,,,12.3,,50000,160.5,8.4,6.1
2016,9,5,13:00,UTC,,1013.5,57,,,12.2,,50000,154.3,9,6.4
2016,9,5,14:00,UTC,,1013.7,59,,,12.5,,50000,153.3,8.6,6
2016,9,5,15:00,UTC,,1014.1,61,,,12.5,,45051,149.2,9.3,6.9
2016,9,5,16:00,UTC,,1014.3,61,,,12,,50000,147.1,7.1,5.4
2016,9,5,17:00,UTC,,1014.6,65,,,11.3,,50000,143,6.1,4.6
2016,9,5,18:00,UTC,,1014.7,74,,,10.2,,50000,146.6,4.6,3.6
2016,9,5,19:00,UTC,,1015.1,79,,,10.2,,50000,149.7,3.8,3
2016,9,5,20:00,UTC,,1015.4,80,,,7.8,,50000,146.1,1.8,1.4
2016,9,5,21:00,UTC,,1015.7,90,,,5.9,,50000,157.4,0.7,0.4
2016,9,5,22:00,UTC,,1016,88,,,4.6,,50000,94.7,1.7,0.9
2016,9,5,23:00,UTC,,1016.1,89,,,3.6,,50000,110.6,1.4,0.7
2016,9,6,00:00,UTC,,1016.2,96,,,3.9,,50000,74.1,1.9,1.3
2016,9,6,01:00,UTC,,1016.2,98,,,4.2,,50000,73.1,1.2,0.9
2016,9,6,02:00,UTC,,1016.2,96,,,1.9,,50000,69.4,2,1.6
2016,9,6,03:00,UTC,,1016.2,94,,,1.3,,50000,74.1,2.1,1.7
2016,9,6,04:00,UTC,,1016,100,,,3.4,,1182,73.6,3.6,1.9
2016,9,6,05:00,UTC,,1015.9,98,,,4.1,,49224,63.8,2.1,1.7
2016,9,6,06:00,UTC,,1015.6,93,,,7.2,,48878,52,2.4,1.7
2016,9,6,07:00,UTC,,1015.4,88,,,9.7,,49146,62.2,3.4,2.3
2016,9,6,08:00,UTC,,1015.3,83,,,11.2,,42244,75.6,3.2,2.3
2016,9,6,09:00,UTC,,1015.2,72,,,13.2,,50000,124,5.2,3.5
2016,9,6,10:00,UTC,,1014.3,62,,,14.2,,37280,132.7,4.7,3.4
2016,9,6,11:00,UTC,,1014.3,71,,,13.4,,50000,139.9,6.3,4.9
2016,9,6,12:00,UTC,,1013.8,59,,,13.8,,46558,124.5,6.4,4.1
2016,9,6,13:00,UTC,,1013.3,57,,,13.6,,50000,113.2,3.2,2.3
2016,9,6,14:00,UTC,,1012.4,58,,,13.5,,50000,94.1,3.9,2.6
2016,9,6,15:00,UTC,,1011.6,61,,,13.3,,50000,96.2,4.7,2.9
2016,9,6,16:00,UTC,,1010.7,63,,,12.7,,50000,82.3,4.4,3.1
2016,9,6,17:00,UTC,,1009.8,64,,,12.1,,50000,78.2,5.1,4
2016,9,6,18:00,UTC,,1008.9,66,,,11.6,,50000,73.6,5.7,4.3
2016,9,6,19:00,UTC,,1007.6,73,,,10.8,,50000,70,4.8,3.7
2016,9,6,20:00,UTC,,1005.9,73,,,11.3,,50000,71.5,6.4,4.7
2016,9,6,21:00,UTC,,1004.9,76,,,11,,50000,75.1,5.4,4.2
2016,9,6,22:00,UTC,,1004,82,,,10.8,,40710,71,4.7,3.3
2016,9,6,23:00,UTC,,1003.3,87,,,10.4,,50000,77.7,4.2,3.1
2016,9,7,00:00,UTC,,1001.9,90,,,10,,50000,74.6,5.1,3.4
2016,9,7,01:00,UTC,,1001.5,95,,,10.4,,49936,103.4,2.9,2
2016,9,7,02:00,UTC,,1000.2,96,,,11,,50000,88,4.9,3
2016,9,7,03:00,UTC,,999.9,98,,,10.8,,50000,93.1,5.6,1.8
2016,9,7,04:00,UTC,,999.4,94,,,11.8,,50000,112.1,5.2,3.1
2016,9,7,05:00,UTC,,999.3,84,,,13.2,,50000,126.6,7.3,5
2016,9,7,06:00,UTC,,999,80,,,13.9,,34167,130.2,10.1,6.6
2016,9,7,07:00,UTC,,998.7,80,,,13.7,,42727,128.6,8.8,6.2
2016,9,7,08:00,UTC,,998.6,79,,,14.2,,46013,133.2,9.6,6.5
2016,9,7,09:00,UTC,,998.5,75,,,14.6,,50000,130.2,10,6.6
2016,9,7,10:00,UTC,,998.4,77,,,14.9,,50000,134.8,7.4,4.7
2016,9,7,11:00,UTC,,998.3,71,,,15.3,,50000,130.2,8.8,6.3
2016,9,7,12:00,UTC,,998.4,74,,,14.8,,46997,131.2,7.7,5.4
2016,9,7,13:00,UTC,,998.3,87,,,13.9,,50000,124,7.2,5.2
2016,9,7,14:00,UTC,,998.3,78,,,15.4,,50000,130.2,8.5,6
2016,9,7,15:00,UTC,,998.3,75,,,14.9,,50000,136.8,8.9,6.7
2016,9,7,16:00,UTC,,998.3,78,,,14.6,,50000,135.3,9.6,7
2016,9,7,17:00,UTC,,998.3,80,,,14.3,,50000,136.8,7.6,4.9
2016,9,7,18:00,UTC,,998.3,82,,,13.9,,50000,134.3,8.7,5.9
2016,9,7,19:00,UTC,,998.5,75,,,14.3,,50000,141.5,8.6,6.5
2016,9,7,20:00,UTC,,999,72,,,14.4,,47167,152.3,11.3,7.2
2016,9,7,21:00,UTC,,999.4,80,,,13.5,,50000,151.2,7.1,5.4
2016,9,7,22:00,UTC,,1000.3,78,,,13.2,,50000,157.9,8.8,5.3
2016,9,7,23:00,UTC,,1000.9,76,,,12.9,,50000,163.1,10.8,6.9
2016,9,8,00:00,UTC,,1001.6,92,,,11.6,,50000,161.5,9.8,6.2
2016,9,8,01:00,UTC,,1002.3,86,,,12.3,,50000,164.6,9.6,6
2016,9,8,02:00,UTC,,1003.2,88,,,12,,50000,168.7,7.2,4.5
2016,9,8,03:00,UTC,,1004.4,86,,,12,,50000,168.7,7.9,5.2
2016,9,8,04:00,UTC,,1005.1,87,,,11.6,,50000,167.2,6.5,4.1
2016,9,8,05:00,UTC,,1005.8,83,,,11.7,,50000,164.6,8,5.1
2016,9,8,06:00,UTC,,1006.6,72,,,12.4,,36281,166.7,9.4,6.9
2016,9,8,07:00,UTC,,1007.4,72,,,11.8,,50000,171.8,10,6.1
2016,9,8,08:00,UTC,,1008.1,77,,,11.5,,50000,171.3,8.8,5.3
2016,9,8,09:00,UTC,,1008.9,76,,,11.8,,36813,173.9,9.5,5.5
2016,9,8,10:00,UTC,,1009.9,76,,,12.1,,38300,168.2,8.1,5.4
2016,9,8,11:00,UTC,,1010.6,68,,,12.7,,44801,169.3,8,5.1
2016,9,8,12:00,UTC,,1011.4,68,,,12.4,,50000,174.9,6.7,4
2016,9,8,13:00,UTC,,1011.8,61,,,13.8,,49242,170.8,8.4,5.3
2016,9,8,14:00,UTC,,1012.4,63,,,13.1,,37545,174.9,5.5,3.2
2016,9,8,15:00,UTC,,1013,57,,,13,,50000,182.1,5.6,2.8
2016,9,8,16:00,UTC,,1013.3,64,,,12.1,,49157,5.1,4.2,2.3
2016,9,8,17:00,UTC,,1013.6,66,,,11.7,,50000,8.2,2.6,1.2
2016,9,8,18:00,UTC,,1013.8,80,,,9,,50000,161,0.9,0.3
2016,9,8,19:00,UTC,,1014.1,85,,,7.8,,50000,179,2.3,1
2016,9,8,20:00,UTC,,1014.6,92,,,5,,47482,178,1.3,0.8
2016,9,8,21:00,UTC,,1015.1,92,,,4.7,,50000,172.9,1.8,1
2016,9,8,22:00,UTC,,1015,95,,,4.4,,50000,14.4,1.1,0.9
2016,9,8,23:00,UTC,,1015.4,97,,,5.7,,50000,38.1,0.9,0.6
2016,9,9,00:00,UTC,,1015.7,95,,,6.3,,50000,141.5,1.3,0.9
2016,9,9,01:00,UTC,,1015.7,95,,,7,,34594,155.9,1,0.9
2016,9,9,02:00,UTC,,1015.7,94,,,7.6,,46856,71.5,1.4,1
2016,9,9,03:00,UTC,,1015.8,94,,,7.6,,39070,111.1,1.1,0.6
2016,9,9,04:00,UTC,,1016,96,,,8.5,,47905,83.9,3.3,0.9
2016,9,9,05:00,UTC,,1016.1,91,,,8.9,,50000,93.6,1.4,0.9
2016,9,9,06:00,UTC,,1015.8,92,,,9.4,,49500,58.1,1.2,1
2016,9,9,07:00,UTC,,1016.1,87,,,10,,50000,79.7,1.7,1.1
2016,9,9,08:00,UTC,,1016.4,76,,,11.6,,47663,112.7,2,0.7
2016,9,9,09:00,UTC,,1016.1,54,,,12.9,,49473,11.8,1.9,1
2016,9,9,10:00,UTC,,1016,49,,,13.2,,49205,105.5,3.3,1.7
2016,9,9,11:00,UTC,,1015.9,57,,,13,,50000,118.3,1.8,1.3
2016,9,9,12:00,UTC,,1015.8,57,,,13.3,,43836,69.4,2.2,1
2016,9,9,13:00,UTC,,1015.6,57,,,13.3,,48379,77.2,3.7,1.9
2016,9,9,14:00,UTC,,1015.3,62,,,13.2,,50000,36,1.9,1.2
2016,9,9,15:00,UTC,,1015,63,,,13.1,,49325,50.4,2.1,1.1
2016,9,9,16:00,UTC,,1014.6,67,,,12.5,,50000,46.8,2.5,1.9
2016,9,9,17:00,UTC,,1014.4,75,,,11.5,,50000,65.3,2.6,2
2016,9,9,18:00,UTC,,1014.8,79,,,11.2,,50000,68.9,2.3,2
2016,9,9,19:00,UTC,,1014.8,83,,,10.7,,49117,68.4,2.7,2
2016,9,9,20:00,UTC,,1014.5,85,,,10.2,,49328,70.5,3.2,2.5
2016,9,9,21:00,UTC,,1014.4,90,,,9.8,,35747,69.4,3.2,2.5
2016,9,9,22:00,UTC,,1014.7,94,,,9.6,,32489,92.6,4,1.7
2016,9,9,23:00,UTC,,1014.3,96,,,9.7,,21841,97.2,2.6,1.8
2016,9,10,00:00,UTC,,1013.9,97,,,9.3,,39678,71.5,3.5,2.8
2016,9,10,01:00,UTC,,1013.4,97,,,9.2,,46781,62.8,4.5,3.8
2016,9,10,02:00,UTC,,1013.2,96,,,9.2,,50000,66.4,4.2,3.3
2016,9,10,03:00,UTC,,1013.1,96,,,9.1,,47511,61.2,4.3,3.4
2016,9,10,04:00,UTC,,1013,95,,,9.2,,50000,63.3,3.9,2.9
2016,9,10,05:00,UTC,,1012.6,95,,,9.2,,50000,61.7,5.1,4
2016,9,10,06:00,UTC,,1012.4,93,,,9.7,,47526,64.3,5.5,4.2
2016,9,10,07:00,UTC,,1012.4,90,,,10.1,,50000,60.2,6.4,4.9
2016,9,10,08:00,UTC,,1012.5,87,,,10.7,,50000,60.7,6.1,4.9
2016,9,10,09:00,UTC,,1012.3,83,,,11.7,,43207,64.8,6.5,5.3
2016,9,10,10:00,UTC,,1012.3,78,,,12.9,,50000,65.8,5.9,4.4
2016,9,10,11:00,UTC,,1011.9,72,,,13.4,,50000,62.8,6.8,5.2
2016,9,10,12:00,UTC,,1011.8,74,,,13.7,,49873,63.3,6.7,5.1
2016,9,10,13:00,UTC,,1011.9,73,,,13.4,,45298,61.2,6.7,4.9
2016,9,10,14:00,UTC,,1011.6,75,,,13.4,,50000,65.8,6.4,4.6
2016,9,10,15:00,UTC,,1011.6,78,,,13,,50000,60.7,4.9,3.8
2016,9,10,16:00,UTC,,1011.6,79,,,12.7,,50000,55.6,4.5,3.6
2016,9,10,17:00,UTC,,1011.8,82,,,12.2,,49547,60.2,4,3.2
2016,9,10,18:00,UTC,,1011.9,83,,,12.2,,49261,60.2,4,2.9
2016,9,10,19:00,UTC,,1012,84,,,11.9,,50000,61.2,3.2,2.5
2016,9,10,20:00,UTC,,1012,86,,,11.8,,50000,62.8,3.9,2.8
2016,9,10,21:00,UTC,,1011.8,87,,,11.8,,49981,66.9,3.7,2.9
2016,9,10,22:00,UTC,,1011.9,87,,,11.8,,50000,67.4,3.6,2.8
2016,9,10,23:00,UTC,,1011.9,89,,,11.6,,50000,63.3,2.7,2.2
2016,9,11,00:00,UTC,,1012,90,,,11.6,,50000,73.6,1.7,1.3
2016,9,11,01:00,UTC,,1011.6,92,,,11.4,,49069,63.3,2.7,2.3
2016,9,11,02:00,UTC,,1011.6,93,,,11.5,,50000,66.4,2.7,2.2
2016,9,11,03:00,UTC,,1011.4,94,,,11.5,,33888,70,2.8,2.3
2016,9,11,04:00,UTC,,1011.2,98,,,11.2,,5575,66.9,3.2,2.2
2016,9,11,05:00,UTC,,1010.8,99,,,11.3,,14749,73.1,3.2,2.2
2016,9,11,06:00,UTC,,1010.9,97,,,11.8,,24735,76.1,3.1,2.1
2016,9,11,07:00,UTC,,1010.7,96,,,12.1,,29219,72,3.3,2.3
2016,9,11,08:00,UTC,,1010.6,94,,,12.9,,38755,81.8,3.2,2.6
2016,9,11,09:00,UTC,,1010.2,92,,,13.3,,50000,67.9,4.7,3.6
2016,9,11,10:00,UTC,,1009.4,90,,,14.1,,38091,62.2,5.3,4
2016,9,11,11:00,UTC,,1009.3,89,,,14.8,,46122,77.7,5.3,3.9
2016,9,11,12:00,UTC,,1008.6,91,,,15.1,,49223,75.1,4.7,3.5
2016,9,11,13:00,UTC,,1007.9,88,,,15.6,,42034,76.1,5.9,4.2
2016,9,11,14:00,UTC,,1006.9,87,,,16,,50000,76.7,5.8,4.3
2016,9,11,15:00,UTC,,1006.4,85,,,16.2,,42097,81.8,4.7,3.6
2016,9,11,16:00,UTC,,1005.8,90,,,15.7,,47807,79.7,4.4,3.1
2016,9,11,17:00,UTC,,1004.6,91,,,15.6,,42530,72.5,5.5,4
2016,9,11,18:00,UTC,,1003.1,91,,,15.7,,38663,73.1,7.2,5.2
2016,9,11,19:00,UTC,,1002.1,97,,,15.1,,6247,79.7,7.2,4.8
2016,9,11,20:00,UTC,,1001.5,95,,,15.4,,46252,118.3,9.9,5.2
2016,9,11,21:00,UTC,,1001.7,88,,,14,,50000,126,14.3,8.7
2016,9,11,22:00,UTC,,1002.1,81,,,12.8,,50000,130.7,12.3,7.7
2016,9,11,23:00,UTC,,1002.8,77,,,12.1,,50000,136.3,13.6,9.1
2016,9,12,00:00,UTC,,1003,73,,,12.1,,50000,138.9,15.6,10.5
2016,9,12,01:00,UTC,,1003.3,74,,,11.8,,50000,138.9,16.2,11.5
2016,9,12,02:00,UTC,,1003.4,73,,,12,,50000,138.9,16,11.7
2016,9,12,03:00,UTC,,1003.8,75,,,11.8,,50000,137.9,17,11.2
2016,9,12,04:00,UTC,,1004.3,74,,,11.8,,50000,138.4,15.9,11.4
2016,9,12,05:00,UTC,,1004.5,72,,,11.8,,43119,138.9,13.4,9.6
2016,9,12,06:00,UTC,,1004.3,69,,,12.3,,50000,141.5,14.1,10.3
2016,9,12,07:00,UTC,,1004.8,66,,,12.7,,45161,144,17.3,12
2016,9,12,08:00,UTC,,1005.2,64,,,13.5,,35214,142.5,17.6,11.8
2016,9,12,09:00,UTC,,1005.6,63,,,14,,40676,146.1,17.3,12.4
2016,9,12,10:00,UTC,,1006.4,63,,,14.3,,31940,143.5,14.7,11.2
2016,9,12,11:00,UTC,,1006.9,59,,,14.8,,50000,148.2,15.5,10.1
2016,9,12,12:00,UTC,,1008,59,,,14.9,,40966,150.2,12.5,9.5
2016,9,12,13:00,UTC,,1009.1,61,,,14.6,,50000,152.8,10.5,7.9
2016,9,12,14:00,UTC,,1009.8,63,,,14.7,,50000,157.4,9.6,6.7
2016,9,12,15:00,UTC,,1010.4,67,,,14.4,,50000,156.4,6.7,5
2016,9,12,16:00,UTC,,1011.3,69,,,14.3,,50000,155.9,6.4,4.6
2016,9,12,17:00,UTC,,1012.1,76,,,13.5,,50000,151.2,4.2,3.3
2016,9,12,18:00,UTC,,1012.7,77,,,13.3,,50000,157.4,5.1,3.6
2016,9,12,19:00,UTC,,1013.3,82,,,12.1,,50000,150.7,3,2.6
2016,9,12,20:00,UTC,,1013.8,91,,,10,,50000,148.2,2.6,2.2
2016,9,12,21:00,UTC,,1014.3,90,,,10.4,,50000,153.3,3.5,3.1
2016,9,12,22:00,UTC,,1014.7,79,,,12.1,,50000,173.4,4.5,2.6
2016,9,12,23:00,UTC,,1015.4,84,,,10.8,,50000,171.8,3,1.9
2016,9,13,00:00,UTC,,1016.1,90,,,8.3,,50000,165.1,2.6,1.9
2016,9,13,01:00,UTC,,1016.7,91,,,9.5,,50000,182.1,3.6,1.7
2016,9,13,02:00,UTC,,1017.3,93,,,8.6,,50000,170.8,2.4,1.3
2016,9,13,03:00,UTC,,1017.7,96,,,7.1,,47717,1.5,1.6,0.7
2016,9,13,04:00,UTC,,1018.4,99,,,6.3,,50000,175.4,2.3,1.4
2016,9,13,05:00,UTC,,1019,94,,,7.7,,50000,1.5,2.5,1.3
2016,9,13,06:00,UTC,,1019.1,84,,,8.5,,50000,183.1,2.8,1.7
2016,9,13,07:00,UTC,,1019.2,73,,,9.6,,50000,4.6,2.9,1.7
2016,9,13,08:00,UTC,,1020,68,,,10.5,,45231,173.9,5.1,2.3
2016,9,13,09:00,UTC,,1020.4,65,,,10.8,,50000,175.9,5.2,3.2
2016,9,13,10:00,UTC,,1020.7,62,,,11.8,,44816,171.3,5.5,3.6
2016,9,13,11:00,UTC,,1020.8,64,,,12.1,,49858,166.2,6.3,4.1
2016,9,13,12:00,UTC,,1020.7,67,,,12.6,,50000,166.7,8.3,5.1
2016,9,13,13:00,UTC,,1020.9,70,,,12.5,,50000,170.3,5.9,4
2016,9,13,14:00,UTC,,1021.2,71,,,12.7,,44811,165.7,6.7,4.3
2016,9,13,15:00,UTC,,1021.6,77,,,12.4,,50000,168.7,5.9,3.5
2016,9,13,16:00,UTC,,1021.9,82,,,11.6,,50000,165.1,4.4,2.8
2016,9,13,17:00,UTC,,1022,92,,,9.7,,50000,163.6,2.9,1.9
2016,9,13,18:00,UTC,,1022.5,98,,,8.6,,50000,160.5,2.6,2.1
2016,9,13,19:00,UTC,,1022.8,98,,,7.9,,49581,185.2,1.6,1
2016,9,13,20:00,UTC,,1022.8,98,,,6.6,,50000,15.9,1.4,1
2016,9,13,21:00,UTC,,1023.1,98,,,6.1,,37559,23.7,1.2,0.7
2016,9,13,22:00,UTC,,1023.2,98,,,5.4,,50000,55,1.4,1.1
2016,9,13,23:00,UTC,,1023.1,97,,,5.7,,47071,64.8,2.4,1.9
2016,9,14,00:00,UTC,,1023.1,97,,,4.6,,46657,65.3,1.8,1.4
2016,9,14,01:00,UTC,,1022.8,98,,,3.2,,45920,65.8,2.8,2.3
2016,9,14,02:00,UTC,,1023,99,,,2.9,,32299,64.3,1.9,1.6
2016,9,14,03:00,UTC,,1023.2,98,,,2.6,,41731,73.6,2.2,1.6
2016,9,14,04:00,UTC,,1023,98,,,2.5,,20622,76.1,2.9,1.9
2016,9,14,05:00,UTC,,1022.6,99,,,3.4,,44173,71.5,2.7,1.7
2016,9,14,06:00,UTC,,1022.2,89,,,8.4,,43701,96.7,2.7,2
2016,9,14,07:00,UTC,,1022,87,,,8.7,,50000,101.9,2.9,2.1
2016,9,14,08:00,UTC,,1021.7,75,,,11.4,,41899,99.3,3.6,2.4
2016,9,14,09:00,UTC,,1021.2,69,,,13.1,,40663,99.8,4.2,2.6
2016,9,14,10:00,UTC,,1020.5,61,,,14.6,,29187,110.6,4.6,3.3
2016,9,14,11:00,UTC,,1020.1,61,,,15.2,,39310,95.7,5.5,3.5
2016,9,14,12:00,UTC,,1019.6,64,,,15.1,,37764,146.1,4.9,2.7
2016,9,14,13:00,UTC,,1019.1,68,,,14.6,,50000,143,4.5,3.1
2016,9,14,14:00,UTC,,1018.3,63,,,15.3,,50000,139.4,5.6,3.8
2016,9,14,15:00,UTC,,1017.7,60,,,15.5,,49516,126,4.8,3.4
2016,9,14,16:00,UTC,,1017,55,,,14.1,,50000,115.2,3.4,2.4
2016,9,14,17:00,UTC,,1016.8,63,,,13.2,,50000,113.7,2.7,1.8
2016,9,14,18:00,UTC,,1015.8,73,,,12.6,,50000,101.3,4,2.7
2016,9,14,19:00,UTC,,1015.5,75,,,12.2,,50000,98.3,3.7,2.9
2016,9,14,20:00,UTC,,1014.9,79,,,11.8,,50000,99.3,4.1,3.3
2016,9,14,21:00,UTC,,1014,87,,,11.3,,50000,108.5,3.5,2.5
2016,9,14,22:00,UTC,,1013.6,87,,,11.8,,50000,116.8,4.1,2.9
2016,9,14,23:00,UTC,,1013,88,,,11.7,,50000,118.3,5.2,3.9
2016,9,15,00:00,UTC,,1012.6,92,,,11.8,,50000,120.9,4.7,3.1
2016,9,15,01:00,UTC,,1012.1,94,,,11.9,,50000,121.4,4.3,2.9
2016,9,15,02:00,UTC,,1011.8,98,,,11.7,,37815,126.6,3.4,2.8
2016,9,15,03:00,UTC,,1012.2,97,,,12.3,,50000,150.7,4.5,3.6
2016,9,15,04:00,UTC,,1012,97,,,12.5,,50000,170.3,6.9,4.8
2016,9,15,05:00,UTC,,1012.3,95,,,12.3,,50000,168.2,5,3.5
2016,9,15,06:00,UTC,,1012.6,89,,,12.9,,50000,169.3,9.7,5.7
2016,9,15,07:00,UTC,,1012.9,88,,,12.2,,41331,169.8,8,5.4
2016,9,15,08:00,UTC,,1013.7,85,,,12.8,,50000,170.8,8.3,5.5
2016,9,15,09:00,UTC,,1013.9,79,,,13.4,,41731,169.3,10,6
2016,9,15,10:00,UTC,,1014.3,74,,,14,,40185,169.8,9.7,6.3
2016,9,15,11:00,UTC,,1014.7,68,,,14.6,,50000,171.3,10.2,6.1
2016,9,15,12:00,UTC,,1015.6,59,,,14.9,,35946,2.1,8.8,5.1
2016,9,15,13:00,UTC,,1015.7,54,,,15.2,,30731,6.2,8.4,5.4
2016,9,15,14:00,UTC,,1016.1,56,,,15,,50000,181.6,7.3,3.4
2016,9,15,15:00,UTC,,1017,56,,,14.5,,49501,183.1,5.9,3.1
2016,9,15,16:00,UTC,,1017.4,68,,,12.9,,50000,169.8,6.7,4.1
2016,9,15,17:00,UTC,,1017.6,70,,,12.8,,50000,176.5,5.2,3
2016,9,15,18:00,UTC,,1018.2,74,,,12.1,,50000,182.1,5.3,2.4
2016,9,15,19:00,UTC,,1018.5,77,,,11.3,,50000,1.5,5.8,2.9
2016,9,15,20:00,UTC,,1019,78,,,10.5,,50000,180.1,5.1,2.8
2016,9,15,21:00,UTC,,1019.3,80,,,9.8,,50000,5.7,6.5,3.5
2016,9,15,22:00,UTC,,1019.6,81,,,9.1,,50000,5.1,6.3,4
2016,9,15,23:00,UTC,,1019.9,81,,,8.6,,50000,5.7,7.3,4.2
2016,9,16,00:00,UTC,,1020.2,82,,,8,,50000,3.1,6.5,3.2
2016,9,16,01:00,UTC,,1020.4,83,,,7.4,,50000,5.1,6.3,3.9
2016,9,16,02:00,UTC,,1020.8,86,,,6.7,,50000,6.2,6.6,3.6
2016,9,16,03:00,UTC,,1021.1,87,,,6.1,,50000,4.1,5.2,3.2
2016,9,16,04:00,UTC,,1021.5,88,,,5.6,,50000,5.1,5,3.1
2016,9,16,05:00,UTC,,1022,88,,,5.3,,50000,4.6,5.6,3.1
2016,9,16,06:00,UTC,,1022.4,82,,,5.9,,49177,4.6,6.1,3.5
2016,9,16,07:00,UTC,,1022.4,77,,,6.9,,45679,12.3,6.2,3.6
2016,9,16,08:00,UTC,,1022.3,71,,,8.3,,34029,11.3,6,3
2016,9,16,09:00,UTC,,1022.3,67,,,9.3,,46187,11.8,5.7,3.1
2016,9,16,10:00,UTC,,1022,62,,,10.7,,30881,9.8,5.8,2.9
2016,9,16,11:00,UTC,,1021.8,60,,,11.5,,41293,13.9,5.1,2.9
2016,9,16,12:00,UTC,,1021.5,56,,,12,,40141,11.3,5.6,2.5
2016,9,16,13:00,UTC,,1021.5,56,,,12.2,,50000,20.1,4.5,2.3
2016,9,16,14:00,UTC,,1021.5,55,,,12.2,,50000,8.7,4.5,2.4
2016,9,16,15:00,UTC,,1022,56,,,11.9,,41982,7.2,4.7,2.7
2016,9,16,16:00,UTC,,1022.2,60,,,10.8,,50000,20.1,4.7,2.5
2016,9,16,17:00,UTC,,1022.4,67,,,9,,50000,21.6,1.6,0.9
2016,9,16,18:00,UTC,,1022.5,85,,,5.7,,50000,6.2,0.9,0.6
2016,9,16,19:00,UTC,,1022.7,91,,,4.6,,50000,14.4,1.8,1.2
2016,9,16,20:00,UTC,,1022.9,85,,,5.9,,48922,26.2,2.5,1.6
2016,9,16,21:00,UTC,,1022.9,88,,,4.3,,50000,29.8,2.5,1.5
2016,9,16,22:00,UTC,,1023.3,87,,,4.2,,50000,27.8,2.3,1.3
2016,9,16,23:00,UTC,,1023.3,89,,,3.5,,50000,31.9,1.6,1
2016,9,17,00:00,UTC,,1023.4,90,,,1.5,,50000,37.6,1.5,0.9
2016,9,17,01:00,UTC,,1023.3,95,,,0.3,,46705,47.8,0.7,0.5
2016,9,17,02:00,UTC,,1023.5,94,,,-0.1,,50000,32.9,0.6,0.5
2016,9,17,03:00,UTC,,1023.6,95,,,-0.6,,50000,54,0.9,0.6
2016,9,17,04:00,UTC,,1023.6,97,,,-1.1,,50000,169.3,0.9,0.5
2016,9,17,05:00,UTC,,1023.9,89,,,1.1,,50000,61.7,2.1,1.2
2016,9,17,06:00,UTC,,1023.8,88,,,3.3,,49147,82.8,1,0.7
2016,9,17,07:00,UTC,,1023.9,80,,,5.7,,50000,65.3,0.9,0.4
2016,9,17,08:00,UTC,,1023.8,75,,,7.4,,37777,79.2,1.5,0.8
2016,9,17,09:00,UTC,,1023.6,61,,,9.2,,49484,10.3,2.3,1.3
2016,9,17,10:00,UTC,,1023.4,59,,,10.5,,45883,184.2,2.7,1.7
2016,9,17,11:00,UTC,,1023.3,57,,,10.4,,38581,169.8,2.8,1.5
2016,9,17,12:00,UTC,,1023.3,56,,,10.4,,49954,8.7,1.9,1.1
2016,9,17,13:00,UTC,,1023.1,58,,,10.9,,39832,147.6,3.7,2.6
2016,9,17,14:00,UTC,,1022.9,56,,,10.5,,46387,145.6,5,3.3
2016,9,17,15:00,UTC,,1022.9,58,,,10.2,,50000,151.2,3.7,2.9
2016,9,17,16:00,UTC,,1022.7,63,,,9.5,,50000,170.8,2.1,1.4
2016,9,17,17:00,UTC,,1022.7,84,,,5,,50000,161.5,1.2,0.9
2016,9,17,18:00,UTC,,1022.6,91,,,4.1,,50000,37,0.8,0.5
2016,9,17,19:00,UTC,,1022.5,93,,,3.6,,50000,41.2,0.5,0.2
2016,9,17,20:00,UTC,,1022.8,94,,,2.4,,28809,3.6,0.9,0.6
2016,9,17,21:00,UTC,,1022.9,94,,,2.3,,50000,67.9,0.8,0.7
2016,9,17,22:00,UTC,,1023,94,,,1.8,,50000,74.6,1.3,1
2016,9,17,23:00,UTC,,1023,95,,,1.7,,46885,80.3,1.7,1.3
2016,9,18,00:00,UTC,,1022.8,94,,,0.8,,50000,74.6,1.5,1.3
2016,9,18,01:00,UTC,,1022.9,96,,,0,,50000,65.8,1.9,1.6
2016,9,18,02:00,UTC,,1022.6,95,,,-0.3,,50000,65.8,2.4,2.2
2016,9,18,03:00,UTC,,1022.6,96,,,-1.2,,49640,62.8,2.7,2.3
2016,9,18,04:00,UTC,,1022.3,97,,,-1.1,,50000,62.8,3.4,3.2
2016,9,18,05:00,UTC,,1022.2,94,,,0.3,,50000,67.9,3,2.5
2016,9,18,06:00,UTC,,1022,90,,,2.5,,50000,73.6,3.3,2.7
2016,9,18,07:00,UTC,,1021.8,86,,,4.6,,41222,79.2,3.3,2.4
2016,9,18,08:00,UTC,,1021.5,83,,,7.1,,30550,74.6,3.2,2.4
2016,9,18,09:00,UTC,,1021.4,78,,,9.7,,44746,75.1,2.9,1.9
2016,9,18,10:00,UTC,,1021.1,65,,,11.3,,47626,123.5,2.6,1.5
2016,9,18,11:00,UTC,,1020.8,64,,,12.9,,50000,79.2,1.5,0.8
2016,9,18,12:00,UTC,,1020.5,70,,,11.9,,48432,140.4,3.7,2.3
2016,9,18,13:00,UTC,,1020.3,75,,,11.7,,33672,139.9,3.7,2.5
2016,9,18,14:00,UTC,,1019.9,69,,,12.2,,50000,144.6,5.5,3.2
2016,9,18,15:00,UTC,,1019.5,75,,,11.5,,48055,148.7,5,3.6
2016,9,18,16:00,UTC,,1019.4,83,,,10.3,,44237,150.2,2.6,2
2016,9,18,17:00,UTC,,1019.1,95,,,7.8,,50000,159.5,1.3,1
2016,9,18,18:00,UTC,,1018.9,96,,,6.7,,50000,72,0.8,0.5
2016,9,18,19:00,UTC,,1018.5,97,,,6.2,,50000,78.2,1.6,0.6
2016,9,18,20:00,UTC,,1018.3,98,,,5,,18590,91.6,1.4,0.4
2016,9,18,21:00,UTC,,1018.2,97,,,4.6,,50000,66.9,1.3,1.1
2016,9,18,22:00,UTC,,1018.2,99,,,4.1,,4085,68.4,2,1.2
2016,9,18,23:00,UTC,,1018,100,,,3.3,,13166,75.6,1.8,1.6
2016,9,19,00:00,UTC,,1017.8,99,,,4.1,,40052,62.2,0.9,0.8
2016,9,19,01:00,UTC,,1017.7,98,,,3.6,,20739,60.2,3,2.6
2016,9,19,02:00,UTC,,1017.5,98,,,2.7,,44760,66.4,1.8,1.6
2016,9,19,03:00,UTC,,1017.2,97,,,2.8,,33514,62.8,2.7,2.4
2016,9,19,04:00,UTC,,1017.3,98,,,3.2,,50000,63.8,2.9,1.8
2016,9,19,05:00,UTC,,1017.1,98,,,3.7,,33797,67.9,3.2,2.3
2016,9,19,06:00,UTC,,1017.2,96,,,5.3,,46297,66.4,2.9,2
2016,9,19,07:00,UTC,,1017.3,89,,,7.9,,50000,55,2.6,1.7
2016,9,19,08:00,UTC,,1017.3,80,,,10.2,,50000,49.9,2.6,1.6
2016,9,19,09:00,UTC,,1017.3,75,,,12.1,,50000,60.2,3.2,1.8
2016,9,19,10:00,UTC,,1017.4,79,,,12,,41946,24.7,3.4,2.2
2016,9,19,11:00,UTC,,1017.6,77,,,12.5,,49261,12.3,3.4,2.4
2016,9,19,12:00,UTC,,1017.5,76,,,12.4,,50000,29.3,2.5,1.6
2016,9,19,13:00,UTC,,1017.4,73,,,13.5,,50000,5.7,1.7,0.9
2016,9,19,14:00,UTC,,1017.4,74,,,12.9,,39562,8.7,2.6,1.7
2016,9,19,15:00,UTC,,1017.5,79,,,12.3,,50000,172.3,2.9,1.6
2016,9,19,16:00,UTC,,1017.7,84,,,11.4,,50000,174.9,1.3,0.8
2016,9,19,17:00,UTC,,1017.9,94,,,9.9,,50000,20.1,0.9,0.5
2016,9,19,18:00,UTC,,1018.2,97,,,8.4,,23339,18.5,1,0.7
2016,9,19,19:00,UTC,,1018.3,98,,,8,,50000,39.6,1.4,0.7
2016,9,19,20:00,UTC,,1018.4,98,,,8,,49124,35,1.5,1.1
2016,9,19,21:00,UTC,,1018.9,94,,,7.6,,50000,50.9,1.6,1.2
2016,9,19,22:00,UTC,,1019.4,93,,,7.8,,50000,58.1,1.8,1.5
2016,9,19,23:00,UTC,,1019.6,95,,,7.3,,50000,64.3,1.3,1
2016,9,20,00:00,UTC,,1020,97,,,7.4,,50000,60.7,1.8,1.1
2016,9,20,01:00,UTC,,1020,96,,,6.8,,50000,63.8,3.1,2.8
2016,9,20,02:00,UTC,,1020.2,96,,,6.7,,50000,69.4,2.2,1.4
2016,9,20,03:00,UTC,,1020.3,94,,,6.5,,50000,68.4,3.2,2.7
2016,9,20,04:00,UTC,,1020.6,92,,,6.7,,50000,68.4,4.9,3.2
2016,9,20,05:00,UTC,,1021,93,,,6.8,,50000,67.9,2.8,1.5
2016,9,20,06:00,UTC,,1021.3,91,,,7.1,,50000,72,2.9,1.8
2016,9,20,07:00,UTC,,1021.5,90,,,7.5,,45272,70,2.5,1.8
2016,9,20,08:00,UTC,,1021.8,86,,,8.7,,50000,82.8,3.7,2.5
2016,9,20,09:00,UTC,,1022.1,81,,,9.9,,45868,77.2,4.5,2.9
2016,9,20,10:00,UTC,,1022.2,80,,,10.4,,45250,73.6,2.5,1.7
2016,9,20,11:00,UTC,,1022.2,76,,,11.7,,41124,80.3,2.3,1.7
2016,9,20,12:00,UTC,,1022.2,77,,,12.1,,45062,84.9,2.1,1.4
2016,9,20,13:00,UTC,,1022,74,,,12.4,,49616,62.8,2.7,1.8
2016,9,20,14:00,UTC,,1021.8,75,,,12.5,,42991,61.2,2.5,2
2016,9,20,15:00,UTC,,1021.9,77,,,12.1,,43244,6.2,0.9,0.8
2016,9,20,16:00,UTC,,1022.1,81,,,11.3,,35215,39.1,0.4,0.2
2016,9,20,17:00,UTC,,1022.1,87,,,10.6,,46174,60.2,0.8,0.5
2016,9,20,18:00,UTC,,1022.2,91,,,9.6,,39963,169.3,0.4,0.2
2016,9,20,19:00,UTC,,1022.5,91,,,9.3,,37784,167.7,0.5,0.3
2016,9,20,20:00,UTC,,1022.8,93,,,9.3,,47653,11.3,0.6,0.5
2016,9,20,21:00,UTC,,1023,96,,,8.8,,26275,10.8,0.9,0.8
2016,9,20,22:00,UTC,,1023.1,97,,,9,,21820,12.3,0.9,0.7
2016,9,20,23:00,UTC,,1023.3,98,,,8.9,,17147,63.8,1,0.8
2016,9,21,00:00,UTC,,1023.2,99,,,8,,13445,130.7,0.3,0.2
2016,9,21,01:00,UTC,,1023.1,99,,,8.3,,20525,59.2,1.2,0.7
2016,9,21,02:00,UTC,,1023.3,98,,,8,,22530,97.7,0.9,0.6
2016,9,21,03:00,UTC,,1023.3,99,,,7.8,,28376,156.4,1.6,0.7
2016,9,21,04:00,UTC,,1023.4,98,,,8,,30460,55,0.6,0.4
2016,9,21,05:00,UTC,,1023.6,97,,,8.1,,32574,60.2,2.1,1.7
2016,9,21,06:00,UTC,,1023.7,95,,,9.1,,31753,65.8,1,0.8
2016,9,21,07:00,UTC,,1024,90,,,10.2,,37109,61.7,1.8,1.4
2016,9,21,08:00,UTC,,1024,73,,,12.9,,48608,112.1,0.9,0.4
2016,9,21,09:00,UTC,,1024,71,,,13.2,,40229,178.5,1.5,0.7
2016,9,21,10:00,UTC,,1024,64,,,14.2,,50000,166.7,2.3,1
2016,9,21,11:00,UTC,,1023.9,68,,,13.6,,39444,171.3,3.6,2.6
2016,9,21,12:00,UTC,,1024,77,,,12.8,,50000,173.4,3.5,2.3
2016,9,21,13:00,UTC,,1024,79,,,12.9,,48288,177,2.5,1.5
2016,9,21,14:00,UTC,,1023.7,74,,,13.6,,46149,171.3,2.6,1.8
2016,9,21,15:00,UTC,,1023.6,73,,,13.3,,50000,178,2.2,1.2
2016,9,21,16:00,UTC,,1023.7,82,,,12.2,,48791,2.1,1.1,0.4
2016,9,21,17:00,UTC,,1023.9,78,,,12,,50000,48.9,4,2.9
2016,9,21,18:00,UTC,,1024.2,77,,,11.6,,50000,44.2,3.6,2.4
2016,9,21,19:00,UTC,,1024.5,77,,,11.1,,50000,46.8,3.4,2.4
2016,9,21,20:00,UTC,,1024.7,78,,,10.1,,50000,58.6,4.9,3.8
2016,9,21,21:00,UTC,,1024.9,80,,,9.5,,50000,66.9,4.4,3.6
2016,9,21,22:00,UTC,,1025.3,82,,,8.8,,50000,61.7,5,4
2016,9,21,23:00,UTC,,1025.7,85,,,7.3,,50000,58.6,4.3,3.3
2016,9,22,00:00,UTC,,1025.8,84,,,7,,50000,59.2,5.8,4.6
2016,9,22,01:00,UTC,,1025.8,83,,,6.7,,43302,60.2,4.8,3.9
2016,9,22,02:00,UTC,,1025.7,83,,,6.5,,50000,63.3,4,3.1
2016,9,22,03:00,UTC,,1025.6,86,,,5.8,,48479,58.6,3.3,2.8
2016,9,22,04:00,UTC,,1025.5,79,,,7,,49405,50.4,2.2,1.7
2016,9,22,05:00,UTC,,1025.5,78,,,7.2,,44569,28.8,1.7,1
2016,9,22,06:00,UTC,,1025.7,76,,,7.8,,50000,38.6,2.8,1.7
2016,9,22,07:00,UTC,,1025.6,75,,,8.2,,50000,52,3.9,2.7
2016,9,22,08:00,UTC,,1025.8,65,,,8.9,,50000,58.1,5.6,4.6
2016,9,22,09:00,UTC,,1025.8,67,,,8.8,,50000,53.5,5.1,3.6
2016,9,22,10:00,UTC,,1025.6,67,,,8.7,,50000,41.7,4.8,3
2016,9,22,11:00,UTC,,1025.4,65,,,8.9,,50000,39.6,5,3.7
2016,9,22,12:00,UTC,,1025.1,66,,,9,,45606,37,3.1,1.6
2016,9,22,13:00,UTC,,1024.8,63,,,9.3,,47026,37,2.8,1.6
2016,9,22,14:00,UTC,,1024.5,65,,,9.2,,44394,36,3.9,2.4
2016,9,22,15:00,UTC,,1024.1,67,,,9.1,,33666,21.1,3.7,1.8
2016,9,22,16:00,UTC,,1023.9,70,,,8.9,,36979,20.1,2.2,1.2
2016,9,22,17:00,UTC,,1023.6,69,,,8.7,,41365,18.5,2.7,1.4
2016,9,22,18:00,UTC,,1023.4,65,,,8.8,,50000,32.4,3.1,1.9
2016,9,22,19:00,UTC,,1023.1,73,,,8.3,,48815,14.4,2.3,1.4
2016,9,22,20:00,UTC,,1022.9,74,,,8.2,,47598,17.5,2.2,1.2
2016,9,22,21:00,UTC,,1022.6,77,,,7.9,,50000,184.7,1.6,0.9
2016,9,22,22:00,UTC,,1022.3,80,,,7.6,,40202,27.8,2.1,1.4
2016,9,22,23:00,UTC,,1021.8,82,,,7.4,,39172,26.8,2.3,1.5
2016,9,23,00:00,UTC,,1021.6,71,,,7.9,,50000,35.5,3.2,1.7
2016,9,23,01:00,UTC,,1021.1,79,,,7.5,,48741,30.9,2.2,1.3
2016,9,23,02:00,UTC,,1020.8,78,,,7.3,,50000,37.6,2.5,1.5
2016,9,23,03:00,UTC,,1020.5,80,,,7.3,,50000,32.9,2.5,1.4
2016,9,23,04:00,UTC,,1020.2,79,,,7.5,,50000,26.8,3,1.7
2016,9,23,05:00,UTC,,1019.9,79,,,7.5,,50000,26.8,3.9,1.9
2016,9,23,06:00,UTC,,1019.6,80,,,7.6,,50000,18.5,3.5,1.8
2016,9,23,07:00,UTC,,1019.4,78,,,7.4,,50000,30.4,4.4,2.8
2016,9,23,08:00,UTC,,1019.2,74,,,7.5,,50000,20.1,6.1,2.8
2016,9,23,09:00,UTC,,1018.6,73,,,7.6,,50000,16.5,4,2.2
2016,9,23,10:00,UTC,,1017.7,73,,,8.2,,41040,1,5.4,2.8
2016,9,23,11:00,UTC,,1017.2,72,,,8.5,,48685,184.7,4.6,2.3
2016,9,23,12:00,UTC,,1016.8,72,,,8.8,,48491,8.2,4.7,2.8
2016,9,23,13:00,UTC,,1016.5,72,,,8.9,,50000,6.7,5,3
2016,9,23,14:00,UTC,,1015.9,73,,,8.9,,50000,2.6,4,2.6
2016,9,23,15:00,UTC,,1015.4,75,,,9.1,,50000,2.1,4.2,2.5
2016,9,23,16:00,UTC,,1015.1,74,,,9.3,,50000,6.2,5.3,3.3
2016,9,23,17:00,UTC,,1014.6,74,,,9.3,,46642,4.6,4.7,3
2016,9,23,18:00,UTC,,1014.2,74,,,9.2,,47313,3.6,4.3,2.9
2016,9,23,19:00,UTC,,1013.8,76,,,9.2,,48870,184.7,4.9,2.5
2016,9,23,20:00,UTC,,1013.3,77,,,9.1,,43284,183.1,5.2,2.9
2016,9,23,21:00,UTC,,1012.9,79,,,8.8,,50000,3.1,5.4,3.3
2016,9,23,22:00,UTC,,1012.6,81,,,8.4,,38829,3.6,5.9,3
2016,9,23,23:00,UTC,,1012.2,83,,,8.1,,33276,2.1,4.3,2.4
2016,9,24,00:00,UTC,,1011.7,84,,,8,,50000,4.6,6.3,3.8
2016,9,24,01:00,UTC,,1011.4,85,,,7.7,,44405,5.1,5.5,3.3
2016,9,24,02:00,UTC,,1011.4,86,,,7.7,,37338,9.3,3.9,2.4
2016,9,24,03:00,UTC,,1011.5,85,,,7.9,,47813,183.1,4.2,2.1
2016,9,24,04:00,UTC,,1011.6,85,,,8,,42709,175.4,3.4,1.8
2016,9,24,05:00,UTC,,1011.6,90,,,7.5,,34492,165.7,3.2,2.1
2016,9,24,06:00,UTC,,1011.6,89,,,7.8,,18921,173.9,3.3,1.6
2016,9,24,07:00,UTC,,1011.5,86,,,8.2,,38199,176.5,2.9,1.7
2016,9,24,08:00,UTC,,1011.6,86,,,8.4,,40886,175.4,2.9,1.5
2016,9,24,09:00,UTC,,1011.7,83,,,8.8,,50000,168.7,2.5,1.6
2016,9,24,10:00,UTC,,1012.2,82,,,9.3,,44243,160,5.6,4.2
2016,9,24,11:00,UTC,,1012.3,82,,,9.5,,40831,163.1,5.3,3.9
2016,9,24,12:00,UTC,,1012.4,80,,,9.6,,27656,162.6,4.3,3.1
2016,9,24,13:00,UTC,,1012.5,74,,,9.7,,35750,162,5.2,3.9
2016,9,24,14:00,UTC,,1012.8,71,,,9.7,,44015,156.9,4.5,3.5
2016,9,24,15:00,UTC,,1013.1,79,,,9.3,,50000,146.6,3.5,2.8
2016,9,24,16:00,UTC,,1013.5,79,,,9.2,,50000,143,3.6,2.6
2016,9,24,17:00,UTC,,1013.9,78,,,8.8,,50000,152.3,3.5,2.8
2016,9,24,18:00,UTC,,1013.9,73,,,8.9,,50000,137.9,2.8,2
2016,9,24,19:00,UTC,,1013.9,78,,,8.5,,50000,116.3,2.7,1.9
2016,9,24,20:00,UTC,,1014.2,77,,,8.4,,50000,109.1,3.8,2.5
2016,9,24,21:00,UTC,,1014.4,79,,,8.2,,50000,104.9,4.2,2.9
2016,9,24,22:00,UTC,,1014.4,79,,,8,,50000,100.8,3.6,2.5
2016,9,24,23:00,UTC,,1014.7,81,,,7.7,,50000,101.9,4.3,2.8
2016,9,25,00:00,UTC,,1014.7,97,,,6.9,,13161,91.1,4.5,3
2016,9,25,01:00,UTC,,1014.8,96,,,6.8,,31236,75.6,5.3,3.9
2016,9,25,02:00,UTC,,1014.8,97,,,6.7,,26503,86.4,4.6,3
2016,9,25,03:00,UTC,,1015.1,97,,,7,,24057,84.4,3.9,2.5
2016,9,25,04:00,UTC,,1015,97,,,7.3,,21057,91.1,3.1,2.2
2016,9,25,05:00,UTC,,1015.2,98,,,7.7,,14901,88.5,3.6,2.6
2016,9,25,06:00,UTC,,1015.6,97,,,8.3,,19486,91.1,3.4,2.5
2016,9,25,07:00,UTC,,1015.9,96,,,8.8,,26329,88,5,3.6
2016,9,25,08:00,UTC,,1015.9,94,,,9.5,,50000,81.8,4.4,3.3
2016,9,25,09:00,UTC,,1015.9,89,,,10.7,,48432,93.1,5.9,3.9
2016,9,25,10:00,UTC,,1016.5,84,,,11.5,,50000,96.2,5.5,4
2016,9,25,11:00,UTC,,1016.3,86,,,11.8,,42227,90.5,4.9,3.3
2016,9,25,12:00,UTC,,1016.5,81,,,12.9,,50000,86.4,4.7,3.4
2016,9,25,13:00,UTC,,1016.6,82,,,12.7,,47151,83.3,4.1,3.1
2016,9,25,14:00,UTC,,1016.7,80,,,13,,50000,79.2,3.2,2.4
2016,9,25,15:00,UTC,,1017,83,,,12.5,,50000,80.3,2.9,2
2016,9,25,16:00,UTC,,1017.6,90,,,11.8,,50000,65.3,1.9,1.6
2016,9,25,17:00,UTC,,1017.6,90,,,11.5,,50000,78.2,3,2.2
2016,9,25,18:00,UTC,,1017.7,95,,,10.4,,50000,73.1,3.3,2.7
2016,9,25,19:00,UTC,,1017.9,96,,,10.1,,50000,77.2,2.9,2.5
2016,9,25,20:00,UTC,,1018.4,97,,,9.5,,25389,79.2,2.7,2.1
2016,9,25,21:00,UTC,,1018.9,99,,,9.1,,19971,80.8,2.9,2.2
2016,9,25,22:00,UTC,,1019.3,100,,,8.9,,14473,84.9,3.1,2.3
2016,9,25,23:00,UTC,,1019.5,100,,,9.5,,15792,84.9,3.2,2.2
2016,9,26,00:00,UTC,,1019.5,99,,,9.9,,17278,79.2,3.7,2.9
2016,9,26,01:00,UTC,,1019.6,100,,,9.2,,9248,77.2,3.7,2.8
2016,9,26,02:00,UTC,,1019.8,100,,,9.2,,963,79.7,4.2,3.1
2016,9,26,03:00,UTC,,1020.1,100,,,8.7,,1282,76.7,3.5,2.8
2016,9,26,04:00,UTC,,1020.3,100,,,8.4,,981,72,4,2.3
2016,9,26,05:00,UTC,,1020.7,100,,,9.3,,476,76.1,3.9,2.7
2016,9,26,06:00,UTC,,1021.1,100,,,10.1,,1294,78.2,4.4,3.4
2016,9,26,07:00,UTC,,1021.1,100,,,10.5,,8831,78.7,4.1,3.1
2016,9,26,08:00,UTC,,1021.1,100,,,11.1,,23674,77.2,4,3.1
2016,9,26,09:00,UTC,,1021.2,97,,,12.1,,50000,80.3,4.3,3.2
2016,9,26,10:00,UTC,,1021.5,89,,,13,,47207,81.3,4.2,2.8
2016,9,26,11:00,UTC,,1021.5,84,,,13.6,,37276,87.5,3.4,2.4
2016,9,26,12:00,UTC,,1021.6,80,,,13.9,,50000,92.6,3.8,2.2
2016,9,26,13:00,UTC,,1021.6,83,,,13.8,,50000,93.1,2.8,1.8
2016,9,26,14:00,UTC,,1021.7,81,,,14.2,,48172,70,2.2,1.7
2016,9,26,15:00,UTC,,1021.9,83,,,13.9,,50000,82.3,4,1.8
2016,9,26,16:00,UTC,,1022.2,94,,,12.3,,16730,146.1,2.9,2.3
2016,9,26,17:00,UTC,,1022.3,98,,,12,,11166,152.8,1,0.8
2016,9,26,18:00,UTC,,1022.5,99,,,12,,10053,110.6,1.3,0.6
2016,9,26,19:00,UTC,,1022.5,99,,,11.4,,6400,66.9,2.6,2.2
2016,9,26,20:00,UTC,,1022.6,100,,,9.4,,488,66.9,2.2,1.9
2016,9,26,21:00,UTC,,1022.6,100,,,11.4,,16164,84.4,3.2,2.4
2016,9,26,22:00,UTC,,1022.5,96,,,11.5,,20974,82.8,3,2.3
2016,9,26,23:00,UTC,,1022.6,97,,,10.9,,20978,79.7,2.9,2.2
2016,9,27,00:00,UTC,,1022.7,94,,,11.2,,22786,83.3,4.4,3.1
2016,9,27,01:00,UTC,,1022.7,95,,,10.8,,28091,79.2,4.2,3.1
2016,9,27,02:00,UTC,,1022.6,94,,,10.7,,26483,82.3,3.2,2.4
2016,9,27,03:00,UTC,,1022.6,95,,,10.6,,30056,77.7,4.5,2.8
2016,9,27,04:00,UTC,,1022.6,97,,,10,,18658,83.3,5.3,2.3
2016,9,27,05:00,UTC,,1022.6,99,,,9.7,,14604,79.2,3.6,2.2
2016,9,27,06:00,UTC,,1022.6,97,,,10.2,,15342,80.8,2.7,1.9
2016,9,27,07:00,UTC,,1022.5,97,,,10.4,,13053,89,4.8,3.5
2016,9,27,08:00,UTC,,1022.2,94,,,11.1,,32099,86.4,4.3,2.9
2016,9,27,09:00,UTC,,1021.9,84,,,13.3,,50000,81.8,4.9,3.4
2016,9,27,10:00,UTC,,1021.4,77,,,14.9,,44259,84.4,5.5,3.9
2016,9,27,11:00,UTC,,1021.1,73,,,16.1,,39623,95.7,6.4,3.8
2016,9,27,12:00,UTC,,1020.9,72,,,16,,45089,111.6,5.6,3
2016,9,27,13:00,UTC,,1020.5,93,,,11.6,,28564,143,5,4.2
2016,9,27,14:00,UTC,,1020.1,91,,,12.5,,47904,157.9,2.5,1.9
2016,9,27,15:00,UTC,,1019.8,95,,,11.6,,14452,154.3,2.8,2
2016,9,27,16:00,UTC,,1019.4,96,,,11.4,,13378,182.1,0.9,0.6
2016,9,27,17:00,UTC,,1018.6,95,,,11.6,,15828,45.8,2.4,1.5
2016,9,27,18:00,UTC,,1017.9,96,,,11.5,,13349,12.3,1.4,0.6
2016,9,27,19:00,UTC,,1017,94,,,11.9,,36210,78.2,3,2.2
2016,9,27,20:00,UTC,,1016.1,92,,,13,,48939,84.4,4.7,2.9
2016,9,27,21:00,UTC,,1015.5,90,,,12.6,,48067,93.1,5.8,4
2016,9,27,22:00,UTC,,1015,87,,,12.1,,48904,86.9,7.1,5.2
2016,9,27,23:00,UTC,,1014.1,89,,,11.9,,50000,83.3,7.6,5
2016,9,28,00:00,UTC,,1013,88,,,12.1,,50000,78.7,6.6,4.9
2016,9,28,01:00,UTC,,1012,89,,,11.9,,50000,74.1,7,4.5
2016,9,28,02:00,UTC,,1010.9,88,,,12,,48910,73.1,6.9,5.3
2016,9,28,03:00,UTC,,1009.8,87,,,12.1,,50000,74.1,6.7,4.7
2016,9,28,04:00,UTC,,1008.7,86,,,12.3,,44996,81.3,7.4,5.6
2016,9,28,05:00,UTC,,1007.8,80,,,11.9,,50000,79.7,8,5.6
2016,9,28,06:00,UTC,,1006.3,79,,,12.1,,50000,76.7,10.2,6.9
2016,9,28,07:00,UTC,,1005.6,76,,,12.7,,50000,81.8,12.9,7.1
2016,9,28,08:00,UTC,,1004.8,76,,,12.9,,50000,77.2,9.4,7.1
2016,9,28,09:00,UTC,,1004,73,,,13.3,,50000,79.2,11.3,7
2016,9,28,10:00,UTC,,1003.3,74,,,13.5,,50000,81.3,9.8,6.6
2016,9,28,11:00,UTC,,1002.3,73,,,13.5,,50000,77.2,10.9,7.6
2016,9,28,12:00,UTC,,1001.4,71,,,13.7,,50000,77.2,11.5,8.3
2016,9,28,13:00,UTC,,1000.7,84,,,12.3,,16586,77.7,12.4,7.4
2016,9,28,14:00,UTC,,999.9,89,,,11.5,,15480,73.1,10,7.2
2016,9,28,15:00,UTC,,999.4,91,,,11.2,,20221,72,9.3,7.2
2016,9,28,16:00,UTC,,998.9,92,,,10.7,,22040,72,10.5,7.4
2016,9,28,17:00,UTC,,998.7,92,,,10.4,,26008,74.1,11,7.3
2016,9,28,18:00,UTC,,998.1,94,,,10.3,,25389,73.6,10.4,7.1
2016,9,28,19:00,UTC,,997.7,94,,,10.3,,27835,76.1,9.7,6.5
2016,9,28,20:00,UTC,,997.3,95,,,10.3,,18903,74.6,8.1,5.7
2016,9,28,21:00,UTC,,996.6,95,,,10.4,,29797,71,8,6.2
2016,9,28,22:00,UTC,,996.1,95,,,10.5,,23439,76.1,9.3,6.1
2016,9,28,23:00,UTC,,996,96,,,10.4,,30635,78.7,6.7,4.7
2016,9,29,00:00,UTC,,996,96,,,10.4,,50000,81.8,5.8,4
2016,9,29,01:00,UTC,,995.9,97,,,10.3,,50000,83.9,5.2,3.7
2016,9,29,02:00,UTC,,995.7,97,,,10,,50000,80.8,4.9,3
2016,9,29,03:00,UTC,,995.7,97,,,10.2,,50000,83.9,4.2,3.1
2016,9,29,04:00,UTC,,995.6,98,,,10.2,,21333,89,4.6,3.1
2016,9,29,05:00,UTC,,995.3,97,,,10.3,,50000,82.3,4.6,2.9
2016,9,29,06:00,UTC,,995,95,,,10.5,,50000,84.9,5.6,4.1
2016,9,29,07:00,UTC,,994.7,93,,,10.5,,50000,86.4,5.8,4
2016,9,29,08:00,UTC,,994.6,91,,,10.9,,49979,84.9,6.6,4.5
2016,9,29,09:00,UTC,,994.3,88,,,11.6,,47082,88,6.8,4.2
2016,9,29,10:00,UTC,,993.8,80,,,12.4,,50000,97.7,7.3,5.4
2016,9,29,11:00,UTC,,993.1,77,,,12.6,,50000,85.9,6.6,4.6
2016,9,29,12:00,UTC,,991.9,71,,,12.8,,50000,81.3,7.1,4.7
2016,9,29,13:00,UTC,,990.7,79,,,12.3,,50000,73.6,7.8,4.9
2016,9,29,14:00,UTC,,988.7,80,,,11.8,,50000,69.4,8.2,6.1
2016,9,29,15:00,UTC,,987.1,81,,,11.6,,50000,70.5,9,7.1
2016,9,29,16:00,UTC,,986.6,89,,,10.5,,30136,80.8,9.1,5.7
2016,9,29,17:00,UTC,,983.1,97,,,9.8,,18022,59.2,10.1,7.6
2016,9,29,18:00,UTC,,979.5,95,,,9.4,,7798,63.3,17.4,12
2016,9,29,19:00,UTC,,977.3,97,,,9.9,,49109,67.4,13.8,9.9
2016,9,29,20:00,UTC,,975.1,96,,,10.3,,50000,70,13.9,9.8
2016,9,29,21:00,UTC,,973.8,94,,,11,,50000,73.1,11.8,8.7
2016,9,29,22:00,UTC,,973.4,90,,,11.2,,50000,88.5,11.9,7.2
2016,9,29,23:00,UTC,,972.7,88,,,11,,50000,84.4,10.1,6.7
2016,9,30,00:00,UTC,,972.2,86,,,10.7,,50000,85.4,10.3,7
2016,9,30,01:00,UTC,,972.2,91,,,9.9,,24655,106,8.4,5.2
2016,9,30,02:00,UTC,,971.6,89,,,10.2,,50000,92.6,9.2,6.2
2016,9,30,03:00,UTC,,971.6,86,,,10.5,,50000,94.7,12,7.3
2016,9,30,04:00,UTC,,971.6,85,,,10.4,,50000,96.2,9.9,6.5
2016,9,30,05:00,UTC,,971.7,83,,,10.6,,47935,102.9,10.3,6.2
2016,9,30,06:00,UTC,,972,81,,,10.6,,50000,107,9.5,5.5
2016,9,30,07:00,UTC,,972.4,89,,,10.4,,26729,113.2,7.4,4.9
2016,9,30,08:00,UTC,,972.8,80,,,11.1,,50000,119.4,7.9,5.1
2016,9,30,09:00,UTC,,973.2,87,,,10.9,,50000,108,7.8,5.2
2016,9,30,10:00,UTC,,974,78,,,11.1,,50000,123,9.2,6.6
2016,9,30,11:00,UTC,,974.7,78,,,10.9,,50000,121.9,9.8,6.4
2016,9,30,12:00,UTC,,975.4,78,,,11,,50000,118.8,10.6,6.8
2016,9,30,13:00,UTC,,976.5,72,,,10.8,,50000,132.2,14.1,8.6
2016,9,30,14:00,UTC,,977.5,72,,,10.9,,50000,130.2,13.8,8.3
2016,9,30,15:00,UTC,,978.3,69,,,11.4,,50000,129.6,12,8
2016,9,30,16:00,UTC,,978.9,71,,,11.5,,50000,125,11.5,7.8
2016,9,30,17:00,UTC,,979.7,69,,,11.4,,50000,133.8,12,8.4
2016,9,30,18:00,UTC,,980.6,65,,,11.4,,50000,131.2,13.7,8.6
2016,9,30,19:00,UTC,,981.5,70,,,11.1,,50000,133.2,13.1,8.4
2016,9,30,20:00,UTC,,982.2,69,,,10.5,,50000,131.2,12.9,9.3
2016,9,30,21:00,UTC,,982.8,69,,,10.2,,50000,129.6,13.3,8.5
2016,9,30,22:00,UTC,,983.2,71,,,9.6,,50000,122.4,8.5,5.7
2016,9,30,23:00,UTC,,983.4,74,,,9.2,,50000,123.5,8.3,5.3
2016,10,1,00:00,UTC,,983.8,76,,,8.8,,50000,117.3,5.9,4.3
2016,10,1,01:00,UTC,,984,82,,,8.1,,50000,110.1,6,3.3
2016,10,1,02:00,UTC,,984.2,91,,,6.2,,50000,87.5,4.4,3.5
2016,10,1,03:00,UTC,,984.5,90,,,6,,50000,99.3,5.6,3.6
2016,10,1,04:00,UTC,,984.6,92,,,6.1,,50000,100.3,6,4.1
2016,10,1,05:00,UTC,,984.8,93,,,6.1,,50000,98.8,6.3,4.6
2016,10,1,06:00,UTC,,985.4,90,,,6.8,,34787,103.9,6.7,4.7
2016,10,1,07:00,UTC,,985.8,87,,,7.9,,50000,99.3,7,4.4
2016,10,1,08:00,UTC,,986.7,83,,,8.8,,50000,107,6.7,4.2
2016,10,1,09:00,UTC,,987.6,77,,,9.6,,50000,118.8,7.5,5.2
2016,10,1,10:00,UTC,,988.8,78,,,9.5,,50000,121.9,9.4,5.9
2016,10,1,11:00,UTC,,989.7,77,,,9.7,,50000,120.4,8.9,5.9
2016,10,1,12:00,UTC,,990.6,77,,,10,,36656,122.4,8.5,5.4
2016,10,1,13:00,UTC,,991.5,75,,,10.4,,50000,125.5,10.3,6.6
2016,10,1,14:00,UTC,,992.3,75,,,10.8,,50000,126,8.4,5.8
2016,10,1,15:00,UTC,,992.9,72,,,11.1,,50000,121.9,9.2,5.7
2016,10,1,16:00,UTC,,993.8,81,,,9.9,,50000,121.4,5.6,4
2016,10,1,17:00,UTC,,994.6,83,,,9.7,,50000,120.9,4.9,3.3
2016,10,1,18:00,UTC,,995.4,72,,,10.8,,50000,141,10.2,6.6
2016,10,1,19:00,UTC,,996.3,69,,,10.4,,50000,143,8.9,6.5
2016,10,1,20:00,UTC,,997.3,70,,,10.1,,50000,140.4,9.3,6.4
2016,10,1,21:00,UTC,,998.5,71,,,9.6,,50000,137.4,7.8,5.7
2016,10,1,22:00,UTC,,999.6,70,,,9.1,,50000,137.4,7.4,5.3
2016,10,1,23:00,UTC,,1000.5,71,,,9,,50000,137.4,9.2,5.9
2016,10,2,00:00,UTC,,1001.2,73,,,8.5,,50000,136.8,8.5,5.9
2016,10,2,01:00,UTC,,1002,75,,,8,,50000,138.4,6.5,5
2016,10,2,02:00,UTC,,1002.8,76,,,8,,50000,134.3,6.2,4.7
2016,10,2,03:00,UTC,,1003.6,84,,,6.3,,50000,115.7,4.6,2.8
2016,10,2,04:00,UTC,,1004.2,89,,,5.4,,50000,115.7,3.7,2.7
2016,10,2,05:00,UTC,,1005.1,89,,,5.6,,50000,110.6,4.5,3.1
2016,10,2,06:00,UTC,,1006.2,88,,,5.9,,50000,110.6,3.7,2.6
2016,10,2,07:00,UTC,,1007,82,,,7.2,,50000,114.2,4.9,3.3
2016,10,2,08:00,UTC,,1007.7,75,,,8.5,,50000,132.7,7.7,5.3
2016,10,2,09:00,UTC,,1008.5,74,,,9,,50000,131.2,8.2,5.8
2016,10,2,10:00,UTC,,1009.2,71,,,9.6,,31894,132.2,8.5,6.1
2016,10,2,11:00,UTC,,1010,72,,,9.6,,43133,136.3,9.2,6.6
2016,10,2,12:00,UTC,,1010.6,71,,,9.5,,50000,132.7,8.7,6.4
2016,10,2,13:00,UTC,,1011.2,70,,,9.6,,50000,132.7,8.8,5.6
2016,10,2,14:00,UTC,,1011.8,69,,,9.4,,49343,130.2,7.2,5
2016,10,2,15:00,UTC,,1012.3,70,,,9.1,,50000,124.5,5.6,3.5
2016,10,2,16:00,UTC,,1012.9,79,,,7.7,,50000,111.1,3.8,2.7
2016,10,2,17:00,UTC,,1013.5,83,,,6.9,,50000,103.4,5.8,3.1
2016,10,2,18:00,UTC,,1013.8,87,,,6.2,,50000,104.4,4.4,3.1
2016,10,2,19:00,UTC,,1014.4,89,,,5.7,,50000,111.6,3.4,2.4
2016,10,2,20:00,UTC,,1014.9,90,,,5.6,,50000,117.8,6.1,3.1
2016,10,2,21:00,UTC,,1015.5,95,,,4,,50000,122.4,2.2,1.7
2016,10,2,22:00,UTC,,1016.1,94,,,3.9,,50000,129.1,2.2,1.9
2016,10,2,23:00,UTC,,1016.7,96,,,3,,50000,144.6,2.7,2.3
2016,10,3,00:00,UTC,,1017.3,93,,,3.6,,50000,149.7,3.1,2.7
2016,10,3,01:00,UTC,,1018.1,85,,,4.9,,50000,163.6,3.8,3
2016,10,3,02:00,UTC,,1019,90,,,4.3,,50000,170.3,3.1,1.8
2016,10,3,03:00,UTC,,1019.8,76,,,5.8,,50000,179.5,4.1,2
2016,10,3,04:00,UTC,,1020.7,75,,,5.3,,50000,181.1,3.7,2.1
2016,10,3,05:00,UTC,,1021.5,82,,,4.5,,50000,175.9,3.8,1.9
2016,10,3,06:00,UTC,,1022.2,74,,,5.1,,50000,182.1,3.2,1.8
2016,10,3,07:00,UTC,,1023.1,71,,,5.7,,50000,173.4,4.7,2.8
2016,10,3,08:00,UTC,,1023.8,66,,,6.5,,46242,177,4.3,2.3
2016,10,3,09:00,UTC,,1024.3,70,,,6.9,,38240,166.7,5.8,3.9
2016,10,3,10:00,UTC,,1025.3,68,,,6.9,,40486,169.3,4.8,3
2016,10,3,11:00,UTC,,1026,68,,,7,,49754,158.4,5.6,4.4
2016,10,3,12:00,UTC,,1026.8,72,,,7,,50000,161,6.2,4
2016,10,3,13:00,UTC,,1027.7,66,,,7.4,,42967,175.4,6,3.4
2016,10,3,14:00,UTC,,1028.4,67,,,7.4,,50000,168.7,5.7,3.8
2016,10,3,15:00,UTC,,1029.2,68,,,6.7,,50000,168.7,3.8,2.7
2016,10,3,16:00,UTC,,1030,66,,,6.4,,50000,169.3,4.5,3.2
2016,10,3,17:00,UTC,,1030.9,61,,,7.1,,50000,174.4,8,4
2016,10,3,18:00,UTC,,1031.9,61,,,6.9,,50000,179,7.1,3.6
2016,10,3,19:00,UTC,,1032.9,63,,,6.5,,50000,182.1,7.4,3.6
2016,10,3,20:00,UTC,,1034,67,,,5.8,,50000,2.1,7.4,4.1
2016,10,3,21:00,UTC,,1034.8,71,,,4.8,,50000,184.7,8.4,4.3
2016,10,3,22:00,UTC,,1035.6,74,,,4.2,,50000,3.1,8.5,4.9
2016,10,3,23:00,UTC,,1036.3,81,,,3.3,,50000,6.2,6.5,3.9
2016,10,4,00:00,UTC,,1037.4,83,,,3.2,,50000,3.1,8.4,5
2016,10,4,01:00,UTC,,1038.4,84,,,3,,50000,4.6,7.5,5.1
2016,10,4,02:00,UTC,,1039.2,85,,,2.8,,50000,4.6,7.1,4.3
2016,10,4,03:00,UTC,,1039.9,87,,,2.2,,50000,2.6,6.5,3.9
2016,10,4,04:00,UTC,,1041,88,,,2.4,,50000,2.1,5.8,3.4
2016,10,4,05:00,UTC,,1041.9,90,,,2,,50000,2.6,5.8,3.1
2016,10,4,06:00,UTC,,1042.8,87,,,2,,50000,1,6.1,3.6
2016,10,4,07:00,UTC,,1043.4,82,,,3.1,,40456,4.6,6.1,3.7
2016,10,4,08:00,UTC,,1044.1,77,,,4.1,,47671,3.1,4.7,3.1
2016,10,4,09:00,UTC,,1044.2,70,,,5.4,,50000,7.2,5.3,3.5
2016,10,4,10:00,UTC,,1044.5,65,,,6.1,,37060,183.1,5.3,3.1
2016,10,4,11:00,UTC,,1044.6,63,,,7,,42280,184.7,5,3
2016,10,4,12:00,UTC,,1044.9,57,,,7.6,,32736,175.9,5.4,3.1
2016,10,4,13:00,UTC,,1044.7,60,,,7.7,,50000,174.4,4.2,2.5
2016,10,4,14:00,UTC,,1044.8,63,,,7.3,,50000,170.8,5.3,3.3
2016,10,4,15:00,UTC,,1044.9,69,,,6.1,,50000,165.7,4,2.8
2016,10,4,16:00,UTC,,1045.2,71,,,5.1,,50000,173.9,3.1,1.8
2016,10,4,17:00,UTC,,1045.6,77,,,2.9,,50000,178.5,2,1.3
2016,10,4,18:00,UTC,,1045.7,88,,,-0.1,,50000,27.3,0.7,0.3
2016,10,4,19:00,UTC,,1045.8,93,,,-0.3,,50000,30.9,1.5,0.8
2016,10,4,20:00,UTC,,1045.7,92,,,-1.3,,50000,180.1,0.8,0.5
2016,10,4,21:00,UTC,,1045.8,98,,,-1.1,,50000,73.1,0.8,0.5
2016,10,4,22:00,UTC,,1045.7,97,,,-2,,50000,65.3,1.1,0.5
2016,10,4,23:00,UTC,,1045.8,96,,,-2.6,,50000,88.5,0.7,0.4
2016,10,5,00:00,UTC,,1045.8,94,,,-3.1,,50000,81.8,1.4,1.1
2016,10,5,01:00,UTC,,1045.8,93,,,-3.4,,50000,72,1.2,0.8
2016,10,5,02:00,UTC,,1045.8,96,,,-3.5,,50000,63.3,2.4,2
2016,10,5,03:00,UTC,,1045.6,92,,,-4.4,,50000,66.9,2.4,2.1
2016,10,5,04:00,UTC,,1045.6,95,,,-3.9,,50000,71,2.2,1.8
2016,10,5,05:00,UTC,,1045.6,93,,,-4.1,,47525,67.9,2.4,1.8
2016,10,5,06:00,UTC,,1045.8,91,,,-2.3,,50000,73.1,3,1.6
2016,10,5,07:00,UTC,,1045.5,88,,,0,,45040,85.4,3.1,2.2
2016,10,5,08:00,UTC,,1045.2,82,,,3.1,,49797,88,3.5,2.5
2016,10,5,09:00,UTC,,1044.7,69,,,5.9,,43519,95.2,4.7,3.5
2016,10,5,10:00,UTC,,1044.4,67,,,7.1,,49517,101.9,5.1,3.5
2016,10,5,11:00,UTC,,1043.6,62,,,7.8,,34603,95.2,5.8,4.2
2016,10,5,12:00,UTC,,1043.2,55,,,8.3,,47093,99.8,5.1,3.3
2016,10,5,13:00,UTC,,1043,57,,,8.1,,50000,101.9,4.1,2.9
2016,10,5,14:00,UTC,,1041.8,58,,,7.8,,50000,93.6,5,3.2
2016,10,5,15:00,UTC,,1041.6,61,,,7,,50000,106.5,5.3,2.7
2016,10,5,16:00,UTC,,1041.4,69,,,5.4,,50000,113.2,3.2,2
2016,10,5,17:00,UTC,,1041,72,,,4.3,,50000,102.4,2.7,1.8
2016,10,5,18:00,UTC,,1040.3,79,,,2.7,,50000,89,4.3,3
2016,10,5,19:00,UTC,,1040.1,81,,,2.8,,50000,100.8,3.5,2.4
2016,10,5,20:00,UTC,,1039.8,84,,,2.9,,50000,103.4,3.9,2.6
2016,10,5,21:00,UTC,,1039.2,88,,,3.4,,50000,105.5,4.9,3.1
2016,10,5,22:00,UTC,,1038.9,93,,,1.5,,50000,86.9,2.2,1.7
2016,10,5,23:00,UTC,,1038.7,95,,,0.6,,50000,83.3,2.5,1.6
2016,10,6,00:00,UTC,,1038.4,96,,,-0.8,,50000,83.3,2.7,2.1
2016,10,6,01:00,UTC,,1038.1,98,,,-0.4,,50000,72.5,2.7,2
2016,10,6,02:00,UTC,,1038.1,96,,,-1.5,,50000,67.9,2.2,1.7
2016,10,6,03:00,UTC,,1037.7,98,,,-1,,50000,74.1,2.6,2.2
2016,10,6,04:00,UTC,,1037.5,98,,,-0.6,,50000,74.6,3.2,2.1
2016,10,6,05:00,UTC,,1037.7,98,,,-1,,50000,68.4,2.9,2.4
2016,10,6,06:00,UTC,,1037.7,98,,,-0.5,,50000,70.5,2.3,1.8
2016,10,6,07:00,UTC,,1037.5,98,,,0.5,,47811,71.5,2.1,1.5
2016,10,6,08:00,UTC,,1037.4,98,,,1.5,,20463,79.2,1.4,0.9
2016,10,6,09:00,UTC,,1037.3,96,,,3,,40927,67.4,1.8,0.9
2016,10,6,10:00,UTC,,1037.4,91,,,4.1,,49542,12.3,1.8,0.7
2016,10,6,11:00,UTC,,1037.2,89,,,5.7,,41880,123.5,0.9,0.4
2016,10,6,12:00,UTC,,1036.8,89,,,7.2,,50000,138.9,1.7,1.1
2016,10,6,13:00,UTC,,1036.8,84,,,7.8,,39336,5.1,1.9,1.2
2016,10,6,14:00,UTC,,1036.2,87,,,7.7,,50000,162.6,1.9,1
2016,10,6,15:00,UTC,,1036,95,,,6.4,,46628,174.9,2.1,1.1
2016,10,6,16:00,UTC,,1036.3,99,,,5.2,,799,177,1.7,0.9
2016,10,6,17:00,UTC,,1036.3,100,,,3.4,,1597,177.5,2,1
2016,10,6,18:00,UTC,,1036.5,100,,,4,,1897,171.8,2.7,1.7
2016,10,6,19:00,UTC,,1036.5,100,,,4.9,,4183,168.2,3.2,2
2016,10,6,20:00,UTC,,1036.6,100,,,3.7,,3245,183.7,1.5,0.7
2016,10,6,21:00,UTC,,1036.8,100,,,2.7,,5339,170.3,1.5,0.8
2016,10,6,22:00,UTC,,1036.9,100,,,3.2,,46791,182.6,2.1,1.1
2016,10,6,23:00,UTC,,1037.2,100,,,3.3,,36169,184.2,2.2,1.1
2016,10,7,00:00,UTC,,1037.4,100,,,3.1,,50000,183.7,2.7,1.6
2016,10,7,01:00,UTC,,1037.5,100,,,2.5,,50000,6.7,2.4,1.5
2016,10,7,02:00,UTC,,1037.2,97,,,3.7,,50000,12.9,2.9,1.7
2016,10,7,03:00,UTC,,1037.2,93,,,4.2,,50000,15.4,3,1.7
2016,10,7,04:00,UTC,,1037.2,91,,,4.4,,50000,14.9,3.4,1.8
2016,10,7,05:00,UTC,,1037.1,93,,,4,,50000,14.9,3,1.6
2016,10,7,06:00,UTC,,1037.3,91,,,4.1,,45719,18,3.3,1.8
2016,10,7,07:00,UTC,,1037.3,88,,,4.6,,50000,31.9,3.8,2.5
2016,10,7,08:00,UTC,,1037.3,79,,,6.2,,42963,31.9,4,2.6
2016,10,7,09:00,UTC,,1037.4,70,,,7.4,,49473,34,5.4,3.4
2016,10,7,10:00,UTC,,1037.5,63,,,7.7,,49836,24.2,5.2,3.3
2016,10,7,11:00,UTC,,1037.3,63,,,7.7,,46548,25.7,5.5,2.9
2016,10,7,12:00,UTC,,1037.3,62,,,7.5,,50000,20.1,5.1,3.1
2016,10,7,13:00,UTC,,1037.1,64,,,7.3,,44523,22.6,4.2,2.8
2016,10,7,14:00,UTC,,1037.1,64,,,6.9,,50000,19,6.1,2.8
2016,10,7,15:00,UTC,,1037.2,68,,,6.5,,50000,17.5,5,2.8
2016,10,7,16:00,UTC,,1037.2,70,,,6.1,,49828,29.8,4.5,2.5
2016,10,7,17:00,UTC,,1037.2,71,,,5.8,,46558,40.1,2.9,2
2016,10,7,18:00,UTC,,1037.5,69,,,5.7,,50000,33.4,3.7,2
2016,10,7,19:00,UTC,,1037.7,68,,,6,,49753,35.5,4.3,2.3
2016,10,7,20:00,UTC,,1037.7,72,,,5.4,,50000,23.7,3.4,1.7
2016,10,7,21:00,UTC,,1037.7,73,,,5.4,,50000,23.7,2.5,1.4
2016,10,7,22:00,UTC,,1038,73,,,5.3,,50000,33.4,3.9,2.1
2016,10,7,23:00,UTC,,1037.9,73,,,5.2,,50000,26.2,2.7,1.3
2016,10,8,00:00,UTC,,1038,74,,,5.1,,49850,27.8,2.8,1.6
2016,10,8,01:00,UTC,,1038,74,,,4.9,,50000,15.9,3.8,2.3
2016,10,8,02:00,UTC,,1037.9,73,,,4.5,,50000,25.7,4,2.4
2016,10,8,03:00,UTC,,1037.6,73,,,4.3,,50000,40.1,4.4,2.6
2016,10,8,04:00,UTC,,1037.6,74,,,4.1,,50000,39.6,4.2,2.2
2016,10,8,05:00,UTC,,1038,75,,,3.9,,50000,37.6,4.7,3.1
2016,10,8,06:00,UTC,,1038.1,75,,,3.9,,50000,36,4.1,2.6
2016,10,8,07:00,UTC,,1038.3,74,,,4.1,,49316,44.8,6.2,3
2016,10,8,08:00,UTC,,1038.4,74,,,4.2,,48796,47.8,4.5,2.8
2016,10,8,09:00,UTC,,1038.5,73,,,4.6,,48728,45.8,4.7,2.7
2016,10,8,10:00,UTC,,1038.5,70,,,5.4,,31396,26.2,4.9,3
2016,10,8,11:00,UTC,,1038.3,65,,,6.1,,50000,44.8,5.4,3.5
2016,10,8,12:00,UTC,,1038.3,64,,,6.6,,40182,37,4.2,2.7
2016,10,8,13:00,UTC,,1038.2,63,,,7.1,,49139,27.3,4.2,2.2
2016,10,8,14:00,UTC,,1038.1,64,,,7.2,,50000,32.4,3.8,2.2
2016,10,8,15:00,UTC,,1037.9,69,,,6.2,,50000,33.4,1.6,1
2016,10,8,16:00,UTC,,1038,91,,,2.7,,48123,185.2,0.5,0.3
2016,10,8,17:00,UTC,,1038.2,95,,,0.7,,47922,6.7,1,0.8
2016,10,8,18:00,UTC,,1038.5,96,,,0.8,,47635,47.3,1.5,0.9
2016,10,8,19:00,UTC,,1038.9,95,,,1.2,,30201,22.1,2.3,1.5
2016,10,8,20:00,UTC,,1039,97,,,1.5,,49283,24.7,2.8,1.8
2016,10,8,21:00,UTC,,1039.3,94,,,0.7,,50000,47.8,2.1,0.9
2016,10,8,22:00,UTC,,1039.6,93,,,0,,50000,53,1.1,0.6
2016,10,8,23:00,UTC,,1039.8,91,,,0.5,,50000,52,2.3,1.2
2016,10,9,00:00,UTC,,1040,93,,,-0.1,,42148,34.5,2.8,1.5
2016,10,9,01:00,UTC,,1040,91,,,0.6,,50000,26.2,2.4,1.5
2016,10,9,02:00,UTC,,1040.1,90,,,1,,49632,25.7,3,1.6
2016,10,9,03:00,UTC,,1040,92,,,1.4,,49808,14.9,2,1.3
2016,10,9,04:00,UTC,,1040,89,,,2,,50000,23.7,3,2.1
2016,10,9,05:00,UTC,,1040.1,89,,,1.9,,50000,22.1,3.2,2.2
2016,10,9,06:00,UTC,,1040.3,87,,,2.7,,50000,25.7,2.9,2
2016,10,9,07:00,UTC,,1040.6,83,,,3.6,,39364,27.3,3.3,1.7
2016,10,9,08:00,UTC,,1040.7,78,,,5,,49403,26.8,3.6,2.4
2016,10,9,09:00,UTC,,1040.5,70,,,6.5,,44036,22.6,4.6,2.6
2016,10,9,10:00,UTC,,1040.3,65,,,7.4,,50000,24.2,4.4,2.5
2016,10,9,11:00,UTC,,1040.1,64,,,8,,50000,27.3,4.8,2.4
2016,10,9,12:00,UTC,,1039.8,62,,,8.1,,48237,24.7,4.5,2.4
2016,10,9,13:00,UTC,,1039.6,64,,,7.9,,50000,26.8,4.2,2.4
2016,10,9,14:00,UTC,,1039.4,66,,,7.7,,50000,24.2,4,2
2016,10,9,15:00,UTC,,1039.1,66,,,7.5,,50000,28.8,3.5,2.1
2016,10,9,16:00,UTC,,1039,68,,,7,,50000,29.8,2.8,1.8
2016,10,9,17:00,UTC,,1039.1,74,,,6,,49331,21.1,2.7,1.6
2016,10,9,18:00,UTC,,1039.5,76,,,5.4,,50000,21.6,2.8,1.6
2016,10,9,19:00,UTC,,1039.5,79,,,4.8,,50000,24.2,2.5,1.4
2016,10,9,20:00,UTC,,1039.5,80,,,4.4,,50000,23.7,2.3,1.3
2016,10,9,21:00,UTC,,1039.6,86,,,3.5,,50000,23.7,1.6,0.9
2016,10,9,22:00,UTC,,1039.6,88,,,2.8,,49451,185.2,0.9,0.5
2016,10,9,23:00,UTC,,1039.5,85,,,3.2,,50000,26.2,2,1.2
2016,10,10,00:00,UTC,,1039.5,87,,,3.3,,50000,12.9,2.5,1.9
2016,10,10,01:00,UTC,,1039.5,86,,,3.2,,50000,47.8,0.7,0.4
2016,10,10,02:00,UTC,,1039.4,84,,,3.2,,50000,29.8,1.2,0.9
2016,10,10,03:00,UTC,,1039.3,91,,,2.3,,50000,21.6,1.2,0.7
2016,10,10,04:00,UTC,,1039,92,,,2.2,,50000,15.9,0.9,0.7
2016,10,10,05:00,UTC,,1038.9,94,,,0.9,,48597,127.1,1,0.5
2016,10,10,06:00,UTC,,1039.1,96,,,1.5,,50000,15.4,0.8,0.4
2016,10,10,07:00,UTC,,1039.2,92,,,3.2,,48749,179.5,1,0.3
2016,10,10,08:00,UTC,,1039.2,85,,,4.1,,50000,15.9,1,0.6
2016,10,10,09:00,UTC,,1039.1,78,,,5.6,,44290,6.7,1.2,0.7
2016,10,10,10:00,UTC,,1038.9,72,,,6,,50000,36,2.1,1.3
2016,10,10,11:00,UTC,,1038.8,73,,,6.1,,50000,153.3,2.8,2.1
2016,10,10,12:00,UTC,,1038.6,72,,,6.1,,50000,94.7,1.5,0.8
2016,10,10,13:00,UTC,,1038.1,73,,,6.2,,50000,15.9,1.4,0.6
2016,10,10,14:00,UTC,,1037.6,74,,,6,,50000,171.3,3.2,1.9
2016,10,10,15:00,UTC,,1037.3,77,,,5.6,,50000,142,4.1,1.7
2016,10,10,16:00,UTC,,1037,80,,,5.4,,50000,176.5,1.9,1.1
2016,10,10,17:00,UTC,,1036.9,82,,,4.7,,50000,157.4,2.5,1.4
2016,10,10,18:00,UTC,,1036.7,87,,,3.9,,50000,152.8,3.2,1.6
2016,10,10,19:00,UTC,,1036.7,90,,,3.6,,50000,157.9,1.3,0.8
2016,10,10,20:00,UTC,,1036.8,86,,,4.5,,50000,161.5,2.4,1.2
2016,10,10,21:00,UTC,,1036.7,84,,,5.1,,50000,155.9,2.6,1.4
2016,10,10,22:00,UTC,,1036.5,85,,,5.1,,50000,146.1,1.9,1.1
2016,10,10,23:00,UTC,,1036.2,82,,,5.3,,50000,154.3,2.5,1.9
2016,10,11,00:00,UTC,,1036,84,,,5.1,,50000,140.4,2.6,1.7
2016,10,11,01:00,UTC,,1035.7,84,,,5.2,,48647,149.2,3.2,1.9
2016,10,11,02:00,UTC,,1035.4,83,,,5.2,,50000,156.9,1.7,1
2016,10,11,03:00,UTC,,1035.1,82,,,5.4,,50000,137.9,3.1,1.7
2016,10,11,04:00,UTC,,1034.9,81,,,5.5,,50000,149.2,2.8,1.5
2016,10,11,05:00,UTC,,1034.7,82,,,5.3,,50000,136.3,2.5,1.6
2016,10,11,06:00,UTC,,1034.8,84,,,5.4,,50000,110.1,2.8,1.7
2016,10,11,07:00,UTC,,1034.8,80,,,5.6,,50000,125,4.1,2.8
2016,10,11,08:00,UTC,,1034.8,80,,,5.6,,48501,130.2,4.3,3.1
2016,10,11,09:00,UTC,,1034.5,80,,,5.9,,50000,126.6,5.2,3.4
2016,10,11,10:00,UTC,,1034.4,81,,,6.1,,49910,121.9,4.9,3.4
2016,10,11,11:00,UTC,,1034,79,,,6.4,,50000,129.6,4.3,2.8
2016,10,11,12:00,UTC,,1033.7,82,,,6.6,,50000,134.3,5.6,4.2
2016,10,11,13:00,UTC,,1033.3,82,,,6.3,,50000,142,6.7,4.5
2016,10,11,14:00,UTC,,1033.2,83,,,6,,50000,142.5,5.7,4.2
2016,10,11,15:00,UTC,,1033,82,,,5.9,,50000,136.3,5,3.2
2016,10,11,16:00,UTC,,1032.8,83,,,5.9,,50000,121.9,4.8,2.3
2016,10,11,17:00,UTC,,1032.9,82,,,5.9,,50000,124,5,3.3
2016,10,11,18:00,UTC,,1032.8,83,,,5.9,,50000,125.5,4,2.7
2016,10,11,19:00,UTC,,1032.7,82,,,5.8,,50000,125.5,6.1,3.9
2016,10,11,20:00,UTC,,1032.6,84,,,5.6,,50000,124.5,4.6,3
2016,10,11,21:00,UTC,,1032.6,83,,,5.6,,50000,128.6,4.7,2.9
2016,10,11,22:00,UTC,,1032.3,84,,,5.6,,49444,123,4.3,2.8
2016,10,11,23:00,UTC,,1032,85,,,5.5,,50000,116.8,3.8,2.4
2016,10,12,00:00,UTC,,1031.8,87,,,5.4,,50000,116.3,3.1,2.2
2016,10,12,01:00,UTC,,1031.8,89,,,5.1,,50000,112.1,2.4,1.6
2016,10,12,02:00,UTC,,1031.8,90,,,4.7,,50000,103.4,2.6,1.9
2016,10,12,03:00,UTC,,1031.6,90,,,4.7,,50000,110.1,2.8,1.7
2016,10,12,04:00,UTC,,1031.6,90,,,4.8,,50000,112.7,5.5,1.5
2016,10,12,05:00,UTC,,1031.7,91,,,4.3,,50000,163.1,2.1,1.2
2016,10,12,06:00,UTC,,1031.8,92,,,4.3,,50000,150.7,3.5,1.5
2016,10,12,07:00,UTC,,1032,93,,,4,,50000,145.1,2.8,1.6
2016,10,12,08:00,UTC,,1032.1,91,,,4.3,,47263,136.3,3.4,2.2
2016,10,12,09:00,UTC,,1032.2,94,,,3.9,,50000,148.2,4.8,3.1
2016,10,12,10:00,UTC,,1032,95,,,3.8,,50000,134.8,4.6,2.9
2016,10,12,11:00,UTC,,1032.1,96,,,3.7,,24509,147.1,4.3,2.7
2016,10,12,12:00,UTC,,1032.1,96,,,3.9,,50000,150.7,4.3,2.9
2016,10,12,13:00,UTC,,1031.9,93,,,4.3,,42299,150.2,3,2.2
2016,10,12,14:00,UTC,,1031.9,93,,,4.5,,50000,177,1.2,0.6
2016,10,12,15:00,UTC,,1031.7,93,,,4.3,,50000,97.2,4.2,0.9
2016,10,12,16:00,UTC,,1031.6,96,,,3.5,,50000,101.9,2.1,1.1
2016,10,12,17:00,UTC,,1031.5,97,,,2.1,,43558,100.3,2.4,1.4
2016,10,12,18:00,UTC,,1031.7,98,,,1.6,,47732,111.1,2.3,1.6
2016,10,12,19:00,UTC,,1031.5,96,,,3.1,,39862,102.9,2.3,1.8
2016,10,12,20:00,UTC,,1031.6,95,,,3.2,,47983,120.9,2.4,1.3
2016,10,12,21:00,UTC,,1031.4,97,,,2.2,,35548,103.9,2.8,2.2
2016,10,12,22:00,UTC,,1031.3,97,,,2.5,,35957,96.2,1.9,1
2016,10,12,23:00,UTC,,1031.2,97,,,2.6,,30204,59.7,1.4,1.1
2016,10,13,00:00,UTC,,1031.3,96,,,3.1,,50000,92.1,1.7,0.8
2016,10,13,01:00,UTC,,1031.2,96,,,3.2,,46619,84.4,1.4,1
2016,10,13,02:00,UTC,,1031.1,97,,,3.2,,38701,95.7,1.6,0.6
2016,10,13,03:00,UTC,,1031.1,98,,,2.5,,19843,83.9,1.6,1
2016,10,13,04:00,UTC,,1031,99,,,2.7,,41032,82.8,3.6,1.2
2016,10,13,05:00,UTC,,1031,98,,,2.9,,35971,101.9,1.7,1.2
2016,10,13,06:00,UTC,,1031.1,98,,,2.7,,21037,108.5,2,1.4
2016,10,13,07:00,UTC,,1031.2,98,,,3.1,,24074,104.4,2.4,1.8
2016,10,13,08:00,UTC,,1031.1,94,,,4.4,,46256,101.9,2.5,1.7
2016,10,13,09:00,UTC,,1031,88,,,6.4,,43317,115.7,3.3,2
2016,10,13,10:00,UTC,,1031.1,84,,,8.3,,50000,123.5,2.2,1.3
2016,10,13,11:00,UTC,,1031,87,,,8.1,,50000,140.4,3.7,2.5
2016,10,13,12:00,UTC,,1031,90,,,8,,50000,145.6,3.8,2.6
2016,10,13,13:00,UTC,,1031.1,91,,,7.9,,45402,123.5,2,1.5
2016,10,13,14:00,UTC,,1031.1,90,,,8,,50000,134.3,2.7,2
2016,10,13,15:00,UTC,,1031,92,,,7.5,,49971,126.6,2.6,1.7
2016,10,13,16:00,UTC,,1031,97,,,5.5,,20102,121.4,2.7,1.9
2016,10,13,17:00,UTC,,1031.1,99,,,3.6,,1184,119.4,2.3,1.3
2016,10,13,18:00,UTC,,1030.9,99,,,2.8,,696,119.4,2.5,0.9
2016,10,13,19:00,UTC,,1030.9,100,,,2.4,,970,117.8,1.9,1.4
2016,10,13,20:00,UTC,,1031,100,,,1.7,,1360,35.5,1,0.5
2016,10,13,21:00,UTC,,1031.1,100,,,1.1,,447,81.8,1.5,1
2016,10,13,22:00,UTC,,1031,100,,,1.4,,1087,79.2,2.2,1.5
2016,10,13,23:00,UTC,,1031.2,100,,,1.7,,850,69.4,1.3,1.1
2016,10,14,00:00,UTC,,1031.1,100,,,2.2,,2205,68.9,1.4,0.8
2016,10,14,01:00,UTC,,1031.1,100,,,2.8,,4549,79.2,1,0.9
2016,10,14,02:00,UTC,,1031.1,100,,,3.3,,564,68.4,1,0.8
2016,10,14,03:00,UTC,,1031,100,,,3.3,,637,66.9,0.5,0.3
2016,10,14,04:00,UTC,,1030.9,100,,,3,,1919,134.8,0.9,0.7
2016,10,14,05:00,UTC,,1031,100,,,3.2,,396,92.1,0.9,0.5
2016,10,14,06:00,UTC,,1031.1,100,,,3,,1655,14.4,0.7,0.5
2016,10,14,07:00,UTC,,1031.4,100,,,3.4,,840,165.7,0.5,0.2
2016,10,14,08:00,UTC,,1031.6,100,,,3.5,,4948,10.8,1.2,0.7
2016,10,14,09:00,UTC,,1032,100,,,4.5,,845,170.8,1.3,0.5
2016,10,14,10:00,UTC,,1032.1,100,,,4.8,,637,183.7,1.5,0.7
2016,10,14,11:00,UTC,,1032.1,100,,,5.3,,1210,82.8,1.1,0.4
2016,10,14,12:00,UTC,,1032.2,100,,,5,,10485,182.6,1.3,0.7
2016,10,14,13:00,UTC,,1032.3,100,,,5,,9080,140.4,0.8,0.4
2016,10,14,14:00,UTC,,1032.3,100,,,5.1,,13951,64.3,1.5,0.5
2016,10,14,15:00,UTC,,1032.5,100,,,4.9,,17043,55,1.5,0.8
2016,10,14,16:00,UTC,,1032.6,100,,,4.7,,9851,45.8,1.9,1
2016,10,14,17:00,UTC,,1032.8,100,,,4.4,,1633,67.9,2.9,1.9
2016,10,14,18:00,UTC,,1033,100,,,4.3,,988,70.5,2.5,1.7
2016,10,14,19:00,UTC,,1033.1,100,,,4.2,,857,72.5,3.3,1.9
2016,10,14,20:00,UTC,,1033.2,100,,,3.8,,1494,73.1,2.3,1.7
2016,10,14,21:00,UTC,,1033.5,100,,,3.3,,1700,68.4,2.4,1.6
2016,10,14,22:00,UTC,,1033.7,100,,,3.4,,2102,61.2,2.3,1.7
2016,10,14,23:00,UTC,,1033.7,100,,,3.8,,2556,64.8,1.8,1.3
2016,10,15,00:00,UTC,,1033.9,100,,,3.9,,2571,68.4,2.1,1.7
2016,10,15,01:00,UTC,,1033.9,100,,,4,,9496,84.9,1.6,1.1
2016,10,15,02:00,UTC,,1033.9,100,,,3.8,,50000,94.7,3.1,1.9
2016,10,15,03:00,UTC,,1033.9,100,,,3.8,,32222,83.3,4.1,2.5
2016,10,15,04:00,UTC,,1033.8,100,,,3.6,,19234,86.4,2.9,2
2016,10,15,05:00,UTC,,1033.8,100,,,3.5,,11822,96.2,2.2,1.5
2016,10,15,06:00,UTC,,1034,100,,,2.4,,10073,100.8,5.2,3.1
2016,10,15,07:00,UTC,,1034.3,100,,,2,,16605,78.2,4.2,3.3
2016,10,15,08:00,UTC,,1034.3,100,,,2.4,,33927,73.6,4.8,3.8
2016,10,15,09:00,UTC,,1034.6,99,,,2.8,,47110,79.7,3.9,2.8
2016,10,15,10:00,UTC,,1034.6,98,,,2.9,,49598,73.6,5.1,3.5
2016,10,15,11:00,UTC,,1034.6,97,,,3.3,,50000,79.7,4,2.9
2016,10,15,12:00,UTC,,1034.3,94,,,3.5,,50000,79.2,4.8,3.6
2016,10,15,13:00,UTC,,1034,95,,,3.9,,50000,81.8,4.8,3
2016,10,15,14:00,UTC,,1033.9,93,,,4.3,,48065,91.1,3.6,2.7
2016,10,15,15:00,UTC,,1033.7,97,,,4.1,,8202,90.5,3.6,2.5
2016,10,15,16:00,UTC,,1033.5,98,,,4,,16146,95.7,4.5,2.9
2016,10,15,17:00,UTC,,1033.5,96,,,3.7,,13271,101.3,6.5,3.8
2016,10,15,18:00,UTC,,1033.4,97,,,3.5,,50000,101.9,4.2,3.1
2016,10,15,19:00,UTC,,1033.4,96,,,3.5,,50000,108,4.9,2.8
2016,10,15,20:00,UTC,,1033.5,95,,,3.4,,50000,112.7,5.6,3.6
2016,10,15,21:00,UTC,,1033.6,95,,,3.3,,49540,112.1,4.9,3.4
2016,10,15,22:00,UTC,,1033.3,98,,,2.3,,13946,92.1,5.8,3.9
2016,10,15,23:00,UTC,,1033.1,98,,,2.3,,9592,93.1,5.9,3.9
2016,10,16,00:00,UTC,,1032.7,99,,,2.2,,8848,93.6,6.2,4.4
2016,10,16,01:00,UTC,,1032.3,99,,,2,,8134,91.1,6.4,4.5
2016,10,16,02:00,UTC,,1032.2,99,,,2,,7976,94.7,6.7,4.7
2016,10,16,03:00,UTC,,1031.7,99,,,1.9,,8233,96.7,8.5,5.6
2016,10,16,04:00,UTC,,1031.7,98,,,1.7,,8830,96.7,7.5,5.1
2016,10,16,05:00,UTC,,1031.4,99,,,1.6,,4161,92.1,5.5,3.9
2016,10,16,06:00,UTC,,1031.1,100,,,2.2,,4888,92.6,5.6,3.7
2016,10,16,07:00,UTC,,1031,100,,,3.2,,18369,98.3,5.5,4
2016,10,16,08:00,UTC,,1031.2,99,,,4.4,,50000,107.5,4.4,3
2016,10,16,09:00,UTC,,1031.3,99,,,5.2,,47562,109.6,4.2,2.7
2016,10,16,10:00,UTC,,1031.3,89,,,6.5,,50000,124.5,7.5,5.1
2016,10,16,11:00,UTC,,1031.3,88,,,6.9,,47059,126.6,5,3.6
2016,10,16,12:00,UTC,,1031.1,97,,,6.4,,14199,106.5,5.7,3.5
2016,10,16,13:00,UTC,,1030.9,96,,,6.6,,36317,109.6,5.8,3.5
2016,10,16,14:00,UTC,,1030.7,90,,,7,,45458,117.8,6,3.7
2016,10,16,15:00,UTC,,1030.6,86,,,7.3,,50000,119.9,9.2,5.3
2016,10,16,16:00,UTC,,1030.7,85,,,6.9,,50000,126.6,5.8,4
2016,10,16,17:00,UTC,,1030.8,81,,,7.3,,50000,127.6,8.2,5.7
2016,10,16,18:00,UTC,,1030.9,81,,,6.9,,50000,133.8,10.6,6.5
2016,10,16,19:00,UTC,,1031,85,,,6.5,,50000,136.3,9.6,6.7
2016,10,16,20:00,UTC,,1031,87,,,6.2,,50000,137.4,7.6,5.5
2016,10,16,21:00,UTC,,1031.2,79,,,6.9,,50000,127.1,7.9,5.5
2016,10,16,22:00,UTC,,1031.3,80,,,6.7,,50000,129.6,10.7,6.7
2016,10,16,23:00,UTC,,1031.3,84,,,6.4,,50000,136.8,8.3,5.8
2016,10,17,00:00,UTC,,1031.3,84,,,6.4,,50000,134.8,7.6,5.2
2016,10,17,01:00,UTC,,1031.3,86,,,6.1,,50000,134.3,5.2,3.8
2016,10,17,02:00,UTC,,1031.3,87,,,6.2,,50000,135.3,4.8,3.4
2016,10,17,03:00,UTC,,1031,89,,,6,,50000,113.7,6.2,1.5
2016,10,17,04:00,UTC,,1030.9,91,,,5.6,,50000,89,3.9,1.5
2016,10,17,05:00,UTC,,1030.8,90,,,6.2,,50000,101.9,4.8,2.6
2016,10,17,06:00,UTC,,1030.9,88,,,6.3,,50000,110.1,4.1,2.7
2016,10,17,07:00,UTC,,1031.1,86,,,6.3,,50000,106.5,5.1,3.3
2016,10,17,08:00,UTC,,1031.2,86,,,6.2,,50000,106,5.2,3.4
2016,10,17,09:00,UTC,,1031.3,88,,,6,,50000,102.4,4.4,2.8
2016,10,17,10:00,UTC,,1031.1,85,,,6.2,,50000,97.2,5.1,3.7
2016,10,17,11:00,UTC,,1030.9,83,,,6.4,,50000,100.8,6.7,4.7
2016,10,17,12:00,UTC,,1030.8,83,,,6.2,,50000,101.3,6.2,4
2016,10,17,13:00,UTC,,1030.6,82,,,6.2,,50000,102.9,7.1,4.7
2016,10,17,14:00,UTC,,1030.4,83,,,5.9,,50000,98.8,7.1,4.2
2016,10,17,15:00,UTC,,1030.3,83,,,5.7,,50000,96.2,4.9,3.6
2016,10,17,16:00,UTC,,1030.2,83,,,5.5,,50000,91.1,5.6,3.6
2016,10,17,17:00,UTC,,1030,83,,,5.4,,50000,89.5,7.2,3.8
2016,10,17,18:00,UTC,,1029.7,82,,,5.3,,50000,92.1,7.7,4.9
2016,10,17,19:00,UTC,,1029.6,80,,,5.2,,50000,91.6,6.9,4.5
2016,10,17,20:00,UTC,,1029.4,79,,,5.3,,50000,94.1,6.5,4.3
2016,10,17,21:00,UTC,,1029.2,78,,,5.2,,50000,92.1,6.5,4.4
2016,10,17,22:00,UTC,,1028.9,79,,,5,,50000,88.5,5.6,3.7
2016,10,17,23:00,UTC,,1028.6,79,,,4.7,,50000,87.5,5.8,3.8
2016,10,18,00:00,UTC,,1028.2,80,,,4.5,,50000,86.4,6.9,4.7
2016,10,18,01:00,UTC,,1027.9,80,,,4.6,,50000,86.9,5.7,3.9
2016,10,18,02:00,UTC,,1027.7,80,,,4.6,,50000,89.5,5,3.3
2016,10,18,03:00,UTC,,1027.2,78,,,4.7,,50000,92.1,6,3.9
2016,10,18,04:00,UTC,,1026.8,76,,,4.6,,50000,90,5.5,3.8
2016,10,18,05:00,UTC,,1026.3,77,,,4.5,,50000,86.4,5.6,3.7
2016,10,18,06:00,UTC,,1026.2,76,,,4.4,,50000,88,4.8,3.2
2016,10,18,07:00,UTC,,1026.1,77,,,4.6,,50000,88.5,5.5,3.6
2016,10,18,08:00,UTC,,1026.2,76,,,4.8,,50000,94.1,5.7,3.7
2016,10,18,09:00,UTC,,1026,75,,,5.2,,50000,95.7,5.5,4
2016,10,18,10:00,UTC,,1025.8,78,,,5.4,,50000,86.4,4,2.9
2016,10,18,11:00,UTC,,1025.6,77,,,6,,50000,86.9,4.8,3.2
2016,10,18,12:00,UTC,,1025.3,74,,,6.5,,50000,85.9,4.2,3
2016,10,18,13:00,UTC,,1025,74,,,6.6,,50000,77.2,3.4,2.4
2016,10,18,14:00,UTC,,1024.9,74,,,6.7,,50000,82.8,3.9,2.7
2016,10,18,15:00,UTC,,1024.9,75,,,6.3,,50000,90.5,3.5,2.8
2016,10,18,16:00,UTC,,1024.9,75,,,6,,50000,88,4.2,2.9
2016,10,18,17:00,UTC,,1024.8,75,,,5.8,,50000,83.9,4.9,3.5
2016,10,18,18:00,UTC,,1024.6,75,,,5.7,,50000,82.3,5,3.5
2016,10,18,19:00,UTC,,1024.6,73,,,5.8,,50000,83.9,5.8,4.1
2016,10,18,20:00,UTC,,1024.6,72,,,5.7,,50000,85.4,7.1,4.5
2016,10,18,21:00,UTC,,1024.8,74,,,5.4,,50000,83.9,4.7,3.3
2016,10,18,22:00,UTC,,1024.8,72,,,5.3,,50000,85.4,5.7,4
2016,10,18,23:00,UTC,,1024.8,74,,,5,,50000,89,5.7,3.9
2016,10,19,00:00,UTC,,1024.8,76,,,4.8,,50000,78.7,4.7,3.4
2016,10,19,01:00,UTC,,1024.7,74,,,4.8,,50000,87.5,5.1,3.4
2016,10,19,02:00,UTC,,1024.7,75,,,4.6,,50000,86.9,4.4,2.5
2016,10,19,03:00,UTC,,1024.8,77,,,4.3,,50000,87.5,3.8,2.9
2016,10,19,04:00,UTC,,1024.8,75,,,4.4,,50000,86.9,4.4,3.4
2016,10,19,05:00,UTC,,1025,75,,,4.4,,50000,90,4.3,2.8
2016,10,19,06:00,UTC,,1025.3,74,,,4.2,,50000,83.9,4.6,2.9
2016,10,19,07:00,UTC,,1025.6,77,,,4.2,,50000,89,4.7,3.6
2016,10,19,08:00,UTC,,1026.2,81,,,4.1,,36782,95.2,5.7,4
2016,10,19,09:00,UTC,,1026.3,87,,,4,,50000,87.5,4.8,3.4
2016,10,19,10:00,UTC,,1026.5,83,,,4.6,,50000,89,5.5,3.8
2016,10,19,11:00,UTC,,1026.7,81,,,5,,44468,86.4,5.7,3.7
2016,10,19,12:00,UTC,,1026.7,80,,,5.2,,39637,91.6,4.6,3.4
2016,10,19,13:00,UTC,,1026.6,80,,,5.2,,50000,88.5,4,2.7
2016,10,19,14:00,UTC,,1026.8,80,,,5.1,,50000,75.1,3.3,2.7
2016,10,19,15:00,UTC,,1027.1,82,,,4.8,,50000,68.9,3.9,3
2016,10,19,16:00,UTC,,1027.3,83,,,4.5,,50000,71.5,2.8,2.4
2016,10,19,17:00,UTC,,1027.6,80,,,4.8,,50000,84.9,4,2.6
2016,10,19,18:00,UTC,,1027.8,79,,,4.4,,50000,92.6,8,3.1
2016,10,19,19:00,UTC,,1028.2,78,,,3.9,,50000,93.6,4.4,3.2
2016,10,19,20:00,UTC,,1028.7,82,,,3.2,,50000,84.9,4,2.4
2016,10,19,21:00,UTC,,1029,83,,,2.5,,50000,83.3,3.9,2.9
2016,10,19,22:00,UTC,,1029.4,90,,,0.7,,49638,77.7,3.8,2.7
2016,10,19,23:00,UTC,,1029.7,90,,,0.4,,49677,78.7,3.9,2.9
2016,10,20,00:00,UTC,,1029.9,91,,,0.1,,50000,78.2,3.3,2.4
2016,10,20,01:00,UTC,,1029.9,91,,,0,,49476,74.6,2.8,2.2
2016,10,20,02:00,UTC,,1029.9,91,,,0,,47577,73.1,3.5,2.6
2016,10,20,03:00,UTC,,1030,92,,,0,,50000,79.7,2.9,2.1
2016,10,20,04:00,UTC,,1030.2,92,,,0.2,,50000,74.1,3.7,1.8
2016,10,20,05:00,UTC,,1030.6,92,,,0.2,,50000,74.1,3.3,2.2
2016,10,20,06:00,UTC,,1030.9,91,,,0.3,,50000,77.2,3.9,2.6
2016,10,20,07:00,UTC,,1031.5,90,,,0.6,,49779,79.2,3.3,2.4
2016,10,20,08:00,UTC,,1032,89,,,1.3,,50000,86.4,4.1,2
2016,10,20,09:00,UTC,,1032.3,88,,,1.7,,50000,79.2,3.6,2.6
2016,10,20,10:00,UTC,,1032.6,86,,,2.4,,46923,77.7,3.5,2.5
2016,10,20,11:00,UTC,,1032.9,86,,,3.1,,50000,78.7,3,2.4
2016,10,20,12:00,UTC,,1032.9,85,,,3.6,,50000,83.3,3.5,2.1
2016,10,20,13:00,UTC,,1032.9,87,,,3.5,,46979,81.8,2.6,1.7
2016,10,20,14:00,UTC,,1033,88,,,3.2,,47465,65.8,3.1,2.6
2016,10,20,15:00,UTC,,1033.1,89,,,2.9,,50000,70,3.9,2.8
2016,10,20,16:00,UTC,,1033.3,90,,,2.7,,39393,73.1,3.2,2.3
2016,10,20,17:00,UTC,,1033.4,92,,,2.5,,28600,69.4,3,2.4
2016,10,20,18:00,UTC,,1033.4,92,,,2.4,,43402,75.6,2.9,1.9
2016,10,20,19:00,UTC,,1033.8,91,,,2.5,,41218,87.5,2.6,1.8
2016,10,20,20:00,UTC,,1034,92,,,2.5,,29455,90,2.4,1.6
2016,10,20,21:00,UTC,,1034.5,93,,,2.1,,26914,70.5,2.8,1.8
2016,10,20,22:00,UTC,,1034.6,93,,,2.1,,42398,48.9,1.5,1.2
2016,10,20,23:00,UTC,,1034.5,93,,,2.1,,35266,35.5,1.4,0.9
2016,10,21,00:00,UTC,,1034.5,91,,,1.8,,50000,70.5,2.2,1.8
2016,10,21,01:00,UTC,,1034.5,90,,,1.7,,50000,70,1.8,1.5
2016,10,21,02:00,UTC,,1034.5,91,,,1.6,,50000,71,2.1,1.7
2016,10,21,03:00,UTC,,1034.4,90,,,1.7,,50000,82.8,5.6,2.3
2016,10,21,04:00,UTC,,1034.6,90,,,1.6,,48260,81.3,2.9,2
2016,10,21,05:00,UTC,,1034.8,89,,,1.6,,50000,68.9,2.5,2.2
2016,10,21,06:00,UTC,,1035.1,89,,,1.6,,49895,67.9,2.6,2.1
2016,10,21,07:00,UTC,,1035.4,87,,,1.7,,46889,76.1,2.4,1.7
2016,10,21,08:00,UTC,,1035.4,83,,,2.2,,50000,74.1,2.5,1.6
2016,10,21,09:00,UTC,,1035.7,81,,,2.9,,50000,67.9,2.5,1.8
2016,10,21,10:00,UTC,,1035.7,76,,,3.4,,46753,82.3,3.1,2.1
2016,10,21,11:00,UTC,,1035.8,73,,,3.8,,50000,83.9,3.2,2.1
2016,10,21,12:00,UTC,,1035.9,69,,,3.9,,46609,85.9,3.6,2.4
2016,10,21,13:00,UTC,,1035.9,72,,,3.6,,46801,72.5,3.3,2.5
2016,10,21,14:00,UTC,,1035.9,73,,,3.3,,50000,90,3,2
2016,10,21,15:00,UTC,,1036,75,,,2.6,,50000,102.9,2.6,2
2016,10,21,16:00,UTC,,1036.2,78,,,2.1,,50000,112.7,4.5,1.8
2016,10,21,17:00,UTC,,1036.3,74,,,2.2,,50000,107.5,3.5,1.5
2016,10,21,18:00,UTC,,1036.4,83,,,0.9,,50000,109.1,0.8,0.7
2016,10,21,19:00,UTC,,1037,88,,,0.8,,50000,12.3,0.9,0.7
2016,10,21,20:00,UTC,,1037.2,85,,,0.8,,49127,64.8,1.7,1
2016,10,21,21:00,UTC,,1037.3,84,,,1.2,,42814,39.6,1.8,1.2
2016,10,21,22:00,UTC,,1037.4,80,,,1.7,,50000,145.1,0.9,0.4
2016,10,21,23:00,UTC,,1037.6,79,,,1.7,,50000,48.9,1.2,0.6
2016,10,22,00:00,UTC,,1037.7,82,,,1.5,,50000,47.3,1.8,1
2016,10,22,01:00,UTC,,1037.8,84,,,1.8,,50000,34.5,1.8,1.1
2016,10,22,02:00,UTC,,1037.8,84,,,1.8,,50000,36.5,2.1,1.2
2016,10,22,03:00,UTC,,1037.9,87,,,1.6,,50000,57.6,1.4,0.9
2016,10,22,04:00,UTC,,1038,89,,,1.6,,50000,27.3,1.6,1.1
2016,10,22,05:00,UTC,,1038.2,91,,,1.8,,48136,25.7,1.7,1.1
2016,10,22,06:00,UTC,,1038.2,92,,,1.9,,50000,33.4,2.7,1.6
2016,10,22,07:00,UTC,,1038.3,94,,,1.8,,50000,37,3.1,2
2016,10,22,08:00,UTC,,1038.7,92,,,2.7,,50000,36,3.9,2.4
2016,10,22,09:00,UTC,,1038.9,91,,,3.4,,50000,44.2,3.9,2.9
2016,10,22,10:00,UTC,,1039.1,80,,,3.9,,50000,50.9,5,3.8
2016,10,22,11:00,UTC,,1039.2,73,,,4.2,,50000,38.6,3.7,2.4
2016,10,22,12:00,UTC,,1039.1,74,,,4.4,,50000,52,5.2,3.8
2016,10,22,13:00,UTC,,1039.3,80,,,3.9,,50000,68.4,4.5,2.9
2016,10,22,14:00,UTC,,1039.5,74,,,3.5,,50000,68.9,5.3,3.8
2016,10,22,15:00,UTC,,1039.7,72,,,3.1,,50000,73.1,6,4.5
2016,10,22,16:00,UTC,,1039.9,72,,,2.6,,50000,70.5,6.5,4
2016,10,22,17:00,UTC,,1039.9,75,,,2.4,,50000,47.3,2,1.4
2016,10,22,18:00,UTC,,1040.1,78,,,2.5,,50000,53.5,6.5,4
2016,10,22,19:00,UTC,,1040.5,78,,,2.2,,50000,67.9,4.4,3.3
2016,10,22,20:00,UTC,,1040.9,75,,,2,,50000,70.5,8,4.9
2016,10,22,21:00,UTC,,1041.3,74,,,1.7,,50000,71.5,7.4,4.7
2016,10,22,22:00,UTC,,1041.4,75,,,1.6,,50000,62.8,5.7,4.2
2016,10,22,23:00,UTC,,1041.2,75,,,1.7,,50000,57.6,5,4
2016,10,23,00:00,UTC,,1041.1,73,,,2,,50000,67.9,6.7,4.9
2016,10,23,01:00,UTC,,1041,72,,,1.9,,50000,66.4,7.1,4.9
2016,10,23,02:00,UTC,,1041,73,,,1.6,,50000,56.6,6.1,4.8
2016,10,23,03:00,UTC,,1041,74,,,1.5,,50000,46.3,5.4,3.3
2016,10,23,04:00,UTC,,1040.8,76,,,1.4,,50000,48.9,4.9,3.5
2016,10,23,05:00,UTC,,1040.9,78,,,1.3,,50000,47.8,5.7,3.5
2016,10,23,06:00,UTC,,1041,75,,,1.2,,50000,49.9,5.9,4.2
2016,10,23,07:00,UTC,,1041,74,,,1.4,,50000,54.5,7.8,4.8
2016,10,23,08:00,UTC,,1041,72,,,1.7,,50000,48.4,5.3,3.7
2016,10,23,09:00,UTC,,1041,68,,,1.9,,50000,52.5,7.6,4.8
2016,10,23,10:00,UTC,,1040.6,72,,,1.9,,50000,49.4,6.3,4.5
2016,10,23,11:00,UTC,,1040.3,73,,,2.1,,48242,51.4,5.9,4.1
2016,10,23,12:00,UTC,,1040,72,,,2.3,,50000,48.9,5.3,3.7
2016,10,23,13:00,UTC,,1039.8,72,,,2.3,,49694,52,6.6,4.2
2016,10,23,14:00,UTC,,1039.6,72,,,2.3,,50000,52,5.9,4.2
2016,10,23,15:00,UTC,,1039.4,72,,,2.4,,50000,49.9,5.7,4.1
2016,10,23,16:00,UTC,,1039.3,73,,,2.5,,50000,54,5.7,4.1
2016,10,23,17:00,UTC,,1039.2,74,,,2.5,,50000,58.1,6,4.6
2016,10,23,18:00,UTC,,1039.2,75,,,2.5,,50000,64.3,6.3,5
2016,10,23,19:00,UTC,,1039.5,76,,,2.5,,50000,67.4,5.9,4.6
2016,10,23,20:00,UTC,,1039.5,74,,,2.9,,50000,66.4,6.6,4.7
2016,10,23,21:00,UTC,,1039.5,76,,,2.7,,50000,66.4,6.2,4.4
2016,10,23,22:00,UTC,,1039.5,79,,,2.4,,50000,65.8,5.6,4.2
2016,10,23,23:00,UTC,,1039.5,80,,,2.4,,50000,62.8,5.1,4.2
2016,10,24,00:00,UTC,,1039.4,80,,,2.4,,50000,61.7,5.6,4.4
2016,10,24,01:00,UTC,,1039,79,,,2.6,,50000,64.3,6.6,4.6
2016,10,24,02:00,UTC,,1038.8,78,,,2.8,,50000,66.9,6.3,4.9
2016,10,24,03:00,UTC,,1038.8,79,,,2.7,,50000,65.3,6,4.4
2016,10,24,04:00,UTC,,1038.6,79,,,2.9,,47047,66.9,6.9,4.6
2016,10,24,05:00,UTC,,1038.6,81,,,2.8,,50000,67.9,5.6,3.8
2016,10,24,06:00,UTC,,1038.7,83,,,2.6,,50000,64.8,5.3,3.8
2016,10,24,07:00,UTC,,1039,82,,,2.9,,50000,66.4,4.9,3.7
2016,10,24,08:00,UTC,,1039,82,,,3,,50000,64.8,6.1,4.2
2016,10,24,09:00,UTC,,1039,81,,,3.4,,45753,73.6,7.1,4.8
2016,10,24,10:00,UTC,,1038.9,82,,,3.5,,50000,70.5,6.1,4.2
2016,10,24,11:00,UTC,,1038.6,81,,,3.7,,50000,70.5,6,4.3
2016,10,24,12:00,UTC,,1038.4,80,,,3.8,,50000,67.4,6.1,4.4
2016,10,24,13:00,UTC,,1038.1,81,,,3.8,,45533,64.3,5.2,4
2016,10,24,14:00,UTC,,1038,82,,,3.7,,50000,66.4,4.6,3.7
2016,10,24,15:00,UTC,,1038,84,,,3.1,,50000,61.7,4.5,3.5
2016,10,24,16:00,UTC,,1037.8,85,,,3,,48578,63.3,4.7,3.5
2016,10,24,17:00,UTC,,1037.4,86,,,2.8,,50000,61.2,4.4,3.7
2016,10,24,18:00,UTC,,1037.3,86,,,2.9,,50000,65.3,4.2,3.4
2016,10,24,19:00,UTC,,1037.1,86,,,2.9,,48524,64.3,4.2,3.4
2016,10,24,20:00,UTC,,1036.7,90,,,2.7,,50000,64.3,4.8,3.5
2016,10,24,21:00,UTC,,1036.4,88,,,2.7,,50000,65.3,4.4,3.5
2016,10,24,22:00,UTC,,1036.1,87,,,2.7,,50000,66.9,4.7,3.8
2016,10,24,23:00,UTC,,1035.6,86,,,2.8,,50000,67.9,4.8,3.8
2016,10,25,00:00,UTC,,1035.1,86,,,2.7,,50000,66.4,4.9,3.8
2016,10,25,01:00,UTC,,1034.6,85,,,2.7,,48445,67.4,5.1,3.7
2016,10,25,02:00,UTC,,1033.8,82,,,2.7,,50000,72,6.8,5.3
2016,10,25,03:00,UTC,,1033.3,87,,,1.7,,50000,67.4,5.2,4.1
2016,10,25,04:00,UTC,,1032.7,91,,,0.6,,50000,61.2,5.3,4.2
2016,10,25,05:00,UTC,,1032.3,90,,,0.7,,50000,67.4,6.6,4.6
2016,10,25,06:00,UTC,,1031.8,91,,,0.3,,50000,65.8,6.2,4.4
2016,10,25,07:00,UTC,,1031.5,89,,,0.7,,50000,67.4,5.8,4.4
2016,10,25,08:00,UTC,,1030.9,88,,,0.7,,48890,64.3,5.1,4.1
2016,10,25,09:00,UTC,,1030.2,87,,,1.4,,50000,61.2,5.5,4.1
2016,10,25,10:00,UTC,,1029.4,82,,,2.2,,36540,67.4,6.6,5
2016,10,25,11:00,UTC,,1028.6,79,,,2.4,,42076,67.9,6,4.7
2016,10,25,12:00,UTC,,1027.8,79,,,2.2,,50000,63.3,7,5.3
2016,10,25,13:00,UTC,,1027.1,77,,,2.1,,50000,63.8,5.6,4.3
2016,10,25,14:00,UTC,,1026.5,83,,,1.6,,50000,56.1,4.5,3.4
2016,10,25,15:00,UTC,,1025.9,84,,,1.3,,50000,45.3,4.8,2.9
2016,10,25,16:00,UTC,,1025.3,85,,,0.9,,50000,47.3,3.4,2.2
2016,10,25,17:00,UTC,,1025,84,,,0.7,,50000,52.5,4,2.9
2016,10,25,18:00,UTC,,1024.4,83,,,0.6,,50000,50.9,4.1,2.7
2016,10,25,19:00,UTC,,1024,82,,,0.3,,50000,47.3,3.3,2.3
2016,10,25,20:00,UTC,,1023.4,81,,,-0.1,,50000,45.8,3.3,2.4
2016,10,25,21:00,UTC,,1022.9,83,,,-0.7,,50000,42.7,3.3,1.8
2016,10,25,22:00,UTC,,1022.4,85,,,-0.9,,50000,38.6,2.5,1.7
2016,10,25,23:00,UTC,,1021.9,92,,,-1.3,,11492,41.2,2.2,1.4
2016,10,26,00:00,UTC,,1021.3,96,,,-1.4,,8028,32.9,2.2,1.5
2016,10,26,01:00,UTC,,1020.9,97,,,-1.3,,7717,27.3,2.7,1.5
2016,10,26,02:00,UTC,,1020.4,96,,,-1.2,,8921,22.1,2.7,1.6
2016,10,26,03:00,UTC,,1020,96,,,-1.2,,5955,18.5,2.7,1.6
2016,10,26,04:00,UTC,,1019.7,96,,,-1.2,,7119,15.4,2.4,1.4
2016,10,26,05:00,UTC,,1019.5,97,,,-1.3,,8357,11.8,2.4,1.6
2016,10,26,06:00,UTC,,1019.3,97,,,-1.3,,5309,6.7,1.7,1.3
2016,10,26,07:00,UTC,,1019.3,96,,,-1.1,,5749,11.3,1.9,1.2
2016,10,26,08:00,UTC,,1019,95,,,-0.9,,27740,12.3,2.4,1.4
2016,10,26,09:00,UTC,,1018.9,90,,,-0.7,,25269,184.7,2.5,1.4
2016,10,26,10:00,UTC,,1018.6,90,,,-0.6,,47463,8.7,1.8,1.1
2016,10,26,11:00,UTC,,1018.3,90,,,-0.6,,50000,166.2,1.9,1.2
2016,10,26,12:00,UTC,,1018.2,90,,,-0.8,,50000,152.8,2.7,1.8
2016,10,26,13:00,UTC,,1017.9,86,,,-0.9,,50000,53,1.4,0.8
2016,10,26,14:00,UTC,,1017.8,91,,,-1.3,,50000,79.2,0.8,0.3
2016,10,26,15:00,UTC,,1017.6,95,,,-1.9,,18880,52,2.4,1.4
2016,10,26,16:00,UTC,,1017.4,97,,,-2.6,,11441,67.4,2.4,1.9
2016,10,26,17:00,UTC,,1017.2,96,,,-2.1,,14626,70,2.9,2.3
2016,10,26,18:00,UTC,,1017,97,,,-2.2,,14931,62.8,2.2,2
2016,10,26,19:00,UTC,,1016.6,97,,,-2.1,,12392,67.9,2.2,1.8
2016,10,26,20:00,UTC,,1016.4,98,,,-2,,11396,65.8,3,2.5
2016,10,26,21:00,UTC,,1016.1,97,,,-2,,13416,60.7,3.2,2.5
2016,10,26,22:00,UTC,,1015.8,95,,,-1.9,,16530,67.4,3.2,2.5
2016,10,26,23:00,UTC,,1015.7,94,,,-1.9,,32953,65.3,3.1,2.4
2016,10,27,00:00,UTC,,1015.4,95,,,-1.9,,25624,63.8,3.2,2.7
2016,10,27,01:00,UTC,,1015.1,96,,,-3.2,,14778,66.9,3,2.6
2016,10,27,02:00,UTC,,1014.8,98,,,-4.6,,10465,56.6,3.3,2.5
2016,10,27,03:00,UTC,,1014.7,98,,,-4,,13555,63.8,3.8,3.4
2016,10,27,04:00,UTC,,1014.6,98,,,-3.9,,14389,63.8,3.7,3.3
2016,10,27,05:00,UTC,,1014.4,97,,,-3,,15153,61.7,4.5,3.3
2016,10,27,06:00,UTC,,1014.1,97,,,-2.6,,11716,61.7,5.2,4.2
2016,10,27,07:00,UTC,,1013.8,98,,,-2,,6374,60.2,5.5,4.3
2016,10,27,08:00,UTC,,1013.6,98,,,-1.5,,8158,62.2,4.6,3.6
2016,10,27,09:00,UTC,,1013.3,96,,,-0.8,,13667,65.8,4.8,3.6
2016,10,27,10:00,UTC,,1012.8,95,,,-0.5,,14574,65.3,4.9,3.9
2016,10,27,11:00,UTC,,1012.1,95,,,-0.1,,19976,67.4,7.3,5.6
2016,10,27,12:00,UTC,,1011.9,98,,,0,,8648,75.6,7.8,6
2016,10,27,13:00,UTC,,1011.5,98,,,0,,16875,76.7,7.3,5.3
2016,10,27,14:00,UTC,,1010.7,97,,,0.3,,27619,74.1,7.2,5.4
2016,10,27,15:00,UTC,,1009.5,98,,,0.4,,13499,68.4,7.2,5.8
2016,10,27,16:00,UTC,,1008.7,99,,,0.6,,10303,68.4,6.3,5.2
2016,10,27,17:00,UTC,,1007.6,99,,,0.9,,10664,72,7.4,5.6
2016,10,27,18:00,UTC,,1006.8,99,,,1.2,,11360,73.6,6.7,5.3
2016,10,27,19:00,UTC,,1006.1,98,,,1.6,,14887,82.3,5.8,4.1
2016,10,27,20:00,UTC,,1004.9,99,,,2,,19747,80.3,6.4,4.6
2016,10,27,21:00,UTC,,1004.5,99,,,2.6,,9837,84.4,6.6,5
2016,10,27,22:00,UTC,,1003.8,99,,,2.9,,19789,84.4,4.9,3.5
2016,10,27,23:00,UTC,,1002.8,99,,,3.2,,16098,74.6,4.8,3.4
2016,10,28,00:00,UTC,,1001.9,99,,,3.5,,16008,75.6,5.2,3.9
2016,10,28,01:00,UTC,,1000.9,99,,,4,,15782,78.2,5.4,3.9
2016,10,28,02:00,UTC,,999.9,99,,,4.3,,18360,78.2,5.2,4
2016,10,28,03:00,UTC,,998.9,98,,,4.7,,31001,76.7,5.3,4
2016,10,28,04:00,UTC,,998.1,99,,,5.1,,9258,75.1,6.9,4.3
2016,10,28,05:00,UTC,,997.5,99,,,5.3,,8664,79.2,5.3,3.6
2016,10,28,06:00,UTC,,997,99,,,5.5,,21856,87.5,4.2,2.8
2016,10,28,07:00,UTC,,996.5,99,,,5.5,,50000,81.3,5.2,2.3
2016,10,28,08:00,UTC,,996.4,99,,,5.6,,43092,98.8,4.2,2
2016,10,28,09:00,UTC,,996.4,99,,,5.6,,45808,127.1,4.7,2.7
2016,10,28,10:00,UTC,,996,97,,,6,,49529,84.4,3.1,2.2
2016,10,28,11:00,UTC,,995.4,97,,,6.3,,50000,82.8,2.3,1.7
2016,10,28,12:00,UTC,,995.4,97,,,6.4,,44184,90.5,3.4,1.4
2016,10,28,13:00,UTC,,995.1,97,,,6,,50000,96.2,2.1,1.6
2016,10,28,14:00,UTC,,995.1,98,,,5.6,,50000,114.7,2.3,1.6
2016,10,28,15:00,UTC,,994.8,98,,,5.5,,50000,114.7,4.7,1.8
2016,10,28,16:00,UTC,,994.5,99,,,4.9,,6414,130.7,1.1,0.9
2016,10,28,17:00,UTC,,994.5,99,,,2.5,,2125,92.1,0.6,0.3
2016,10,28,18:00,UTC,,994.7,100,,,3,,11987,142,2.3,1.9
2016,10,28,19:00,UTC,,994.6,100,,,4,,50000,162.6,3,2
2016,10,28,20:00,UTC,,994.8,98,,,3.6,,49698,157.4,1.8,1.3
2016,10,28,21:00,UTC,,994.9,99,,,3.7,,50000,136.3,1.2,1.1
2016,10,28,22:00,UTC,,995,98,,,3.8,,50000,171.3,3.3,2.1
2016,10,28,23:00,UTC,,995.2,96,,,3.4,,50000,174.4,3.2,1.7
2016,10,29,00:00,UTC,,995.5,98,,,3,,46120,179.5,1.6,0.9
2016,10,29,01:00,UTC,,995.8,97,,,3,,43199,179.5,3.4,1.8
2016,10,29,02:00,UTC,,996.1,97,,,2.7,,40402,178.5,3.4,2.2
2016,10,29,03:00,UTC,,996.4,96,,,2.6,,50000,168.7,4,2.5
2016,10,29,04:00,UTC,,996.9,96,,,2.4,,50000,170.8,3.6,2.4
2016,10,29,05:00,UTC,,997.5,95,,,2,,50000,182.1,4.8,2.3
2016,10,29,06:00,UTC,,998.1,96,,,1.8,,50000,177.5,3.3,1.9
2016,10,29,07:00,UTC,,998.8,96,,,1.6,,50000,174.9,4.4,2.6
2016,10,29,08:00,UTC,,999.5,94,,,1.7,,50000,174.9,4.2,2.6
2016,10,29,09:00,UTC,,999.9,93,,,1.9,,50000,177,4.8,3.1
2016,10,29,10:00,UTC,,1000.5,93,,,2.1,,50000,178,4.2,2.6
2016,10,29,11:00,UTC,,1000.9,92,,,2.4,,50000,176.5,4,2.3
2016,10,29,12:00,UTC,,1001.4,92,,,2.5,,50000,171.8,3.9,2.5
2016,10,29,13:00,UTC,,1002.1,93,,,2.2,,48042,168.7,3.5,2.4
2016,10,29,14:00,UTC,,1002.8,95,,,2.3,,50000,169.3,3,1.9
2016,10,29,15:00,UTC,,1003.5,98,,,1.5,,50000,163.1,3.7,2.4
2016,10,29,16:00,UTC,,1004,98,,,0.6,,50000,164.6,5.4,3.2
2016,10,29,17:00,UTC,,1004.8,96,,,0.3,,50000,175.4,4.8,2.6
2016,10,29,18:00,UTC,,1005.8,96,,,0,,50000,177,5.4,2.8
2016,10,29,19:00,UTC,,1006.5,95,,,0,,50000,185.2,5.9,3.2
2016,10,29,20:00,UTC,,1007.1,94,,,0.2,,50000,5.1,5.7,4
2016,10,29,21:00,UTC,,1007.8,95,,,0.5,,50000,180.1,4.2,2.5
2016,10,29,22:00,UTC,,1008.5,96,,,0.5,,50000,173.4,5.2,2.9
2016,10,29,23:00,UTC,,1009.3,97,,,0.5,,50000,179,3.6,2.4
2016,10,30,00:00,UTC,,1010.1,97,,,0.6,,50000,180.6,5.9,2.5
2016,10,30,01:00,UTC,,1010.6,98,,,0.6,,12525,178.5,4.1,2.1
2016,10,30,02:00,UTC,,1011,96,,,0.5,,50000,3.1,3.9,2.2
2016,10,30,03:00,UTC,,1011.6,97,,,0.5,,37469,185.2,4.9,2.8
2016,10,30,04:00,UTC,,1012.2,98,,,0,,48157,182.1,3.5,1.8
2016,10,30,05:00,UTC,,1012.8,99,,,-0.2,,21712,170.3,3.9,2.2
2016,10,30,06:00,UTC,,1013.5,96,,,-0.1,,15500,177.5,4,2.1
2016,10,30,07:00,UTC,,1014.1,97,,,-0.3,,50000,0.5,5.3,2.3
2016,10,30,08:00,UTC,,1014.7,97,,,-0.4,,50000,172.9,2.6,1.4
2016,10,30,09:00,UTC,,1015.1,94,,,0.2,,50000,174.9,3,1.6
2016,10,30,10:00,UTC,,1015.5,93,,,0.6,,50000,167.2,2.9,2
2016,10,30,11:00,UTC,,1015.8,91,,,1.1,,46564,173.4,3.8,2.2
2016,10,30,12:00,UTC,,1016,95,,,1.6,,50000,169.8,2.8,1.5
2016,10,30,13:00,UTC,,1016.2,94,,,2.2,,50000,161,3.9,2.8
2016,10,30,14:00,UTC,,1016.6,94,,,2.4,,50000,163.6,3.9,2.1
2016,10,30,15:00,UTC,,1016.6,97,,,2.1,,50000,184.7,1.2,0.5
2016,10,30,16:00,UTC,,1016.8,98,,,2.1,,25109,181.6,2.8,1.6
2016,10,30,17:00,UTC,,1017.1,96,,,1.9,,50000,159,2.4,1.6
2016,10,30,18:00,UTC,,1017.2,90,,,2.4,,50000,170.3,4.1,2.3
2016,10,30,19:00,UTC,,1017.3,88,,,2.5,,50000,174.4,2.8,1.6
2016,10,30,20:00,UTC,,1017.4,88,,,2.3,,50000,171.3,3.1,1.9
2016,10,30,21:00,UTC,,1017.4,91,,,0.9,,50000,176.5,2,1.4
2016,10,30,22:00,UTC,,1017.4,97,,,0.3,,50000,178.5,1.8,0.9
2016,10,30,23:00,UTC,,1017.7,98,,,-0.3,,50000,184.2,0.8,0.4
2016,10,31,00:00,UTC,,1017.6,96,,,-0.1,,50000,173.4,1.5,0.8
2016,10,31,01:00,UTC,,1017.9,95,,,0,,43665,94.1,0.8,0.4
2016,10,31,02:00,UTC,,1018.1,96,,,0,,50000,172.9,1,0.6
2016,10,31,03:00,UTC,,1018.3,95,,,0.3,,29301,2.1,2.3,1.2
2016,10,31,04:00,UTC,,1018.6,95,,,0.2,,46319,182.6,1.8,1
2016,10,31,05:00,UTC,,1019.1,93,,,-0.1,,50000,12.9,4.2,2.4
2016,10,31,06:00,UTC,,1019.6,95,,,-0.1,,50000,165.1,3,2
2016,10,31,07:00,UTC,,1019.9,95,,,0.3,,50000,173.4,2.2,1.5
2016,10,31,08:00,UTC,,1020.3,94,,,0.3,,49481,11.3,2.8,1.7
2016,10,31,09:00,UTC,,1020.4,92,,,0.3,,50000,172.9,1.7,0.6
2016,10,31,10:00,UTC,,1020.7,92,,,0.6,,49242,144,2.1,1.5
2016,10,31,11:00,UTC,,1020.9,91,,,0.8,,50000,179.5,2,1.4
2016,10,31,12:00,UTC,,1020.9,91,,,0.9,,50000,171.3,1.5,1
2016,10,31,13:00,UTC,,1021.1,91,,,1,,50000,156.4,1.5,1
2016,10,31,14:00,UTC,,1020.9,93,,,0.9,,50000,95.2,1.4,0.8
2016,10,31,15:00,UTC,,1020.8,96,,,0.6,,50000,108,2.4,1.2
2016,10,31,16:00,UTC,,1020.9,97,,,0.4,,41959,116.8,1.8,1.2
2016,10,31,17:00,UTC,,1021,98,,,0.4,,50000,114.7,2.5,1.8
2016,10,31,18:00,UTC,,1021,98,,,0.4,,45970,113.7,1.6,1
2016,10,31,19:00,UTC,,1020.9,99,,,0.4,,2711,100.8,3.6,1.7
2016,10,31,20:00,UTC,,1020.5,100,,,0.4,,2689,98.3,4.3,2.1
2016,10,31,21:00,UTC,,1020.4,100,,,0.5,,1821,100.3,2.7,2
2016,10,31,22:00,UTC,,1020.1,100,,,0.6,,3355,98.8,2.4,1.8
2016,10,31,23:00,UTC,,1019.7,100,,,0.4,,1700,98.3,2.2,1.7
2016,11,1,00:00,UTC,,1019.3,100,,,0.3,,9294,100.3,2.3,1.7
2016,11,1,01:00,UTC,,1019,100,,,0.1,,6767,74.6,2.8,2.1
2016,11,1,02:00,UTC,,1018.7,100,,,0,,11829,86.4,3,2.2
2016,11,1,03:00,UTC,,1018.2,100,,,0.1,,3985,94.7,3.4,2.4
2016,11,1,04:00,UTC,,1017.8,100,,,0.3,,4575,101.9,2.1,1.4
2016,11,1,05:00,UTC,,1017.3,100,,,0.2,,6794,81.3,5.5,1.9
2016,11,1,06:00,UTC,,1017.1,100,,,0.1,,3842,86.9,3.3,2.2
2016,11,1,07:00,UTC,,1017,100,,,0.2,,3238,94.1,2.9,2.2
2016,11,1,08:00,UTC,,1016.6,100,,,0.5,,6508,95.7,2.7,2
2016,11,1,09:00,UTC,,1016.4,100,,,0.5,,3873,96.2,2.2,1.6
2016,11,1,10:00,UTC,,1016.3,100,,,0.5,,9206,83.9,2.6,1.7
2016,11,1,11:00,UTC,,1015.9,100,,,0.7,,2638,87.5,2.8,2.2
2016,11,1,12:00,UTC,,1015.5,100,,,0.7,,3047,89,2.1,1.4
2016,11,1,13:00,UTC,,1015.1,100,,,0.7,,4551,86.4,1.4,1
2016,11,1,14:00,UTC,,1014.7,100,,,0.4,,4687,74.1,1.6,1.2
2016,11,1,15:00,UTC,,1014.3,100,,,0.1,,5336,61.7,1.8,1.6
2016,11,1,16:00,UTC,,1014,100,,,0.1,,5383,63.8,2.5,2.1
2016,11,1,17:00,UTC,,1013.8,100,,,0.1,,3733,69.4,2.2,1.7
2016,11,1,18:00,UTC,,1013.6,100,,,0.1,,4322,54,2.2,1.6
2016,11,1,19:00,UTC,,1013.5,100,,,0,,10368,65.8,2.6,1.9
2016,11,1,20:00,UTC,,1013.6,100,,,-0.2,,9947,67.9,4.5,2.8
2016,11,1,21:00,UTC,,1013.5,100,,,-0.4,,9548,63.8,3.9,2.5
2016,11,1,22:00,UTC,,1013.4,100,,,-0.5,,10708,56.6,3.1,2.2
2016,11,1,23:00,UTC,,1013.3,100,,,-0.7,,49230,53.5,3.1,2.3
2016,11,2,00:00,UTC,,1013.3,99,,,-0.8,,50000,46.8,2.4,1.6
2016,11,2,01:00,UTC,,1013.2,99,,,-0.9,,44121,34,2.1,1.3
2016,11,2,02:00,UTC,,1013.2,99,,,-0.9,,50000,36.5,2,1.2
2016,11,2,03:00,UTC,,1012.9,99,,,-0.9,,50000,21.6,2,1.2
2016,11,2,04:00,UTC,,1013,98,,,-0.9,,50000,20.1,3.4,1.8
2016,11,2,05:00,UTC,,1012.9,98,,,-1.1,,46970,28.3,1.9,1.3
2016,11,2,06:00,UTC,,1013.1,98,,,-1.1,,26250,34.5,2,1.1
2016,11,2,07:00,UTC,,1013.3,98,,,-1,,48776,21.1,1.1,0.7
2016,11,2,08:00,UTC,,1013.3,98,,,-0.6,,48154,27.8,2.4,1.5
2016,11,2,09:00,UTC,,,,,,,,,36,2.2,1.4
2016,11,2,10:00,UTC,,1013.4,95,,,-0.2,,50000,39.1,3.2,1.7
2016,11,2,11:00,UTC,,1013.3,93,,,0.1,,50000,25.2,2.8,1.3
2016,11,2,12:00,UTC,,1013.2,92,,,0,,50000,18,3.9,2.1
2016,11,2,13:00,UTC,,1013.2,94,,,-0.3,,50000,13.9,4.9,2.4
2016,11,2,14:00,UTC,,1013.3,94,,,-0.8,,50000,32.9,1.8,1.2
2016,11,2,15:00,UTC,,1013.4,94,,,-0.5,,50000,17,2.7,1.6
2016,11,2,16:00,UTC,,1013.3,93,,,-0.5,,50000,25.2,2.5,1.6
2016,11,2,17:00,UTC,,1013.4,96,,,-0.7,,50000,18.5,2.5,1.5
2016,11,2,18:00,UTC,,1013.3,96,,,-1.2,,23801,1.5,1.7,1.2
2016,11,2,19:00,UTC,,1013.3,96,,,-0.3,,35005,14.9,2.9,1.6
2016,11,2,20:00,UTC,,1013.3,94,,,-0.1,,29075,9.3,3.1,2.2
2016,11,2,21:00,UTC,,1013.2,95,,,0,,6672,13.9,4.4,2.6
2016,11,2,22:00,UTC,,1013.2,95,,,-0.1,,23931,15.4,3.9,2.1
2016,11,2,23:00,UTC,,1013.2,94,,,-0.1,,49142,18,4.1,2.4
2016,11,3,00:00,UTC,,1013.1,93,,,-0.4,,24749,20.1,4.5,2.5
2016,11,3,01:00,UTC,,1013,93,,,-0.9,,50000,15.4,3.8,2.5
2016,11,3,02:00,UTC,,1013.1,93,,,-1.5,,50000,18,4.2,2.5
2016,11,3,03:00,UTC,,1013.2,93,,,-1.7,,34070,23.7,4.1,2.1
2016,11,3,04:00,UTC,,1013,93,,,-1.3,,50000,14.9,3.6,2.3
2016,11,3,05:00,UTC,,1012.9,92,,,-1.2,,28084,18,4.8,2.4
2016,11,3,06:00,UTC,,1013.1,93,,,-1.1,,50000,22.6,3.2,2.1
2016,11,3,07:00,UTC,,1013.3,93,,,-1,,50000,15.4,3.1,1.8
2016,11,3,08:00,UTC,,1013.4,93,,,-0.9,,50000,25.7,3.7,1.9
2016,11,3,09:00,UTC,,1013.6,92,,,-0.5,,48051,28.3,3.9,2.2
2016,11,3,10:00,UTC,,1013.8,90,,,-0.3,,50000,32.9,5,3.2
2016,11,3,11:00,UTC,,1014,85,,,-0.5,,50000,39.6,4.5,2.7
2016,11,3,12:00,UTC,,1013.9,82,,,-0.4,,50000,34.5,6.1,3.4
2016,11,3,13:00,UTC,,1013.9,84,,,-0.5,,50000,34.5,3.6,1.6
2016,11,3,14:00,UTC,,1014,92,,,-1.9,,50000,175.4,1.5,0.8
2016,11,3,15:00,UTC,,1014.3,93,,,-1.2,,50000,6.2,3.6,2.7
2016,11,3,16:00,UTC,,1014.3,91,,,-1.4,,48993,11.3,4.9,2.8
2016,11,3,17:00,UTC,,1014.4,91,,,-1.6,,48379,19,6.1,2.8
2016,11,3,18:00,UTC,,1014.5,90,,,-1.6,,50000,21.6,4.9,2.7
2016,11,3,19:00,UTC,,1014.7,91,,,-1.9,,50000,22.1,5.3,2.4
2016,11,3,20:00,UTC,,1015.1,89,,,-2,,50000,34,3.9,2.2
2016,11,3,21:00,UTC,,1015.4,86,,,-2,,50000,39.1,5.6,3.3
2016,11,3,22:00,UTC,,1015.5,87,,,-1.8,,50000,36,5.2,2.6
2016,11,3,23:00,UTC,,1015.5,88,,,-1.8,,50000,25.2,4.4,2.2
2016,11,4,00:00,UTC,,1015.5,87,,,-1.9,,50000,14.9,3.9,2.5
2016,11,4,01:00,UTC,,1015.6,86,,,-2.4,,50000,12.3,4.2,2.5
2016,11,4,02:00,UTC,,1015.5,89,,,-2.5,,50000,23.7,4.9,2.4
2016,11,4,03:00,UTC,,1015.9,90,,,-2.2,,41145,27.8,5.6,3.3
2016,11,4,04:00,UTC,,1016.1,88,,,-2.1,,50000,29.3,5.7,3.5
2016,11,4,05:00,UTC,,1016.6,90,,,-2.3,,50000,29.8,4.1,2.4
2016,11,4,06:00,UTC,,1016.9,90,,,-2.8,,50000,29.3,4.8,2.4
2016,11,4,07:00,UTC,,1017.5,79,,,-2.8,,50000,31.4,5.1,3
2016,11,4,08:00,UTC,,1018.2,72,,,-2.9,,50000,38.1,7.3,4.3
2016,11,4,09:00,UTC,,1018.7,74,,,-3.5,,50000,36.5,6.8,4.2
2016,11,4,10:00,UTC,,1018.9,77,,,-2.9,,44711,28.8,6.1,3.8
2016,11,4,11:00,UTC,,1019,80,,,-2.8,,50000,26.2,6,3.6
2016,11,4,12:00,UTC,,1019.2,79,,,-2.8,,50000,27.3,6.2,3.7
2016,11,4,13:00,UTC,,1019.4,80,,,-3.1,,50000,24.2,6.1,3.6
2016,11,4,14:00,UTC,,1019.6,76,,,-3.4,,50000,24.7,8.4,4.3
2016,11,4,15:00,UTC,,1019.8,80,,,-4.2,,50000,24.7,6.1,3.5
2016,11,4,16:00,UTC,,1020,81,,,-4.6,,50000,19,7,4
2016,11,4,17:00,UTC,,1020.2,79,,,-4.6,,50000,22.1,6.9,3.8
2016,11,4,18:00,UTC,,1020.3,80,,,-4.9,,50000,24.2,6.3,3.6
2016,11,4,19:00,UTC,,1020.5,80,,,-5.3,,50000,19.5,6.5,3.7
2016,11,4,20:00,UTC,,1020.7,82,,,-5.6,,50000,19.5,5.9,3
2016,11,4,21:00,UTC,,1020.8,84,,,-6.2,,50000,19.5,5.6,3.3
2016,11,4,22:00,UTC,,1020.8,84,,,-6.5,,50000,19.5,6.2,3.1
2016,11,4,23:00,UTC,,1020.9,84,,,-6.7,,50000,20.6,5.2,2.9
2016,11,5,00:00,UTC,,1020.8,83,,,-6.5,,50000,25.2,6.3,3.4
2016,11,5,01:00,UTC,,1020.9,84,,,-6.5,,50000,26.8,5.7,3.5
2016,11,5,02:00,UTC,,1020.9,84,,,-6.4,,50000,26.2,5.1,3.2
2016,11,5,03:00,UTC,,1021.1,85,,,-6.3,,38321,27.3,4.4,2.9
2016,11,5,04:00,UTC,,1021.2,84,,,-6.3,,50000,24.7,4.9,3.1
2016,11,5,05:00,UTC,,1021.4,84,,,-6.5,,50000,28.8,4.6,2.9
2016,11,5,06:00,UTC,,1021.4,84,,,-6.4,,50000,25.7,4.2,2.6
2016,11,5,07:00,UTC,,1021.5,84,,,-6.7,,49992,26.8,3.4,1.9
2016,11,5,08:00,UTC,,1022.1,82,,,-6.8,,49793,26.2,5.1,2.7
2016,11,5,09:00,UTC,,1022.1,83,,,-6.1,,50000,20.1,3,1.6
2016,11,5,10:00,UTC,,1022.1,80,,,-5.5,,50000,12.9,3.7,2.3
2016,11,5,11:00,UTC,,1021.9,76,,,-4.6,,50000,12.9,3.1,1.9
2016,11,5,12:00,UTC,,1021.8,77,,,-4.3,,50000,12.9,5.2,2.8
2016,11,5,13:00,UTC,,1022,79,,,-5,,50000,14.4,5.1,2.7
2016,11,5,14:00,UTC,,1022,82,,,-5.4,,50000,14.9,4.4,2.7
2016,11,5,15:00,UTC,,1022.1,81,,,-5.7,,50000,17.5,4.8,2.7
2016,11,5,16:00,UTC,,1022.2,84,,,-6,,50000,18.5,4.7,2.3
2016,11,5,17:00,UTC,,1022.3,83,,,-6,,50000,20.6,4.7,2.6
2016,11,5,18:00,UTC,,1022.4,86,,,-6.5,,50000,18,3.9,2.2
2016,11,5,19:00,UTC,,1022.5,86,,,-6.3,,49594,23.7,3.6,2.4
2016,11,5,20:00,UTC,,1022.5,85,,,-6.2,,50000,22.6,4.4,2.8
2016,11,5,21:00,UTC,,1022.5,85,,,-6.5,,50000,30.4,3.8,2.5
2016,11,5,22:00,UTC,,1022.4,86,,,-6.3,,50000,30.4,3.2,2
2016,11,5,23:00,UTC,,1022.6,85,,,-6.4,,50000,43.7,2.1,1.1
2016,11,6,00:00,UTC,,1022.6,86,,,-6.6,,16690,43.2,2.1,1.5
2016,11,6,01:00,UTC,,1022.6,88,,,-6.8,,13548,40.1,1.7,1.1
2016,11,6,02:00,UTC,,1022.5,89,,,-7.1,,16105,32.4,1.6,1.1
2016,11,6,03:00,UTC,,1022.5,90,,,-7.6,,50000,36,1.8,1.2
2016,11,6,04:00,UTC,,1022.7,91,,,-8.3,,25025,30.9,2.7,1.7
2016,11,6,05:00,UTC,,1022.9,89,,,-8.7,,50000,30.9,3.1,1.8
2016,11,6,06:00,UTC,,1023,87,,,-9.4,,50000,32.4,4.1,2.3
2016,11,6,07:00,UTC,,1023,87,,,-9.9,,50000,30.4,3.3,2
2016,11,6,08:00,UTC,,1023.3,85,,,-9.3,,50000,27.8,4.5,2.5
2016,11,6,09:00,UTC,,1023.4,82,,,-9,,44411,32.9,4.5,2.6
2016,11,6,10:00,UTC,,1023.4,80,,,-8.4,,49093,36,4.8,3
2016,11,6,11:00,UTC,,1023.2,82,,,-8,,41411,27.8,5.4,2.8
2016,11,6,12:00,UTC,,1023.1,82,,,-7.6,,44696,26.2,5.6,3
2016,11,6,13:00,UTC,,1023.1,83,,,-7.8,,50000,24.2,4.9,2.7
2016,11,6,14:00,UTC,,1023.1,86,,,-8.5,,50000,26.8,3.9,2.2
2016,11,6,15:00,UTC,,1023.1,86,,,-8.3,,50000,24.2,5,2.8
2016,11,6,16:00,UTC,,1023.1,86,,,-8.6,,50000,26.2,5.4,2.9
2016,11,6,17:00,UTC,,1023.3,88,,,-9,,50000,26.2,3.8,2.2
2016,11,6,18:00,UTC,,1023.3,88,,,-9.3,,49032,24.7,3.7,2.3
2016,11,6,19:00,UTC,,1023.3,86,,,-9.3,,50000,27.3,4,2.4
2016,11,6,20:00,UTC,,1023.3,87,,,-9.8,,50000,26.8,3.8,2.4
2016,11,6,21:00,UTC,,1023.3,86,,,-9.9,,50000,29.3,4.3,2.4
2016,11,6,22:00,UTC,,1023.2,87,,,-10.6,,47570,25.7,4.1,2.5
2016,11,6,23:00,UTC,,1023.3,86,,,-10.9,,48203,32.4,4.2,2.5
2016,11,7,00:00,UTC,,1023,87,,,-10.4,,50000,22.6,4.5,3
2016,11,7,01:00,UTC,,1023.2,87,,,-10.5,,45644,27.8,4.8,2.8
2016,11,7,02:00,UTC,,1023.1,87,,,-10.4,,50000,29.8,5,2.7
2016,11,7,03:00,UTC,,1023,87,,,-10.6,,50000,26.8,4.4,2.8
2016,11,7,04:00,UTC,,1023.4,87,,,-10.4,,50000,28.8,4.1,2.5
2016,11,7,05:00,UTC,,1023.6,87,,,-10.3,,50000,30.9,4.5,2.4
2016,11,7,06:00,UTC,,1023.7,85,,,-9.8,,50000,30.4,5.6,3.1
2016,11,7,07:00,UTC,,1024,86,,,-9.4,,50000,26.8,5.8,3.2
2016,11,7,08:00,UTC,,1024.1,85,,,-8.6,,44870,24.2,5.5,3.3
2016,11,7,09:00,UTC,,1024,83,,,-8.2,,46333,28.3,5.8,3.5
2016,11,7,10:00,UTC,,1023.9,82,,,-7.4,,39022,36.5,6,3.4
2016,11,7,11:00,UTC,,1024,78,,,-6.2,,49031,36,6.4,3.9
2016,11,7,12:00,UTC,,1024.2,81,,,-6.2,,50000,32.4,4.7,3
2016,11,7,13:00,UTC,,1024.4,81,,,-6.2,,50000,31.9,6.2,3.5
2016,11,7,14:00,UTC,,1024.3,84,,,-6.8,,50000,29.3,5,2.7
2016,11,7,15:00,UTC,,1024.5,86,,,-6.9,,50000,24.2,5.4,3.5
2016,11,7,16:00,UTC,,1024.3,88,,,-7.2,,50000,23.7,5.8,3.2
2016,11,7,17:00,UTC,,1024.8,86,,,-7.1,,50000,27.3,5.2,3.3
2016,11,7,18:00,UTC,,1025.1,89,,,-7.5,,50000,23.7,5.2,2.8
2016,11,7,19:00,UTC,,1025.3,89,,,-7.9,,50000,19.5,4.3,2.6
2016,11,7,20:00,UTC,,1025,89,,,-7.1,,50000,19,4.9,2.7
2016,11,7,21:00,UTC,,1025,89,,,-7.1,,50000,16.5,5.5,3.1
2016,11,7,22:00,UTC,,1025,87,,,-7.4,,50000,21.6,6.3,3.6
2016,11,7,23:00,UTC,,1024.6,87,,,-7.9,,50000,19.5,3.8,2.4
2016,11,8,00:00,UTC,,1024.6,87,,,-8.1,,50000,29.8,3.9,2.3
2016,11,8,01:00,UTC,,1024.5,90,,,-9.1,,50000,27.8,3.1,1.5
2016,11,8,02:00,UTC,,1024.5,89,,,-9.2,,50000,24.7,3.4,2
2016,11,8,03:00,UTC,,1024.5,88,,,-9.8,,50000,24.2,4.9,2.5
2016,11,8,04:00,UTC,,1024.7,85,,,-9.9,,50000,26.8,4.2,2.6
2016,11,8,05:00,UTC,,1025,85,,,-9.7,,50000,30.9,4.2,2.6
2016,11,8,06:00,UTC,,1025.4,84,,,-9.3,,50000,28.3,4.8,2.7
2016,11,8,07:00,UTC,,1025.8,83,,,-9,,50000,34,5.5,3
2016,11,8,08:00,UTC,,1025.7,81,,,-8.5,,50000,32.4,5.7,3.1
2016,11,8,09:00,UTC,,1025.8,76,,,-7.5,,46158,38.1,6.2,4.2
2016,11,8,10:00,UTC,,1025.9,72,,,-6.9,,48722,39.6,7.5,4
2016,11,8,11:00,UTC,,1025.9,69,,,-6.2,,50000,37,6.7,3.8
2016,11,8,12:00,UTC,,1026,70,,,-6,,50000,31.4,6.5,4
2016,11,8,13:00,UTC,,1026.1,74,,,-6.2,,50000,29.3,5.4,3.1
2016,11,8,14:00,UTC,,1026.3,83,,,-6.6,,50000,24.7,5.4,3.3
2016,11,8,15:00,UTC,,1026.5,85,,,-7,,50000,24.2,4.8,3.2
2016,11,8,16:00,UTC,,1026.6,86,,,-7.3,,50000,27.8,4,2.3
2016,11,8,17:00,UTC,,1027,87,,,-7.5,,50000,28.3,3.7,2.3
2016,11,8,18:00,UTC,,1027.1,85,,,-7.2,,50000,26.8,4.9,2.8
2016,11,8,19:00,UTC,,1027,88,,,-7.8,,50000,22.1,5.3,2.7
2016,11,8,20:00,UTC,,1026.8,86,,,-8.1,,50000,23.1,6.4,4.1
2016,11,8,21:00,UTC,,1026.8,85,,,-7.9,,50000,25.7,4,2.4
2016,11,8,22:00,UTC,,1026.6,89,,,-7.4,,50000,34,3.2,1.8
2016,11,8,23:00,UTC,,1026.4,91,,,-7.3,,50000,20.6,3.5,2.2
2016,11,9,00:00,UTC,,1026.2,89,,,-7.5,,50000,20.1,3.4,2.2
2016,11,9,01:00,UTC,,1026,88,,,-7.8,,50000,24.2,4.2,2.6
2016,11,9,02:00,UTC,,1025.7,89,,,-7.3,,50000,20.6,5.2,3
2016,11,9,03:00,UTC,,1025.3,89,,,-7.1,,50000,19.5,3.9,2.4
2016,11,9,04:00,UTC,,1024.8,89,,,-6.7,,50000,20.6,5.1,3.2
2016,11,9,05:00,UTC,,1024.6,88,,,-6.5,,50000,22.6,4.2,2.7
2016,11,9,06:00,UTC,,1024.4,90,,,-6.9,,50000,19.5,2.8,1.8
2016,11,9,07:00,UTC,,1024.4,90,,,-6.7,,50000,27.3,2.2,1.4
2016,11,9,08:00,UTC,,1024.3,85,,,-5,,50000,34,4.5,2.7
2016,11,9,09:00,UTC,,1023.8,77,,,-3.3,,46402,40.6,7.7,4.9
2016,11,9,10:00,UTC,,1023.6,71,,,-2.8,,50000,45.8,8.6,4.7
2016,11,9,11:00,UTC,,1023.6,67,,,-3.2,,50000,47.8,9.4,6.6
2016,11,9,12:00,UTC,,1023.7,71,,,-4.9,,50000,61.2,8.6,6.6
2016,11,9,13:00,UTC,,1023.9,78,,,-6.9,,50000,67.9,7.5,5.8
2016,11,9,14:00,UTC,,1024.4,79,,,-8.5,,50000,63.8,8.8,6.7
2016,11,9,15:00,UTC,,1024.5,80,,,-9.4,,50000,57.1,7.3,5.5
2016,11,9,16:00,UTC,,1024.2,80,,,-9.8,,50000,50.4,5.7,4.4
2016,11,9,17:00,UTC,,1024.3,80,,,-10.4,,50000,47.3,6.4,4.4
2016,11,9,18:00,UTC,,1024.3,82,,,-11.1,,50000,44.8,5.9,4
2016,11,9,19:00,UTC,,1024.2,81,,,-11.6,,50000,46.3,7.1,4.3
2016,11,9,20:00,UTC,,1024.2,80,,,-11.3,,50000,48.4,5.7,3.9
2016,11,9,21:00,UTC,,1024.2,79,,,-10.9,,50000,45.8,4.8,3.4
2016,11,9,22:00,UTC,,1023.9,80,,,-11,,50000,46.3,6.1,3.7
2016,11,9,23:00,UTC,,1023.9,81,,,-11.1,,50000,45.8,4.8,3.3
2016,11,10,00:00,UTC,,1023.6,81,,,-10.8,,50000,46.8,5.5,3.8
2016,11,10,01:00,UTC,,1023.5,81,,,-10.9,,50000,46.3,5,3.2
2016,11,10,02:00,UTC,,1023.3,83,,,-11,,50000,44.8,4.1,3
2016,11,10,03:00,UTC,,1023.1,84,,,-10.4,,50000,49.9,5.2,3.6
2016,11,10,04:00,UTC,,1022.7,85,,,-10,,50000,47.8,4.7,3.1
2016,11,10,05:00,UTC,,1022.8,85,,,-9.8,,50000,47.8,4.3,3
2016,11,10,06:00,UTC,,1022.8,85,,,-9.2,,50000,46.3,3.5,2.4
2016,11,10,07:00,UTC,,1023.1,84,,,-8.7,,50000,49.4,3.8,2.8
2016,11,10,08:00,UTC,,1023.5,84,,,-8.4,,50000,48.4,3.9,3.1
2016,11,10,09:00,UTC,,1023.7,83,,,-8.2,,48858,50.9,3.7,3.1
2016,11,10,10:00,UTC,,1023.8,84,,,-8,,49666,43.2,3.9,2.3
2016,11,10,11:00,UTC,,1023,82,,,-8.3,,50000,48.4,3.2,2.4
2016,11,10,12:00,UTC,,1022.9,82,,,-8.7,,45498,43.2,3.7,2.3
2016,11,10,13:00,UTC,,1022.2,83,,,-9.1,,50000,28.8,3.9,2.3
2016,11,10,14:00,UTC,,1021.9,83,,,-9.6,,50000,28.3,4.4,2.4
2016,11,10,15:00,UTC,,1021.4,84,,,-9.5,,50000,17,2.8,1.5
2016,11,10,16:00,UTC,,1020.8,83,,,-9.8,,50000,22.6,4.8,2.8
2016,11,10,17:00,UTC,,1020.3,81,,,-10.7,,50000,28.8,5.1,3.3
2016,11,10,18:00,UTC,,1020,78,,,-10.7,,50000,34,5.1,2.8
2016,11,10,19:00,UTC,,1019.1,78,,,-10.2,,50000,20.1,3.4,2
2016,11,10,20:00,UTC,,1018.6,74,,,-9.8,,50000,19.5,3.8,2.5
2016,11,10,21:00,UTC,,1018.1,71,,,-9.6,,50000,18,2.8,1.7
2016,11,10,22:00,UTC,,1017.9,70,,,-9.3,,50000,27.8,4.9,2.7
2016,11,10,23:00,UTC,,1017.3,71,,,-8.8,,50000,22.1,4,2.4
2016,11,11,00:00,UTC,,1016.4,87,,,-9.1,,3121,10.3,3.4,2.5
2016,11,11,01:00,UTC,,1015.2,90,,,-8.3,,50000,9.8,3.2,1.9
2016,11,11,02:00,UTC,,1014.2,84,,,-8.2,,12539,5.7,6.7,4.7
2016,11,11,03:00,UTC,,1013.4,88,,,-8,,4951,8.2,4.5,3
2016,11,11,04:00,UTC,,1012.7,91,,,-7.4,,3431,8.2,4.4,3.1
2016,11,11,05:00,UTC,,1011.8,88,,,-7.5,,8713,177,4.3,2
2016,11,11,06:00,UTC,,1011.4,89,,,-7.7,,5842,168.2,3.2,2.2
2016,11,11,07:00,UTC,,1011.4,92,,,-7,,2645,183.7,2.6,1.3
2016,11,11,08:00,UTC,,1011.2,90,,,-7.1,,5010,14.9,1.7,0.7
2016,11,11,09:00,UTC,,1011.3,89,,,-7,,4218,86.4,2,1.6
2016,11,11,10:00,UTC,,1011.4,88,,,-6.7,,1738,113.2,1.8,1.2
2016,11,11,11:00,UTC,,1011.3,89,,,-6.9,,21251,85.4,2.2,1.6
2016,11,11,12:00,UTC,,1011.7,90,,,-6.6,,50000,86.9,3.5,2.5
2016,11,11,13:00,UTC,,1011.8,91,,,-5.8,,49815,113.2,3.3,2.3
2016,11,11,14:00,UTC,,1012,91,,,-5,,50000,132.7,3.2,2.2
2016,11,11,15:00,UTC,,1012.4,87,,,-4.4,,50000,145.6,3.7,2.1
2016,11,11,16:00,UTC,,1012.6,84,,,-4,,50000,146.1,6.5,4.5
2016,11,11,17:00,UTC,,1012.7,86,,,-3.8,,50000,150.2,5.1,4.1
2016,11,11,18:00,UTC,,1012.9,86,,,-3.6,,50000,131.2,3.6,2.6
2016,11,11,19:00,UTC,,1013.1,92,,,-4.4,,50000,104.9,3.2,2.5
2016,11,11,20:00,UTC,,1013.2,81,,,-3.4,,50000,143.5,4.7,3.3
2016,11,11,21:00,UTC,,1013.3,83,,,-3.4,,50000,143,3.7,2.9
2016,11,11,22:00,UTC,,1013.4,89,,,-4.3,,49995,115.2,2.3,1.7
2016,11,11,23:00,UTC,,1013.2,91,,,-4.5,,50000,98.8,1.3,0.9
2016,11,12,00:00,UTC,,1013.3,91,,,-4.1,,50000,101.3,1.5,1.2
2016,11,12,01:00,UTC,,1013.4,92,,,-4.2,,50000,111.6,1.8,0.9
2016,11,12,02:00,UTC,,1013.7,92,,,-4,,50000,120.9,0.9,0.6
2016,11,12,03:00,UTC,,1014,84,,,-3.2,,50000,149.2,2.8,2.1
2016,11,12,04:00,UTC,,1014.3,84,,,-3.2,,50000,138.9,2.4,1.9
2016,11,12,05:00,UTC,,1014.7,84,,,-3.4,,50000,143,2.9,2
2016,11,12,06:00,UTC,,1014.8,86,,,-4.4,,50000,135.8,2.6,1.9
2016,11,12,07:00,UTC,,1015,91,,,-4.9,,50000,142,1.7,1.4
2016,11,12,08:00,UTC,,1015.4,94,,,-7.4,,17445,75.1,0.7,0.2
2016,11,12,09:00,UTC,,1016.1,95,,,-8.9,,50000,109.6,1.3,1.1
2016,11,12,10:00,UTC,,1016.3,93,,,-6.2,,35774,99.3,2.4,1.6
2016,11,12,11:00,UTC,,1016.1,90,,,-4.9,,4613,105.5,1.9,1.4
2016,11,12,12:00,UTC,,1016.5,95,,,-7.9,,8566,73.6,2.4,1.9
2016,11,12,13:00,UTC,,1016.7,96,,,-7.9,,11648,105.5,1.8,1.2
2016,11,12,14:00,UTC,,1017.1,95,,,-10,,767,58.6,1.5,1
2016,11,12,15:00,UTC,,1017.4,90,,,-11.1,,48459,78.7,0.9,0.5
2016,11,12,16:00,UTC,,1017.8,92,,,-8.4,,1970,89.5,0.9,0.6
2016,11,12,17:00,UTC,,1018,93,,,-7,,615,86.4,1.4,0.8
2016,11,12,18:00,UTC,,1018.2,93,,,-7,,711,67.9,1.4,1.2
2016,11,12,19:00,UTC,,1018.4,93,,,-7.2,,884,91.1,1.5,1.3
2016,11,12,20:00,UTC,,1018.5,92,,,-7.7,,1228,73.6,1.6,1.5
2016,11,12,21:00,UTC,,1018.7,92,,,-7.7,,605,50.9,1.5,1.1
2016,11,12,22:00,UTC,,1018.5,92,,,-7.7,,833,61.7,2.5,2.1
2016,11,12,23:00,UTC,,1019,92,,,-7.5,,1157,65.3,2.9,2.4
2016,11,13,00:00,UTC,,1019.3,93,,,-7.1,,1061,70.5,3.4,2.6
2016,11,13,01:00,UTC,,1019.8,93,,,-7.3,,1780,88,3,2.5
2016,11,13,02:00,UTC,,1019.7,93,,,-7.3,,3215,82.3,3,2.2
2016,11,13,03:00,UTC,,1020,93,,,-6.5,,872,85.9,2.3,1.1
2016,11,13,04:00,UTC,,1020.4,94,,,-6.2,,2102,70.5,3.8,3
2016,11,13,05:00,UTC,,1020.4,94,,,-5.8,,5600,75.1,4.2,3
2016,11,13,06:00,UTC,,1020.5,94,,,-5.7,,7712,78.2,4.4,3.4
2016,11,13,07:00,UTC,,1021.2,94,,,-5.6,,22844,72.5,4.2,3.3
2016,11,13,08:00,UTC,,1021.8,95,,,-5.2,,14746,68.4,4.5,3.6
2016,11,13,09:00,UTC,,1022.3,95,,,-4.8,,11757,74.1,4.6,3.4
2016,11,13,10:00,UTC,,1022.5,95,,,-4.4,,12437,72.5,5.2,3.9
2016,11,13,11:00,UTC,,1022.8,96,,,-4.1,,12599,79.7,3.4,2.4
2016,11,13,12:00,UTC,,1023.2,96,,,-4,,10555,72.5,3.9,2.7
2016,11,13,13:00,UTC,,1023.5,96,,,-3.9,,12562,67.4,3.6,2.8
2016,11,13,14:00,UTC,,1023.9,96,,,-3.9,,9314,71,3.6,2.8
2016,11,13,15:00,UTC,,1024.2,96,,,-4.3,,12363,73.1,5.9,4.4
2016,11,13,16:00,UTC,,1024.6,96,,,-4.2,,7798,74.1,5.3,4
2016,11,13,17:00,UTC,,1024.9,95,,,-4.4,,17364,75.6,3.7,2.1
2016,11,13,18:00,UTC,,1025.3,95,,,-4.8,,18078,74.1,3.9,2.8
2016,11,13,19:00,UTC,,1025.3,95,,,-4.7,,7544,70,3.4,2.7
2016,11,13,20:00,UTC,,1025.5,95,,,-4.8,,27581,74.6,4.2,3.1
2016,11,13,21:00,UTC,,1025.8,95,,,-4.8,,17872,78.7,4,3.1
2016,11,13,22:00,UTC,,1026.1,95,,,-4.7,,34031,82.8,2.5,1.9
2016,11,13,23:00,UTC,,1026.2,96,,,-4.4,,49270,80.3,5,2.3
2016,11,14,00:00,UTC,,1025.9,96,,,-4.2,,50000,89.5,4.5,2.9
2016,11,14,01:00,UTC,,1025.8,95,,,-4.7,,50000,82.3,5.3,3.4
2016,11,14,02:00,UTC,,1025.7,95,,,-5.1,,41385,86.9,5.2,3.5
2016,11,14,03:00,UTC,,1025.5,95,,,-5.2,,47471,73.1,4.9,3.6
2016,11,14,04:00,UTC,,1025.5,94,,,-5.8,,8654,82.8,4,2.7
2016,11,14,05:00,UTC,,1025.3,93,,,-6.7,,6142,66.4,4.6,3.8
2016,11,14,06:00,UTC,,1025.1,92,,,-7.9,,2278,69.4,4.4,3.2
2016,11,14,07:00,UTC,,1024.5,90,,,-9.7,,37662,65.3,6.3,5
2016,11,14,08:00,UTC,,1024.2,88,,,-12.3,,50000,66.9,5.8,4.7
2016,11,14,09:00,UTC,,1023.9,88,,,-12.8,,21813,65.3,5.2,4.2
2016,11,14,10:00,UTC,,1023.2,88,,,-12.5,,42295,67.9,5.4,4.3
2016,11,14,11:00,UTC,,1022.8,88,,,-12.1,,50000,69.4,5.9,4.4
2016,11,14,12:00,UTC,,1022.4,88,,,-11.8,,50000,70,6.3,5.3
2016,11,14,13:00,UTC,,1021.7,89,,,-10.9,,50000,73.6,6.8,5.4
2016,11,14,14:00,UTC,,1021.1,90,,,-10.5,,50000,75.6,6.1,4.8
2016,11,14,15:00,UTC,,1020.8,90,,,-10.1,,49781,79.7,6.5,4.7
2016,11,14,16:00,UTC,,1020.3,90,,,-10,,50000,75.1,6.7,5.3
2016,11,14,17:00,UTC,,1019.7,91,,,-9.2,,50000,78.7,6.7,5
2016,11,14,18:00,UTC,,1019.3,93,,,-7,,49466,80.3,8.2,6.2
2016,11,14,19:00,UTC,,1019.6,94,,,-5.9,,50000,87.5,8.5,5.5
2016,11,14,20:00,UTC,,1019,95,,,-5.3,,50000,86.9,8.4,5.9
2016,11,14,21:00,UTC,,1018.8,95,,,-4.7,,48222,85.9,9.9,6.4
2016,11,14,22:00,UTC,,1018.9,96,,,-4.1,,50000,88,7.8,5.2
2016,11,14,23:00,UTC,,1018.7,96,,,-3.6,,50000,85.9,7.5,5.5
2016,11,15,00:00,UTC,,1018.2,96,,,-3.3,,50000,84.9,9.6,6.8
2016,11,15,01:00,UTC,,1017.8,95,,,-3,,50000,83.9,9.1,5.9
2016,11,15,02:00,UTC,,1017.2,93,,,-2.6,,50000,81.8,8.2,5.7
2016,11,15,03:00,UTC,,1016.6,91,,,-2.3,,48849,78.2,8.9,6.7
2016,11,15,04:00,UTC,,1015.7,89,,,-2.1,,50000,77.7,10,7
2016,11,15,05:00,UTC,,1015.1,89,,,-1.8,,50000,78.2,10.2,6.7
2016,11,15,06:00,UTC,,1014.7,88,,,-1.5,,50000,81.3,9.7,7.4
2016,11,15,07:00,UTC,,1014,87,,,-1.3,,50000,78.7,11.4,7.7
2016,11,15,08:00,UTC,,1013.3,88,,,-1.5,,50000,80.3,12.4,8.3
2016,11,15,09:00,UTC,,1012.7,87,,,-1.7,,50000,79.7,13.9,8.7
2016,11,15,10:00,UTC,,1012,87,,,-2.1,,49111,79.2,13.5,8.9
2016,11,15,11:00,UTC,,1011.1,85,,,-2.2,,50000,77.7,13.9,9.2
2016,11,15,12:00,UTC,,1010,82,,,-1.7,,41384,78.2,10.4,7.8
2016,11,15,13:00,UTC,,1008.9,83,,,-1.3,,45596,79.7,11.2,7.7
2016,11,15,14:00,UTC,,1008.1,84,,,-1,,47727,78.7,13,8.4
2016,11,15,15:00,UTC,,1007.3,83,,,-0.7,,50000,79.7,11.2,7.9
2016,11,15,16:00,UTC,,1006.6,83,,,-0.5,,41260,80.3,12.2,8.5
2016,11,15,17:00,UTC,,1005.8,83,,,-0.3,,50000,79.7,12.5,8.6
2016,11,15,18:00,UTC,,1005.1,83,,,-0.1,,50000,78.7,13.2,8.2
2016,11,15,19:00,UTC,,1004.2,87,,,0,,40038,78.2,12.1,7.7
2016,11,15,20:00,UTC,,1004,91,,,0,,10334,83.3,10.3,6.7
2016,11,15,21:00,UTC,,1003.9,91,,,0,,11895,84.9,9,6.1
2016,11,15,22:00,UTC,,1003.9,93,,,-0.1,,12035,83.9,8.3,5.9
2016,11,15,23:00,UTC,,1003.7,95,,,-0.1,,9379,83.3,8.3,5.7
2016,11,16,00:00,UTC,,1003.3,95,,,-0.1,,10580,81.3,8,5.9
2016,11,16,01:00,UTC,,1003.1,94,,,-0.2,,17809,84.4,7.8,5.2
2016,11,16,02:00,UTC,,1003.2,92,,,0,,44907,88.5,7.5,5
2016,11,16,03:00,UTC,,1003,95,,,-0.1,,13975,87.5,6,4.1
2016,11,16,04:00,UTC,,1002.8,94,,,-0.1,,20507,81.3,5.4,4.2
2016,11,16,05:00,UTC,,1002.6,95,,,0,,48603,86.4,5.8,3.9
2016,11,16,06:00,UTC,,1002.4,97,,,0,,14371,82.3,4.6,3.4
2016,11,16,07:00,UTC,,1002.3,97,,,0.1,,13015,80.3,5.5,4.1
2016,11,16,08:00,UTC,,1002.6,97,,,0.2,,18832,85.9,4.9,3.5
2016,11,16,09:00,UTC,,1002.5,95,,,0.4,,24027,92.1,4.6,3.2
2016,11,16,10:00,UTC,,1002.7,94,,,0.3,,25468,97.2,5.2,3.4
2016,11,16,11:00,UTC,,1002.5,95,,,0.2,,45748,92.6,3.3,2.4
2016,11,16,12:00,UTC,,1002.2,96,,,0.3,,48722,82.3,3.6,2.3
2016,11,16,13:00,UTC,,1002,97,,,0.3,,12583,87.5,4.3,2.6
2016,11,16,14:00,UTC,,1001.9,98,,,0.4,,9573,86.4,4.4,3.2
2016,11,16,15:00,UTC,,1002,98,,,0.4,,10920,90,5.8,3.8
2016,11,16,16:00,UTC,,1001.7,98,,,0.5,,12112,79.7,4.9,3.7
2016,11,16,17:00,UTC,,1001.4,98,,,0.6,,11599,79.2,5.5,3.7
2016,11,16,18:00,UTC,,1001.4,98,,,0.5,,12414,85.9,5.2,3.6
2016,11,16,19:00,UTC,,1001.4,98,,,0.5,,11529,85.9,5.5,3.5
2016,11,16,20:00,UTC,,1001.1,98,,,0.6,,14924,81.3,5.6,3.7
2016,11,16,21:00,UTC,,1000.4,98,,,0.5,,13965,73.1,6.7,5.4
2016,11,16,22:00,UTC,,1000.1,98,,,0.3,,50000,74.1,7.3,5.3
2016,11,16,23:00,UTC,,999.5,95,,,0.3,,50000,71.5,9.4,7
2016,11,17,00:00,UTC,,999,96,,,0.3,,50000,67.9,8,5.8
2016,11,17,01:00,UTC,,998.4,94,,,0.4,,50000,68.4,8.7,6.9
2016,11,17,02:00,UTC,,997.9,93,,,0.5,,50000,74.1,10.5,7
2016,11,17,03:00,UTC,,997.4,91,,,0.6,,50000,72,10.4,7.7
2016,11,17,04:00,UTC,,996.9,92,,,0.6,,50000,71,9.3,6.9
2016,11,17,05:00,UTC,,996.1,91,,,0.7,,50000,64.3,6.9,5.6
2016,11,17,06:00,UTC,,995.5,90,,,0.8,,20632,63.8,8.6,6.5
2016,11,17,07:00,UTC,,995.1,89,,,1,,29246,64.3,8.5,6.9
2016,11,17,08:00,UTC,,994.6,88,,,1.1,,50000,68.4,9.4,7
2016,11,17,09:00,UTC,,994,89,,,1,,50000,61.7,9.3,7.4
2016,11,17,10:00,UTC,,993.6,87,,,1.2,,50000,65.3,10.2,7.5
2016,11,17,11:00,UTC,,993,87,,,1.4,,48101,63.3,10.5,7.6
2016,11,17,12:00,UTC,,992.8,91,,,1,,13058,63.8,9.7,7.2
2016,11,17,13:00,UTC,,992.6,97,,,0.4,,3274,62.8,8.3,6.9
2016,11,17,14:00,UTC,,992.6,97,,,0.8,,23437,67.4,9,6.8
2016,11,17,15:00,UTC,,992.7,95,,,1.1,,30881,70.5,8.5,6.4
2016,11,17,16:00,UTC,,992.9,95,,,1.3,,50000,71,7.1,5.3
2016,11,17,17:00,UTC,,993.3,95,,,1.6,,5472,71,7.2,5.5
2016,11,17,18:00,UTC,,993.4,95,,,1.3,,19176,66.4,8.9,6.3
2016,11,17,19:00,UTC,,993.8,94,,,1.6,,50000,69.4,8.2,5.6
2016,11,17,20:00,UTC,,994.3,94,,,1.7,,50000,70.5,7.5,5.5
2016,11,17,21:00,UTC,,994.7,94,,,1.6,,48636,72,7.3,5.2
2016,11,17,22:00,UTC,,995.2,94,,,1.6,,50000,72,7.5,5.3
2016,11,17,23:00,UTC,,995.5,93,,,1.7,,50000,72.5,6.8,5.2
2016,11,18,00:00,UTC,,995.8,93,,,1.7,,42602,71.5,7.3,5.6
2016,11,18,01:00,UTC,,996,93,,,1.8,,24955,74.1,7.3,5.4
2016,11,18,02:00,UTC,,996.4,92,,,1.8,,50000,73.6,7.3,5.3
2016,11,18,03:00,UTC,,997.1,91,,,1.9,,50000,76.1,7.4,5.3
2016,11,18,04:00,UTC,,997.9,91,,,2,,50000,76.1,8.6,4.5
2016,11,18,05:00,UTC,,998.3,92,,,1.9,,49514,74.1,6.2,4.5
2016,11,18,06:00,UTC,,999.1,91,,,2,,50000,73.6,6.9,4.9
2016,11,18,07:00,UTC,,999.8,90,,,2,,36498,74.1,7.3,4.9
2016,11,18,08:00,UTC,,1000.2,90,,,2.2,,50000,75.1,6.6,5
2016,11,18,09:00,UTC,,1000.6,89,,,2.3,,47178,76.1,7.4,5.8
2016,11,18,10:00,UTC,,1000.9,89,,,2.4,,50000,72.5,7.1,5.6
2016,11,18,11:00,UTC,,1001,88,,,2.6,,50000,74.6,9,6.1
2016,11,18,12:00,UTC,,1001,89,,,2.3,,47328,66.9,8.5,6.2
2016,11,18,13:00,UTC,,1001.2,90,,,2.2,,50000,66.4,7,5.3
2016,11,18,14:00,UTC,,1000.8,90,,,2,,50000,64.3,7.4,5.8
2016,11,18,15:00,UTC,,1000.3,88,,,2.1,,49411,63.8,8.6,7.1
2016,11,18,16:00,UTC,,999.4,88,,,2.1,,50000,63.8,10.4,7.7
2016,11,18,17:00,UTC,,998.6,88,,,1.9,,50000,61.2,12.5,9
2016,11,18,18:00,UTC,,997.6,93,,,0.9,,6303,61.2,12.5,9.9
2016,11,18,19:00,UTC,,996.4,97,,,0.5,,8240,55.6,12.5,8.7
2016,11,18,20:00,UTC,,994.7,95,,,0.5,,5523,54,13.4,9.2
2016,11,18,21:00,UTC,,992.9,97,,,0.3,,7126,57.1,13.2,10.3
2016,11,18,22:00,UTC,,991.8,97,,,0.7,,18251,62.2,11.8,8.4
2016,11,18,23:00,UTC,,990.7,96,,,1.1,,12159,65.8,10.6,8.5
2016,11,19,00:00,UTC,,989.6,97,,,1.2,,15004,66.4,11.3,8.6
2016,11,19,01:00,UTC,,988.4,97,,,1,,16172,66.9,11.4,8.8
2016,11,19,02:00,UTC,,987.8,96,,,1.2,,18390,70,12.5,9.6
2016,11,19,03:00,UTC,,987.6,95,,,1.4,,17724,72,11.5,8.4
2016,11,19,04:00,UTC,,988.7,96,,,1.3,,14404,82.3,8.8,6.1
2016,11,19,05:00,UTC,,989.6,96,,,2,,50000,87.5,7.1,4.8
2016,11,19,06:00,UTC,,990.7,96,,,2.7,,50000,85.4,6.8,4.9
2016,11,19,07:00,UTC,,991.3,95,,,2.9,,50000,84.4,8,5.5
2016,11,19,08:00,UTC,,991.7,93,,,3,,50000,85.4,7.5,5.4
2016,11,19,09:00,UTC,,992.2,91,,,2.9,,50000,79.2,5.9,4.5
2016,11,19,10:00,UTC,,991.9,92,,,2.9,,50000,76.1,7.1,5.6
2016,11,19,11:00,UTC,,991.7,92,,,3,,49954,80.8,9,6.3
2016,11,19,12:00,UTC,,992.3,94,,,2.5,,12226,91.6,10.2,6.1
2016,11,19,13:00,UTC,,993.3,94,,,2.8,,48545,93.6,9.3,5.6
2016,11,19,14:00,UTC,,994.2,95,,,2.7,,36605,90.5,7.4,4.7
2016,11,19,15:00,UTC,,995.1,94,,,3,,14363,89.5,6.9,4.5
2016,11,19,16:00,UTC,,995.8,89,,,3.3,,50000,92.6,9.2,5.8
2016,11,19,17:00,UTC,,996.8,86,,,3.4,,50000,97.7,8.7,5.9
2016,11,19,18:00,UTC,,997.5,88,,,3.2,,50000,92.6,9,6
2016,11,19,19:00,UTC,,998.4,86,,,3.3,,49893,97.2,9.8,6
2016,11,19,20:00,UTC,,999.2,87,,,3.2,,50000,95.7,8.6,5.4
2016,11,19,21:00,UTC,,1000,83,,,3.4,,50000,95.7,10,6.6
2016,11,19,22:00,UTC,,1001,86,,,3.3,,50000,95.7,8.7,5.9
2016,11,19,23:00,UTC,,1001.8,86,,,3.6,,50000,96.7,9.2,5.8
2016,11,20,00:00,UTC,,1002.6,90,,,3.1,,39988,92.1,7,4.7
2016,11,20,01:00,UTC,,1003.3,90,,,3,,50000,89.5,6.6,4.5
2016,11,20,02:00,UTC,,1003.8,89,,,2.9,,50000,84.4,5.7,3.8
2016,11,20,03:00,UTC,,1004.1,93,,,2.4,,50000,78.2,5.7,4.4
2016,11,20,04:00,UTC,,1004.4,93,,,2.3,,50000,75.6,5.4,3.8
2016,11,20,05:00,UTC,,1004.2,89,,,2.5,,50000,78.7,7,5.2
2016,11,20,06:00,UTC,,1004.4,88,,,2.6,,43994,80.3,6.8,5.1
2016,11,20,07:00,UTC,,1004.3,89,,,2.5,,50000,81.8,6.1,4.2
2016,11,20,08:00,UTC,,1004,89,,,2.4,,50000,82.3,5,3.8
2016,11,20,09:00,UTC,,1003.7,91,,,2.3,,50000,80.3,3.9,2.9
2016,11,20,10:00,UTC,,1003.6,91,,,2.3,,48183,78.2,4.5,3.2
2016,11,20,11:00,UTC,,1003.8,92,,,2.1,,50000,78.2,3.8,2.8
2016,11,20,12:00,UTC,,1003.9,93,,,2,,50000,81.8,3.2,2.4
2016,11,20,13:00,UTC,,1004.3,95,,,1.5,,50000,88.5,2.4,1.7
2016,11,20,14:00,UTC,,1005,97,,,1.4,,50000,82.3,3.8,2.8
2016,11,20,15:00,UTC,,1005.8,96,,,1.6,,50000,86.4,3.4,2.3
2016,11,20,16:00,UTC,,1006.6,95,,,1.9,,48990,95.7,3.5,2.2
2016,11,20,17:00,UTC,,1007.4,94,,,2.1,,46940,91.1,3.8,2.5
2016,11,20,18:00,UTC,,1008.1,95,,,2.1,,48311,84.4,3.2,2.4
2016,11,20,19:00,UTC,,1009,92,,,2.3,,50000,97.2,4.9,3.2
2016,11,20,20:00,UTC,,1009.7,92,,,2.4,,50000,85.4,5.1,3.5
2016,11,20,21:00,UTC,,1010.4,93,,,2.4,,50000,89,5,3.4
2016,11,20,22:00,UTC,,1010.9,91,,,2.5,,50000,92.1,5,3.3
2016,11,20,23:00,UTC,,1011.7,93,,,2.5,,50000,89.5,5.1,3.7
2016,11,21,00:00,UTC,,1012,94,,,2.5,,50000,84.4,5.5,3.8
2016,11,21,01:00,UTC,,1012.4,93,,,2.5,,48340,80.8,5.5,4
2016,11,21,02:00,UTC,,1012.7,93,,,2.2,,49327,80.3,5.5,3.8
2016,11,21,03:00,UTC,,1012.8,93,,,2.1,,50000,75.1,4.6,3.5
2016,11,21,04:00,UTC,,1012.6,91,,,2.5,,50000,76.7,6,4.6
2016,11,21,05:00,UTC,,1012,92,,,2.4,,50000,71,6.1,4.7
2016,11,21,06:00,UTC,,1011.6,91,,,2.2,,50000,71,6.4,4.7
2016,11,21,07:00,UTC,,1011.6,91,,,2.3,,50000,70,5.6,4.5
2016,11,21,08:00,UTC,,1011.2,92,,,2.2,,48202,64.3,6.4,5.2
2016,11,21,09:00,UTC,,1010.6,91,,,2.3,,50000,63.8,7.2,5.3
2016,11,21,10:00,UTC,,1009.6,91,,,2.5,,50000,62.2,8.2,6.3
2016,11,21,11:00,UTC,,1008.7,90,,,2.7,,50000,59.2,8.4,6.4
2016,11,21,12:00,UTC,,1007.8,92,,,2.6,,23604,57.6,8.7,6.2
2016,11,21,13:00,UTC,,1007.1,95,,,2.2,,13002,56.1,8.5,5.9
2016,11,21,14:00,UTC,,1006.5,95,,,2.1,,18700,62.2,9.5,6.7
2016,11,21,15:00,UTC,,1005.9,96,,,2.1,,13367,62.8,7.7,5.8
2016,11,21,16:00,UTC,,1005.4,98,,,2.4,,11731,64.8,6.2,4.8
2016,11,21,17:00,UTC,,1005,98,,,3.5,,18793,76.1,7.1,4.6
2016,11,21,18:00,UTC,,1005,98,,,4.1,,22827,78.2,6.6,4.4
2016,11,21,19:00,UTC,,1005.3,96,,,5.1,,40807,81.3,6.1,4.3
2016,11,21,20:00,UTC,,1005.5,94,,,6.1,,41449,86.9,7.4,4.4
2016,11,21,21:00,UTC,,1005.6,93,,,6.2,,45136,94.1,8.4,5.3
2016,11,21,22:00,UTC,,1005.6,88,,,6.1,,50000,97.7,8.5,6.5
2016,11,21,23:00,UTC,,1006.6,80,,,5.5,,50000,114.2,12.3,7.7
2016,11,22,00:00,UTC,,1007.4,80,,,4.4,,50000,112.7,13,7.7
2016,11,22,01:00,UTC,,1008.4,82,,,4.2,,50000,117.3,11.2,6.3
2016,11,22,02:00,UTC,,1009,80,,,3.9,,50000,119.4,11.9,7.9
2016,11,22,03:00,UTC,,1009.9,82,,,3.6,,50000,120.9,8.5,5.2
2016,11,22,04:00,UTC,,1010.7,83,,,3.5,,50000,119.9,8.4,5.5
2016,11,22,05:00,UTC,,1011.3,83,,,3.4,,50000,116.8,7.6,4.8
2016,11,22,06:00,UTC,,1012.1,82,,,3.4,,50000,120.9,7.2,4.4
2016,11,22,07:00,UTC,,1013.1,85,,,3.2,,50000,119.9,6.1,3.7
2016,11,22,08:00,UTC,,1013.8,86,,,3.1,,50000,111.6,5.1,3
2016,11,22,09:00,UTC,,1014.9,88,,,3.1,,50000,107,4.4,2.8
2016,11,22,10:00,UTC,,1014.9,87,,,3,,50000,102.9,2.9,2
2016,11,22,11:00,UTC,,1014.8,91,,,2.8,,50000,85.9,4,2.8
2016,11,22,12:00,UTC,,1014.5,90,,,2.6,,50000,74.1,4.5,2.3
2016,11,22,13:00,UTC,,1014.2,90,,,2.4,,50000,74.6,5,3.3
2016,11,22,14:00,UTC,,1013.5,91,,,2.3,,50000,72,4.7,3.6
2016,11,22,15:00,UTC,,1012.8,95,,,2.1,,32777,57.6,3.9,3.2
2016,11,22,16:00,UTC,,1011.7,98,,,2.7,,17299,72.5,5.3,3.7
2016,11,22,17:00,UTC,,1010.4,99,,,3.4,,8544,71.5,5.8,4.1
2016,11,22,18:00,UTC,,1008.9,99,,,4.6,,9482,75.1,5.8,4.1
2016,11,22,19:00,UTC,,1008,99,,,5.3,,7468,87.5,8.6,5.1
2016,11,22,20:00,UTC,,1008.5,97,,,5.3,,9961,95.7,7.4,5.1
2016,11,22,21:00,UTC,,1007.8,95,,,5.3,,36525,93.6,8.5,5.1
2016,11,22,22:00,UTC,,1007.2,95,,,4.9,,31821,92.6,6.9,5
2016,11,22,23:00,UTC,,1006.9,96,,,4.8,,8282,92.6,8.5,5.2
2016,11,23,00:00,UTC,,1007.3,97,,,4.8,,7258,97.7,6.9,4.9
2016,11,23,01:00,UTC,,1007.5,98,,,4.9,,7600,97.7,5.3,3.8
2016,11,23,02:00,UTC,,1007.3,97,,,5.8,,9153,110.6,8.2,4.9
2016,11,23,03:00,UTC,,1007.4,96,,,5.7,,7768,114.2,8,5.2
2016,11,23,04:00,UTC,,1007.1,97,,,5.5,,8760,117.8,5.2,3.4
2016,11,23,05:00,UTC,,1006.8,97,,,5.5,,6358,121.4,7.2,4
2016,11,23,06:00,UTC,,1006.9,98,,,5.3,,7358,122.4,6.3,3.9
2016,11,23,07:00,UTC,,1006.8,98,,,5,,6028,123.5,4.8,3.3
2016,11,23,08:00,UTC,,1006.7,99,,,5,,3611,126,4.2,3.1
2016,11,23,09:00,UTC,,1006.6,99,,,5,,3340,124,3,2.1
2016,11,23,10:00,UTC,,1005.8,99,,,4.9,,1916,102.4,2.2,1.5
2016,11,23,11:00,UTC,,1005.4,99,,,4.9,,4077,143,1.3,0.8
2016,11,23,12:00,UTC,,1005.1,99,,,4,,2454,145.6,3.3,2.2
2016,11,23,13:00,UTC,,1004.9,100,,,3.5,,1853,183.1,1.8,1.2
2016,11,23,14:00,UTC,,1004.7,100,,,2.6,,4528,182.1,2.5,1.4
2016,11,23,15:00,UTC,,1004.7,100,,,2.5,,3977,177.5,1.9,1.2
2016,11,23,16:00,UTC,,1004.6,100,,,2.5,,9720,169.8,1.6,1.2
2016,11,23,17:00,UTC,,1004.9,100,,,2.4,,15737,169.8,2.6,1.6
2016,11,23,18:00,UTC,,1005.1,100,,,2,,7373,167.7,3.5,2.2
2016,11,23,19:00,UTC,,1005.3,100,,,1,,50000,166.7,3.9,2.1
2016,11,23,20:00,UTC,,1005.1,100,,,0.3,,38236,179,2.6,1.5
2016,11,23,21:00,UTC,,1005.2,100,,,0.3,,50000,170.8,2.3,1.4
2016,11,23,22:00,UTC,,1005.2,99,,,0.1,,50000,172.9,1.7,1.1
2016,11,23,23:00,UTC,,1005,99,,,0,,23214,183.1,2.4,1.5
2016,11,24,00:00,UTC,,1004.8,99,,,0,,12304,182.6,2.9,1.5
2016,11,24,01:00,UTC,,1004.5,99,,,-0.1,,16080,3.6,3.8,2.3
2016,11,24,02:00,UTC,,1004.2,99,,,-0.1,,46446,6.2,2.8,2
2016,11,24,03:00,UTC,,1004.1,99,,,-0.2,,27490,184.2,3.4,1.8
2016,11,24,04:00,UTC,,1003.9,98,,,-0.7,,50000,5.1,5.3,3.4
2016,11,24,05:00,UTC,,1003.8,95,,,-1,,50000,8.7,5.6,3.5
2016,11,24,06:00,UTC,,1003.7,96,,,-1.3,,50000,185.2,5.3,2.6
2016,11,24,07:00,UTC,,1003.6,95,,,-1.6,,50000,8.2,5.6,3.1
2016,11,24,08:00,UTC,,1003.8,94,,,-2,,50000,5.1,5.4,3.4
2016,11,24,09:00,UTC,,1004,94,,,-2.2,,50000,2.6,4.4,2.9
2016,11,24,10:00,UTC,,1004,94,,,-2.3,,50000,1,3.8,2.4
2016,11,24,11:00,UTC,,1004.4,93,,,-2.5,,50000,3.6,6,3.2
2016,11,24,12:00,UTC,,1004.8,92,,,-2.8,,50000,6.2,5.9,3.7
2016,11,24,13:00,UTC,,1005.4,92,,,-2.9,,50000,6.2,5.2,3.3
2016,11,24,14:00,UTC,,1006.1,92,,,-2.9,,50000,8.2,6.6,3.6
2016,11,24,15:00,UTC,,1006.5,92,,,-2.5,,50000,2.6,3.6,2.1
2016,11,24,16:00,UTC,,1007.1,92,,,-2,,50000,178.5,3.3,2
2016,11,24,17:00,UTC,,1007.6,92,,,-2,,50000,183.7,5.7,2.7
2016,11,24,18:00,UTC,,1008.3,91,,,-1.9,,50000,1,4.6,2.8
2016,11,24,19:00,UTC,,1009,91,,,-1.8,,50000,2.1,5.7,2.9
2016,11,24,20:00,UTC,,1009.9,91,,,-1.8,,50000,172.9,4.1,2.5
2016,11,24,21:00,UTC,,1010.8,91,,,-2,,50000,175.4,4.7,2.9
2016,11,24,22:00,UTC,,1011.5,91,,,-2.5,,44797,177.5,4.9,2.4
2016,11,24,23:00,UTC,,1012,92,,,-2.8,,50000,184.7,5.1,2.6
2016,11,25,00:00,UTC,,1012.5,94,,,-3.6,,48021,2.1,4.2,2.4
2016,11,25,01:00,UTC,,1013.2,94,,,-3.8,,48801,3.6,3.6,2.3
2016,11,25,02:00,UTC,,1013.6,96,,,-4.3,,33142,1,1.8,1
2016,11,25,03:00,UTC,,1013.9,96,,,-4.4,,37510,168.2,1.7,1
2016,11,25,04:00,UTC,,1013.9,97,,,-5.7,,20160,171.8,1.4,1
2016,11,25,05:00,UTC,,1014.1,97,,,-7,,36522,163.6,1.6,1.1
2016,11,25,06:00,UTC,,1013.8,95,,,-8.3,,48243,169.8,1.1,0.7
2016,11,25,07:00,UTC,,1013.8,95,,,-8.6,,36275,5.7,0.8,0.5
2016,11,25,08:00,UTC,,1014,94,,,-8,,40052,20.6,1.6,0.9
2016,11,25,09:00,UTC,,1013.8,94,,,-7.1,,34656,49.4,1,0.6
2016,11,25,10:00,UTC,,1013.6,94,,,-7.4,,25026,61.2,1.1,0.4
2016,11,25,11:00,UTC,,1012.8,94,,,-6.9,,46491,66.4,4.3,3.6
2016,11,25,12:00,UTC,,1012.6,95,,,-7,,13367,65.3,3.6,2.9
2016,11,25,13:00,UTC,,1012.1,95,,,-6.9,,18208,75.1,4,3.2
2016,11,25,14:00,UTC,,1010.8,95,,,-6.5,,15649,68.4,6.5,5.1
2016,11,25,15:00,UTC,,1009.4,95,,,-5.6,,41969,74.6,7.2,5.4
2016,11,25,16:00,UTC,,1008,95,,,-5.1,,45047,72,7.7,5.7
2016,11,25,17:00,UTC,,1006.8,95,,,-5,,50000,72,8.7,6.5
2016,11,25,18:00,UTC,,1005.7,95,,,-4.7,,50000,73.1,9.4,6.7
2016,11,25,19:00,UTC,,1004.4,95,,,-4.1,,50000,70.5,7.5,5.9
2016,11,25,20:00,UTC,,1002.3,93,,,-3.5,,12957,68.4,9.7,7.3
2016,11,25,21:00,UTC,,1000.5,94,,,-3.2,,5354,69.4,9.2,7.3
2016,11,25,22:00,UTC,,997.9,93,,,-3.2,,6355,66.4,11.7,9
2016,11,25,23:00,UTC,,995.4,93,,,-3.2,,5054,65.8,12.2,9.2
2016,11,26,00:00,UTC,,993.3,92,,,-2.9,,24069,67.4,11.7,8.6
2016,11,26,01:00,UTC,,991.4,90,,,-2.7,,8098,68.9,11.8,7.9
2016,11,26,02:00,UTC,,989.8,91,,,-2.5,,8233,70,11.2,7.9
2016,11,26,03:00,UTC,,988.3,90,,,-2.2,,6211,67.9,11.4,8.1
2016,11,26,04:00,UTC,,986.6,94,,,-2.4,,7219,63.3,9.1,6.9
2016,11,26,05:00,UTC,,985.4,94,,,-2.3,,9145,67.4,7.8,5.9
2016,11,26,06:00,UTC,,984.5,94,,,-2.3,,8848,63.3,7.1,5.4
2016,11,26,07:00,UTC,,983.8,93,,,-2.1,,35961,62.8,7.9,5.5
2016,11,26,08:00,UTC,,983.3,92,,,-2,,13668,58.6,6,4.6
2016,11,26,09:00,UTC,,983.1,94,,,-2,,2640,48.4,3.9,2.9
2016,11,26,10:00,UTC,,982.4,95,,,-2.1,,6973,47.3,4.5,3.4
2016,11,26,11:00,UTC,,982.2,93,,,-2.1,,46355,46.3,4.8,3.1
2016,11,26,12:00,UTC,,982.3,93,,,-2.1,,50000,23.1,2.5,1.5
2016,11,26,13:00,UTC,,982.4,93,,,-2.2,,50000,20.6,3.1,1.9
2016,11,26,14:00,UTC,,982.5,93,,,-2.2,,50000,18.5,3.3,2
2016,11,26,15:00,UTC,,982.9,92,,,-2.1,,50000,15.9,4.1,2.4
2016,11,26,16:00,UTC,,983.3,91,,,-2.2,,50000,22.1,3.9,2.4
2016,11,26,17:00,UTC,,984.1,90,,,-2.5,,50000,18.5,3.8,2.3
2016,11,26,18:00,UTC,,984.7,89,,,-2.8,,50000,17.5,3.7,2.2
2016,11,26,19:00,UTC,,985.3,87,,,-3.2,,50000,13.9,4.8,2.8
2016,11,26,20:00,UTC,,986.2,87,,,-3.4,,50000,15.4,5.8,3
2016,11,26,21:00,UTC,,986.9,86,,,-3.6,,50000,12.9,5.5,3.2
2016,11,26,22:00,UTC,,987.8,87,,,-3.9,,50000,8.7,5.1,3
2016,11,26,23:00,UTC,,988.5,88,,,-4.2,,42932,8.7,5.9,4
2016,11,27,00:00,UTC,,989.3,87,,,-4.2,,40404,9.8,7.1,4.1
2016,11,27,01:00,UTC,,990.4,86,,,-4.4,,14689,11.8,7.3,4.4
2016,11,27,02:00,UTC,,991.5,86,,,-4.3,,19865,7.2,8.8,5
2016,11,27,03:00,UTC,,992.8,86,,,-4.7,,13903,11.3,7.5,4.7
2016,11,27,04:00,UTC,,994.2,86,,,-4.9,,10942,13.9,7.8,4.6
2016,11,27,05:00,UTC,,995.5,89,,,-4.8,,8496,10.3,6.8,3.9
2016,11,27,06:00,UTC,,997.1,86,,,-4.5,,9895,5.7,10.3,5.6
2016,11,27,07:00,UTC,,998.8,85,,,-4.6,,14122,5.7,8.6,5.9
2016,11,27,08:00,UTC,,1000.3,84,,,-4.3,,50000,4.6,9.9,6.4
2016,11,27,09:00,UTC,,1001.7,81,,,-4,,50000,2.6,8.2,5.4
2016,11,27,10:00,UTC,,1003.1,80,,,-4,,49044,3.1,9,5.6
2016,11,27,11:00,UTC,,1004.4,79,,,-4,,50000,1.5,8.7,4.4
2016,11,27,12:00,UTC,,1005.5,82,,,-4.5,,47695,184.2,7,4.2
2016,11,27,13:00,UTC,,1006.5,85,,,-5,,50000,183.7,7.4,4.2
2016,11,27,14:00,UTC,,1007.6,86,,,-5.9,,50000,182.6,8.4,4.1
2016,11,27,15:00,UTC,,1009,86,,,-6.8,,50000,181.1,7.2,3.9
2016,11,27,16:00,UTC,,1009.8,87,,,-7.3,,50000,4.1,8.1,4.5
2016,11,27,17:00,UTC,,1010.5,90,,,-6.7,,33086,2.6,7.1,4.3
2016,11,27,18:00,UTC,,1011.3,90,,,-5.7,,50000,170.3,7.2,4.6
2016,11,27,19:00,UTC,,1012.2,83,,,-5.7,,50000,176.5,7,3.8
2016,11,27,20:00,UTC,,1012.6,83,,,-6.2,,50000,177.5,5.8,3.2
2016,11,27,21:00,UTC,,1012.7,86,,,-6.4,,50000,178.5,4.3,2
2016,11,27,22:00,UTC,,1012.7,85,,,-5.8,,50000,169.3,4,2.8
2016,11,27,23:00,UTC,,1012.3,88,,,-6.2,,50000,163.6,4,2.2
2016,11,28,00:00,UTC,,1011.8,79,,,-3.7,,50000,171.3,7.2,4.6
2016,11,28,01:00,UTC,,1012.3,80,,,-4.1,,50000,172.9,6.2,3.7
2016,11,28,02:00,UTC,,1012.3,82,,,-4.9,,50000,167.2,5.6,4
2016,11,28,03:00,UTC,,1012.3,87,,,-5.6,,50000,169.3,3.5,2.7
2016,11,28,04:00,UTC,,1012.2,87,,,-6.3,,50000,163.6,5,3.8
2016,11,28,05:00,UTC,,1011.9,91,,,-6.9,,50000,163.1,4.6,3.3
2016,11,28,06:00,UTC,,1011.3,93,,,-7,,50000,148.2,3.4,3
2016,11,28,07:00,UTC,,1010.9,94,,,-6.3,,50000,137.9,3,2.5
2016,11,28,08:00,UTC,,1010.4,80,,,-2.5,,50000,164.1,8.5,5.3
2016,11,28,09:00,UTC,,1010.6,72,,,-3,,50000,172.3,11.5,6.2
2016,11,28,10:00,UTC,,1010.7,75,,,-3.6,,50000,178.5,8.9,5.3
2016,11,28,11:00,UTC,,1011.1,80,,,-5.5,,50000,1.5,8.2,4.1
2016,11,28,12:00,UTC,,1011.8,83,,,-6.8,,50000,7.2,7.6,4.9
2016,11,28,13:00,UTC,,1012.5,88,,,-8.1,,50000,8.7,5.5,3.3
2016,11,28,14:00,UTC,,1012.9,90,,,-8.1,,50000,9.8,6.3,3.5
2016,11,28,15:00,UTC,,1013.2,91,,,-8.2,,47968,22.6,3.2,1.9
2016,11,28,16:00,UTC,,1013.9,91,,,-8.5,,50000,31.9,1.1,0.5
2016,11,28,17:00,UTC,,1014.2,92,,,-9,,48657,151.8,1.7,0.6
2016,11,28,18:00,UTC,,1014.5,93,,,-9,,50000,165.7,1.4,0.7
2016,11,28,19:00,UTC,,1014.9,90,,,-12.9,,50000,170.8,2.9,1.9
2016,11,28,20:00,UTC,,1015.7,91,,,-10.8,,50000,14.4,4.4,2.6
2016,11,28,21:00,UTC,,1015.6,91,,,-10.9,,39091,66.9,1.6,1.3
2016,11,28,22:00,UTC,,1015.7,91,,,-9.8,,15301,99.3,1.3,0.9
2016,11,28,23:00,UTC,,1015.5,93,,,-8.1,,14509,99.8,2.5,1.8
2016,11,29,00:00,UTC,,1015.3,94,,,-6.8,,50000,136.3,3.6,2.1
2016,11,29,01:00,UTC,,1015,94,,,-6.4,,50000,101.3,1.5,1.1
2016,11,29,02:00,UTC,,1014.8,93,,,-7.8,,50000,91.1,3.5,2.5
2016,11,29,03:00,UTC,,1014.6,93,,,-7.6,,13803,90.5,3.2,2.3
2016,11,29,04:00,UTC,,1014.2,93,,,-7.3,,7141,93.6,3.5,2.5
2016,11,29,05:00,UTC,,1013.7,93,,,-7.6,,2630,77.7,5,3.3
2016,11,29,06:00,UTC,,1013.6,91,,,-9.3,,9339,77.2,5.5,4.4
2016,11,29,07:00,UTC,,1012.8,90,,,-10.3,,50000,73.6,6.3,4.8
2016,11,29,08:00,UTC,,1012.2,89,,,-12,,27638,75.6,7.6,5.6
2016,11,29,09:00,UTC,,1011.1,89,,,-11.2,,49703,75.6,7.5,5.5
2016,11,29,10:00,UTC,,1009.9,91,,,-9.7,,17177,76.1,7.9,5.9
2016,11,29,11:00,UTC,,1008.7,93,,,-7.6,,50000,81.3,6.8,5.3
2016,11,29,12:00,UTC,,1007.4,94,,,-6.4,,20408,81.3,7.7,5.2
2016,11,29,13:00,UTC,,1005.8,94,,,-6,,3125,79.2,7.1,5.2
2016,11,29,14:00,UTC,,1004.2,95,,,-5.1,,6625,75.6,6.4,5.1
2016,11,29,15:00,UTC,,1002.5,96,,,-4,,7471,78.7,7,4.7
2016,11,29,16:00,UTC,,1001.1,97,,,-2.8,,10810,83.3,7.6,4.8
2016,11,29,17:00,UTC,,999.6,97,,,-2.3,,22440,83.9,7.8,4.8
2016,11,29,18:00,UTC,,998.6,97,,,-1.8,,10436,84.4,5.6,4.2
2016,11,29,19:00,UTC,,997.2,98,,,-0.7,,13431,88,6.2,4.4
2016,11,29,20:00,UTC,,996.2,98,,,0,,34566,92.1,7.1,4
2016,11,29,21:00,UTC,,995.2,98,,,0.7,,28659,96.2,5.1,3.6
2016,11,29,22:00,UTC,,994.3,97,,,1,,43363,100.8,5.8,4.1
2016,11,29,23:00,UTC,,993.3,96,,,1.2,,50000,105.5,6.2,4.3
2016,11,30,00:00,UTC,,991.9,96,,,1,,50000,97.2,7,4.6
2016,11,30,01:00,UTC,,990.8,97,,,0.8,,16992,94.7,6.3,4.4
2016,11,30,02:00,UTC,,989.9,96,,,0.9,,50000,97.7,6.4,4.3
2016,11,30,03:00,UTC,,989.1,97,,,0.9,,50000,94.7,5.4,3.7
2016,11,30,04:00,UTC,,988.4,97,,,1.1,,50000,94.1,4.9,3.3
2016,11,30,05:00,UTC,,987.6,95,,,1,,50000,93.6,5.9,3.9
2016,11,30,06:00,UTC,,986.7,94,,,0.9,,50000,82.8,6.3,4.6
2016,11,30,07:00,UTC,,986.6,93,,,0.9,,50000,81.8,6.2,4.2
2016,11,30,08:00,UTC,,986,96,,,0.5,,20220,76.1,5.5,4.4
2016,11,30,09:00,UTC,,985.6,97,,,0.6,,49352,78.7,5.7,3.8
2016,11,30,10:00,UTC,,985.3,97,,,0.7,,42474,76.1,3.8,2.4
2016,11,30,11:00,UTC,,985.2,98,,,0.6,,22271,116.8,3.7,2.3
2016,11,30,12:00,UTC,,985.1,98,,,0.8,,21909,132.7,6.5,4.6
2016,11,30,13:00,UTC,,985.3,96,,,0.7,,50000,140.4,6.1,4.7
2016,11,30,14:00,UTC,,985.3,93,,,0.5,,50000,138.4,6.2,4.6
2016,11,30,15:00,UTC,,985.5,98,,,0.2,,5688,147.6,5.6,3.6
2016,11,30,16:00,UTC,,985.6,96,,,0.1,,9551,150.2,5.4,3.8
2016,11,30,17:00,UTC,,985.8,97,,,-0.6,,7757,155.4,5.7,4.1
2016,11,30,18:00,UTC,,986.2,97,,,-1.3,,50000,160.5,6.1,4.2
2016,11,30,19:00,UTC,,986.4,98,,,-1.9,,2535,150.2,5.6,4.4
2016,11,30,20:00,UTC,,986.8,99,,,-1.7,,1552,142.5,5.9,4.6
2016,11,30,21:00,UTC,,987.2,99,,,-1.6,,26833,147.1,4.6,3.1
2016,11,30,22:00,UTC,,987.4,98,,,-2,,8625,157.4,2.2,1.7
2016,11,30,23:00,UTC,,987.4,98,,,-1.6,,4593,125,0.7,0.6
2016,12,1,00:00,UTC,,987.1,99,,,-0.7,,4248,155.9,4.7,3.1
2016,12,1,01:00,UTC,,987.1,99,,,-0.3,,5720,157.4,6.8,4.8
2016,12,1,02:00,UTC,,986.9,99,,,-0.3,,7903,156.4,8.4,6
2016,12,1,03:00,UTC,,987,99,,,-0.5,,10559,153.3,7.6,5.3
2016,12,1,04:00,UTC,,987.1,98,,,-0.5,,14069,149.7,6.1,4.6
2016,12,1,05:00,UTC,,987,97,,,-0.4,,15088,154.8,5.3,3.9
2016,12,1,06:00,UTC,,986.8,97,,,-0.9,,14854,156.9,4.8,3.4
2016,12,1,07:00,UTC,,987,97,,,-1.9,,50000,135.3,2.7,2.1
2016,12,1,08:00,UTC,,987,96,,,-3.5,,50000,116.8,2.3,1.6
2016,12,1,09:00,UTC,,987,97,,,-3.1,,43399,115.2,1.6,1.1
2016,12,1,10:00,UTC,,987.1,97,,,-2.4,,50000,108,4.6,3.3
2016,12,1,11:00,UTC,,987,97,,,-2.6,,50000,113.7,1.9,0.9
2016,12,1,12:00,UTC,,987.1,97,,,-2.6,,50000,105.5,2.1,1
2016,12,1,13:00,UTC,,987.1,97,,,-3.1,,50000,109.1,2.4,1.7
2016,12,1,14:00,UTC,,987.3,96,,,-3,,50000,108,2.5,1.6
2016,12,1,15:00,UTC,,987.7,96,,,-3.2,,50000,113.2,3,2.1
2016,12,1,16:00,UTC,,987.9,96,,,-3.5,,22869,127.6,2.5,2.1
2016,12,1,17:00,UTC,,988.4,96,,,-3.3,,50000,148.2,2.7,2.1
2016,12,1,18:00,UTC,,988.8,96,,,-3,,50000,151.2,3.4,2.7
2016,12,1,19:00,UTC,,989.6,94,,,-3.2,,50000,170.8,4.4,2.6
2016,12,1,20:00,UTC,,990.3,95,,,-3.5,,41522,171.3,4.1,2.9
2016,12,1,21:00,UTC,,991.1,94,,,-3.7,,50000,169.3,3.8,2.5
2016,12,1,22:00,UTC,,992.1,94,,,-3.6,,50000,179,4.9,2.2
2016,12,1,23:00,UTC,,993.1,94,,,-3.5,,50000,180.6,5.8,2.9
2016,12,2,00:00,UTC,,993.9,94,,,-3.2,,50000,180.1,4.8,2.6
2016,12,2,01:00,UTC,,994.5,94,,,-2.8,,50000,183.1,4.4,2.2
2016,12,2,02:00,UTC,,995.6,93,,,-3.8,,50000,171.3,5.3,3.4
2016,12,2,03:00,UTC,,996.8,91,,,-5.2,,50000,173.9,6.5,4
2016,12,2,04:00,UTC,,997.4,92,,,-5.5,,50000,180.1,4.3,2.5
2016,12,2,05:00,UTC,,997.8,91,,,-4.8,,50000,183.1,4.4,2.5
2016,12,2,06:00,UTC,,998.7,90,,,-4.3,,22005,177.5,3.9,2.2
2016,12,2,07:00,UTC,,999.1,94,,,-3.7,,24328,171.8,4,2.5
2016,12,2,08:00,UTC,,999.7,93,,,-2.1,,50000,174.9,5.1,3.1
2016,12,2,09:00,UTC,,1000.5,93,,,-2.1,,26656,177.5,5.2,3
2016,12,2,10:00,UTC,,1001.3,92,,,-2.3,,23782,183.7,6.3,3.3
2016,12,2,11:00,UTC,,1001.9,92,,,-2.6,,15341,180.1,5.2,2.9
2016,12,2,12:00,UTC,,1002.5,92,,,-2.2,,14607,174.9,6.8,3.9
2016,12,2,13:00,UTC,,1003.3,91,,,-2.6,,6692,179,9,4.7
2016,12,2,14:00,UTC,,1004.1,88,,,-2.9,,50000,175.9,8,4.5
2016,12,2,15:00,UTC,,1004.7,87,,,-4,,50000,174.4,7,4.3
2016,12,2,16:00,UTC,,1005.4,86,,,-5.1,,50000,173.4,8.1,4.8
2016,12,2,17:00,UTC,,1005.9,86,,,-5.8,,50000,173.9,7.5,4.7
2016,12,2,18:00,UTC,,1006.2,87,,,-6.7,,50000,172.9,6.9,4.3
2016,12,2,19:00,UTC,,1006.5,87,,,-7.4,,50000,175.9,6.9,3.8
2016,12,2,20:00,UTC,,1007,88,,,-7.9,,50000,177.5,4.9,2.8
2016,12,2,21:00,UTC,,1007.2,87,,,-7.1,,50000,181.1,5.3,3.3
2016,12,2,22:00,UTC,,1007.6,89,,,-7,,6757,176.5,5.8,3.2
2016,12,2,23:00,UTC,,1008,91,,,-6.7,,5742,183.1,5.4,2.9
2016,12,3,00:00,UTC,,1008.5,89,,,-6.3,,50000,183.7,5,3.1
2016,12,3,01:00,UTC,,1009.2,89,,,-6.3,,50000,1.5,5.1,2.8
2016,12,3,02:00,UTC,,1009.6,89,,,-6.4,,50000,173.9,4.1,2.8
2016,12,3,03:00,UTC,,1010,90,,,-7.3,,50000,176.5,3.9,1.9
2016,12,3,04:00,UTC,,1010.5,91,,,-8.1,,50000,174.4,3.6,2.4
2016,12,3,05:00,UTC,,1010.9,91,,,-8.9,,50000,174.9,3.3,2.2
2016,12,3,06:00,UTC,,1011.4,89,,,-9.6,,50000,173.9,4.5,2.9
2016,12,3,07:00,UTC,,1012,87,,,-10.4,,50000,171.8,4.6,3
2016,12,3,08:00,UTC,,1012.8,87,,,-10.6,,50000,174.4,4.8,2.8
2016,12,3,09:00,UTC,,1013.2,86,,,-10.8,,50000,178,5.1,2.8
2016,12,3,10:00,UTC,,1013.9,86,,,-11.1,,50000,174.9,5.2,2.5
2016,12,3,11:00,UTC,,1014,86,,,-11.6,,49286,179.5,4,2
2016,12,3,12:00,UTC,,1014.2,87,,,-12.4,,50000,174.9,2.8,1.3
2016,12,3,13:00,UTC,,1014.6,86,,,-12.3,,50000,171.8,4.1,2.6
2016,12,3,14:00,UTC,,1015,87,,,-13.4,,41556,169.3,2.4,1.5
2016,12,3,15:00,UTC,,1015.8,87,,,-14.2,,28307,168.2,2.8,1.8
2016,12,3,16:00,UTC,,1016.2,88,,,-15.1,,45621,166.2,2.4,1.8
2016,12,3,17:00,UTC,,1016.4,86,,,-16,,29017,3.1,1.6,0.8
2016,12,3,18:00,UTC,,1016.5,85,,,-17.6,,50000,149.7,1.4,1
2016,12,3,19:00,UTC,,1016.8,86,,,-17.1,,50000,169.8,2.3,1.7
2016,12,3,20:00,UTC,,1017.1,87,,,-15.7,,50000,161,2.8,1.8
2016,12,3,21:00,UTC,,1017.3,83,,,-17.1,,50000,170.8,1.9,1.3
2016,12,3,22:00,UTC,,1017.1,82,,,-18.9,,50000,183.1,1.7,1.2
2016,12,3,23:00,UTC,,1017.2,85,,,-17.7,,48311,135.8,0.8,0.7
2016,12,4,00:00,UTC,,1017.3,83,,,-19,,50000,130.7,0.9,0.7
2016,12,4,01:00,UTC,,1017.2,83,,,-19.9,,25095,102.9,0.9,0.6
2016,12,4,02:00,UTC,,1016.8,83,,,-19.5,,50000,65.8,2.9,2.5
2016,12,4,03:00,UTC,,1016.5,85,,,-17.7,,24144,96.7,2.1,1
2016,12,4,04:00,UTC,,1015.6,86,,,-16.1,,46960,63.3,3.9,3.5
2016,12,4,05:00,UTC,,1015.1,86,,,-15,,1762,72.5,3,2.6
2016,12,4,06:00,UTC,,1014.3,85,,,-15.7,,16836,64.3,4.2,3.7
2016,12,4,07:00,UTC,,1013.6,86,,,-15.1,,33578,71.5,5.6,3.7
2016,12,4,08:00,UTC,,1012.3,87,,,-13.9,,34958,72,5.1,4.3
2016,12,4,09:00,UTC,,1011.3,88,,,-12.5,,24238,74.6,6.2,5
2016,12,4,10:00,UTC,,1009.7,90,,,-10.8,,50000,73.1,6.3,4.6
2016,12,4,11:00,UTC,,1007.9,91,,,-8.8,,5495,79.7,7.5,4.9
2016,12,4,12:00,UTC,,1005,92,,,-7.5,,3029,78.7,10.6,7.8
2016,12,4,13:00,UTC,,1001.8,91,,,-7.3,,3142,76.1,10.8,8.2
2016,12,4,14:00,UTC,,999.4,90,,,-6.8,,4372,80.3,10.9,8.1
2016,12,4,15:00,UTC,,997.4,92,,,-6,,4458,79.2,10,6.9
2016,12,4,16:00,UTC,,995.4,91,,,-5.1,,8108,81.3,9.8,6.7
2016,12,4,17:00,UTC,,993.9,92,,,-4.7,,6329,83.9,7.3,5.5
2016,12,4,18:00,UTC,,992.4,94,,,-4.3,,8583,80.3,5.5,4.3
2016,12,4,19:00,UTC,,990.9,95,,,-4,,8830,75.6,4.4,3.2
2016,12,4,20:00,UTC,,989.5,96,,,-3.5,,8416,78.2,4.6,3.4
2016,12,4,21:00,UTC,,988.3,96,,,-3,,6774,68.4,2.9,2.4
2016,12,4,22:00,UTC,,987.5,97,,,-2.6,,10730,70.5,1.9,1.5
2016,12,4,23:00,UTC,,986.5,98,,,-1.9,,8296,162.6,2.8,2.1
2016,12,5,00:00,UTC,,985.7,98,,,-2.3,,49513,166.7,3.8,2.1
2016,12,5,01:00,UTC,,985.5,95,,,-4.2,,4424,8.7,4.5,2.6
2016,12,5,02:00,UTC,,986.5,91,,,-6,,50000,2.1,5.6,3.6
2016,12,5,03:00,UTC,,987.8,89,,,-6.9,,50000,2.1,7.7,4.2
2016,12,5,04:00,UTC,,989.6,88,,,-7.4,,50000,183.1,6.4,3.4
2016,12,5,05:00,UTC,,990.8,87,,,-7.4,,50000,182.6,6.3,3.3
2016,12,5,06:00,UTC,,992.1,85,,,-7.4,,50000,1,6.1,3.5
2016,12,5,07:00,UTC,,993.4,84,,,-8.3,,50000,184.2,5.9,3.4
2016,12,5,08:00,UTC,,995.1,86,,,-9.2,,50000,182.1,4.5,2.5
2016,12,5,09:00,UTC,,996.6,84,,,-9.5,,50000,2.6,5.2,3.1
2016,12,5,10:00,UTC,,997.8,85,,,-10.7,,50000,178.5,4.5,2.2
2016,12,5,11:00,UTC,,999.1,85,,,-10.6,,50000,175.9,3.9,2.1
2016,12,5,12:00,UTC,,1000.4,86,,,-11,,50000,175.4,3.2,1.9
2016,12,5,13:00,UTC,,1001.8,86,,,-11.5,,50000,183.7,3.7,2
2016,12,5,14:00,UTC,,1003,85,,,-11.6,,50000,182.6,3.4,1.9
2016,12,5,15:00,UTC,,1004.3,86,,,-12.1,,50000,172.9,3.1,2.1
2016,12,5,16:00,UTC,,1006,85,,,-12.7,,50000,171.3,3.8,2.5
2016,12,5,17:00,UTC,,1007.2,85,,,-13.1,,50000,180.6,3,1.6
2016,12,5,18:00,UTC,,1008.4,85,,,-13.7,,50000,173.9,3.2,1.9
2016,12,5,19:00,UTC,,1009.6,84,,,-14.7,,50000,179,3,1.6
2016,12,5,20:00,UTC,,1010.9,85,,,-15.3,,50000,1.5,3.2,1.9
2016,12,5,21:00,UTC,,1012.3,87,,,-15.3,,50000,176.5,3.1,1.7
2016,12,5,22:00,UTC,,1013.3,84,,,-16.7,,50000,0.5,3,1.6
2016,12,5,23:00,UTC,,1014.5,84,,,-16.3,,50000,169.3,3,1.8
2016,12,6,00:00,UTC,,1015.2,83,,,-16.5,,50000,175.4,3.1,2.1
2016,12,6,01:00,UTC,,1016.1,84,,,-17,,50000,171.3,3.2,2.1
2016,12,6,02:00,UTC,,1017.3,85,,,-18.1,,50000,179,3,1.9
2016,12,6,03:00,UTC,,1018,84,,,-17.3,,50000,179.5,2.4,1.3
2016,12,6,04:00,UTC,,1018.8,83,,,-18.6,,50000,161.5,2.2,1.8
2016,12,6,05:00,UTC,,1019,84,,,-20.7,,50000,177,1.8,1.1
2016,12,6,06:00,UTC,,1019.7,85,,,-21.4,,8061,84.9,0.9,0.5
2016,12,6,07:00,UTC,,1020.1,83,,,-22.1,,50000,109.1,1.2,0.8
2016,12,6,08:00,UTC,,1020.7,82,,,-22.8,,50000,121.9,1.5,1.1
2016,12,6,09:00,UTC,,1021,83,,,-22.1,,50000,66.9,1.6,1.1
2016,12,6,10:00,UTC,,1021,81,,,-21.6,,48847,69.4,2.7,2.2
2016,12,6,11:00,UTC,,1021.1,82,,,-20.8,,2288,73.6,2.4,2.1
2016,12,6,12:00,UTC,,1021,82,,,-20.3,,2532,71.5,3.1,2.3
2016,12,6,13:00,UTC,,1020.7,85,,,-18.9,,1003,70.5,2.9,2.2
2016,12,6,14:00,UTC,,1019.9,83,,,-18.2,,5295,70,3.2,2.3
2016,12,6,15:00,UTC,,1019.4,84,,,-18.2,,50000,68.4,4,3.2
2016,12,6,16:00,UTC,,1018.5,85,,,-15.9,,40805,77.2,5,4.1
2016,12,6,17:00,UTC,,1017.3,87,,,-14.3,,22841,77.2,6.6,5
2016,12,6,18:00,UTC,,1015.5,90,,,-10.9,,50000,82.8,6.5,4.4
2016,12,6,19:00,UTC,,1013.8,92,,,-8.2,,50000,91.6,6.7,4.6
2016,12,6,20:00,UTC,,1012,93,,,-6.5,,50000,92.6,6.4,4.3
2016,12,6,21:00,UTC,,1010,95,,,-3.4,,50000,101.9,9.1,5.9
2016,12,6,22:00,UTC,,1007.8,96,,,-2.6,,5110,104.9,9.3,6.3
2016,12,6,23:00,UTC,,1005.5,97,,,-1.1,,4652,112.1,9.7,6.2
2016,12,7,00:00,UTC,,1004,97,,,0.7,,17956,123.5,12.9,8.3
2016,12,7,01:00,UTC,,1003.2,91,,,1.4,,50000,125,12,8.6
2016,12,7,02:00,UTC,,1002.3,87,,,2.1,,50000,128.6,13,8.6
2016,12,7,03:00,UTC,,1001.9,84,,,2.8,,50000,134.3,14.6,9.7
2016,12,7,04:00,UTC,,1001.4,83,,,2.8,,50000,134.3,13.3,9.5
2016,12,7,05:00,UTC,,1001,83,,,2.8,,50000,137.4,13.6,9.4
2016,12,7,06:00,UTC,,1000.9,85,,,2.5,,50000,138.4,12.4,8.8
2016,12,7,07:00,UTC,,1000.5,88,,,2.1,,50000,137.4,10.6,8.1
2016,12,7,08:00,UTC,,1000.2,88,,,2.2,,50000,141,9.7,7.2
2016,12,7,09:00,UTC,,1000,85,,,2.6,,50000,141,7.6,5.9
2016,12,7,10:00,UTC,,999.7,82,,,2.9,,50000,147.6,7.6,5.2
2016,12,7,11:00,UTC,,999.6,83,,,2.6,,50000,121.9,2.8,1.9
2016,12,7,12:00,UTC,,999.9,88,,,1.7,,50000,126.6,3.8,2.4
2016,12,7,13:00,UTC,,999.5,91,,,1.2,,50000,122.4,3.6,2.8
2016,12,7,14:00,UTC,,999.5,93,,,0.2,,50000,124.5,2.9,2
2016,12,7,15:00,UTC,,999.6,95,,,0.8,,49222,125.5,3.8,3
2016,12,7,16:00,UTC,,999.4,96,,,0.3,,50000,130.2,2.8,2
2016,12,7,17:00,UTC,,999,97,,,-0.9,,4855,121.9,5.4,1.1
2016,12,7,18:00,UTC,,998.6,98,,,-1.6,,13079,52.5,2.1,1.6
2016,12,7,19:00,UTC,,998,99,,,-1.6,,1003,96.2,1.6,1
2016,12,7,20:00,UTC,,997.6,99,,,-1.9,,887,78.2,2.4,1.8
2016,12,7,21:00,UTC,,997.3,98,,,-3.1,,857,58.1,2.1,1.8
2016,12,7,22:00,UTC,,996.9,98,,,-2.7,,657,61.2,3.5,3.1
2016,12,7,23:00,UTC,,996.3,98,,,-1.7,,6738,85.4,3.2,2.3
2016,12,8,00:00,UTC,,996,99,,,-0.8,,15593,90.5,4.4,2.3
2016,12,8,01:00,UTC,,995.5,99,,,-0.2,,34143,98.3,4.3,3.3
2016,12,8,02:00,UTC,,994.8,99,,,-0.2,,10316,101.3,5.1,3.9
2016,12,8,03:00,UTC,,994.4,99,,,-0.1,,6848,96.7,3,2.2
2016,12,8,04:00,UTC,,993.4,100,,,0.2,,11418,109.6,4,2.9
2016,12,8,05:00,UTC,,992.9,100,,,0.5,,18456,109.1,3.2,2.3
2016,12,8,06:00,UTC,,992.4,100,,,0.6,,12517,114.7,4.6,3.2
2016,12,8,07:00,UTC,,992,100,,,0.8,,9936,123.5,4,2.7
2016,12,8,08:00,UTC,,992,100,,,0.6,,23035,133.2,4.1,3.2
2016,12,8,09:00,UTC,,992.1,100,,,0.7,,11371,121.4,4.7,2.9
2016,12,8,10:00,UTC,,991.9,100,,,0.4,,8343,129.1,3.5,2.6
2016,12,8,11:00,UTC,,992,100,,,0.3,,7206,130.7,4.8,3.2
2016,12,8,12:00,UTC,,991.7,100,,,0.4,,8106,107.5,4.3,3
2016,12,8,13:00,UTC,,991.4,100,,,0.3,,3608,102.9,3.8,2.6
2016,12,8,14:00,UTC,,991.6,100,,,0.5,,39454,126,4.1,2.7
2016,12,8,15:00,UTC,,991.9,99,,,0.7,,29862,134.3,5.2,3.5
2016,12,8,16:00,UTC,,991.6,99,,,0.4,,50000,133.8,5.5,3.6
2016,12,8,17:00,UTC,,991.3,99,,,0.4,,12216,130.7,5.8,4.2
2016,12,8,18:00,UTC,,990.9,99,,,0.3,,12250,131.7,4,2.6
2016,12,8,19:00,UTC,,990.7,100,,,0.8,,32072,138.4,4.6,2.9
2016,12,8,20:00,UTC,,990.8,99,,,1.1,,49864,136.8,4.6,3.3
2016,12,8,21:00,UTC,,990.4,97,,,1.4,,50000,134.3,7.2,4.8
2016,12,8,22:00,UTC,,990.3,92,,,0.7,,50000,135.8,7.7,5.5
2016,12,8,23:00,UTC,,990.4,94,,,-0.1,,50000,138.4,5.4,4.2
2016,12,9,00:00,UTC,,990.4,95,,,-1.1,,50000,151.2,3.4,2.2
2016,12,9,01:00,UTC,,990.3,91,,,-1.6,,50000,143.5,5.7,4
2016,12,9,02:00,UTC,,990.3,90,,,-1.9,,50000,158.4,3.9,2.8
2016,12,9,03:00,UTC,,990.6,89,,,-1.3,,50000,158.4,3.7,2.8
2016,12,9,04:00,UTC,,990.8,89,,,-1.8,,50000,160,3.8,3.1
2016,12,9,05:00,UTC,,991,76,,,-1.8,,50000,170.8,5.1,3.3
2016,12,9,06:00,UTC,,991.3,79,,,-2.1,,49889,164.1,7.7,4.8
2016,12,9,07:00,UTC,,991.8,67,,,-2.6,,50000,171.3,8.9,5.5
2016,12,9,08:00,UTC,,992.4,67,,,-3.3,,50000,171.3,8.4,4.9
2016,12,9,09:00,UTC,,992.8,66,,,-3.1,,50000,164.6,8.1,5.6
2016,12,9,10:00,UTC,,993.5,70,,,-3.8,,50000,168.2,9.2,5.5
2016,12,9,11:00,UTC,,994.4,75,,,-4.7,,50000,166.2,8.5,5.4
2016,12,9,12:00,UTC,,995,72,,,-4.2,,50000,163.6,10.5,5.8
2016,12,9,13:00,UTC,,995.3,73,,,-4.9,,50000,165.1,8.3,5.4
2016,12,9,14:00,UTC,,995.8,69,,,-4.5,,50000,164.1,11.3,7.5
2016,12,9,15:00,UTC,,996,60,,,-4.1,,50000,162.6,12.6,8.8
2016,12,9,16:00,UTC,,996.3,61,,,-4.3,,50000,164.6,14.5,9.9
2016,12,9,17:00,UTC,,996.3,62,,,-4.4,,50000,163.1,13.3,9.4
2016,12,9,18:00,UTC,,996.9,64,,,-4.5,,50000,164.1,15.2,9.5
2016,12,9,19:00,UTC,,997.7,68,,,-4.7,,50000,167.2,12.9,8.2
2016,12,9,20:00,UTC,,998.7,70,,,-4.7,,50000,166.7,12.9,8.6
2016,12,9,21:00,UTC,,999.6,72,,,-5.1,,50000,169.3,12.9,7.2
2016,12,9,22:00,UTC,,1000.4,73,,,-5.1,,50000,169.3,10.3,6.8
2016,12,9,23:00,UTC,,1000.7,74,,,-5.2,,50000,167.7,10,5.8
2016,12,10,00:00,UTC,,1000.8,74,,,-5,,50000,165.7,9.9,6.6
2016,12,10,01:00,UTC,,1001.4,73,,,-5,,50000,163.1,10.5,7.3
2016,12,10,02:00,UTC,,1001.5,73,,,-5,,50000,163.1,9.3,5.5
2016,12,10,03:00,UTC,,1001.6,70,,,-4.7,,50000,163.1,9.1,6.4
2016,12,10,04:00,UTC,,1001.3,72,,,-5,,50000,165.7,9.3,5.7
2016,12,10,05:00,UTC,,1001.6,75,,,-5.3,,50000,165.7,9.4,5.6
2016,12,10,06:00,UTC,,1001.7,77,,,-5.7,,50000,166.2,8.3,5.4
2016,12,10,07:00,UTC,,1002.1,80,,,-5.9,,50000,165.7,8.4,5.3
2016,12,10,08:00,UTC,,1002.3,80,,,-5.9,,50000,162,7.9,5.4
2016,12,10,09:00,UTC,,1002.5,78,,,-5.9,,50000,165.1,7.6,5.1
2016,12,10,10:00,UTC,,1002.5,74,,,-4.7,,50000,168.2,9.1,5.8
2016,12,10,11:00,UTC,,1002.6,74,,,-4.7,,50000,169.3,8,5.1
2016,12,10,12:00,UTC,,1003,77,,,-5.2,,50000,166.2,7.8,4.8
2016,12,10,13:00,UTC,,1003.6,79,,,-5.9,,50000,163.1,7.9,5.9
2016,12,10,14:00,UTC,,1003.5,77,,,-6,,50000,166.2,7.5,5.3
2016,12,10,15:00,UTC,,1003.4,78,,,-6.1,,50000,165.1,7.5,5.4
2016,12,10,16:00,UTC,,1003.5,79,,,-6.2,,50000,166.7,6.3,4.4
2016,12,10,17:00,UTC,,1003.9,81,,,-6.4,,50000,165.1,5.4,4
2016,12,10,18:00,UTC,,1003.9,83,,,-6.9,,50000,162.6,6.1,4.4
2016,12,10,19:00,UTC,,1004.2,82,,,-7.1,,50000,169.8,4.6,3.3
2016,12,10,20:00,UTC,,1004.3,82,,,-6.6,,50000,169.8,5.2,3.8
2016,12,10,21:00,UTC,,1004.9,86,,,-7.6,,50000,167.2,3.8,2.2
2016,12,10,22:00,UTC,,1005.4,93,,,-9.6,,50000,158.4,2.5,2
2016,12,10,23:00,UTC,,1005.8,92,,,-9.7,,50000,162.6,3.4,2.7
2016,12,11,00:00,UTC,,1005.8,91,,,-9.8,,50000,162,3.5,2.5
2016,12,11,01:00,UTC,,1005.8,92,,,-10.3,,49868,162,2.3,1.8
2016,12,11,02:00,UTC,,1005.7,89,,,-12.8,,49858,145.6,1.7,1.3
2016,12,11,03:00,UTC,,1005.8,89,,,-13.6,,50000,138.9,1.8,1.6
2016,12,11,04:00,UTC,,1005.6,90,,,-12.5,,49464,170.8,2.6,1.7
2016,12,11,05:00,UTC,,1005.4,89,,,-12.7,,50000,134.3,1.2,0.9
2016,12,11,06:00,UTC,,1005.6,87,,,-14.3,,50000,140.4,2.9,2.4
2016,12,11,07:00,UTC,,1006.2,85,,,-14.1,,50000,162,3.4,2.2
2016,12,11,08:00,UTC,,1006.3,89,,,-11.8,,50000,163.1,3.4,2.4
2016,12,11,09:00,UTC,,1006.7,88,,,-12.7,,50000,165.7,3.3,2.3
2016,12,11,10:00,UTC,,1007.3,89,,,-12.6,,50000,161.5,3.6,2.7
2016,12,11,11:00,UTC,,1007.4,90,,,-10.1,,50000,165.7,4.5,2.9
2016,12,11,12:00,UTC,,1007.8,90,,,-10.6,,50000,168.2,3.6,2.3
2016,12,11,13:00,UTC,,1008.1,89,,,-10.7,,50000,168.2,4.8,3.1
2016,12,11,14:00,UTC,,1008.3,89,,,-10.8,,50000,166.2,5,3.3
2016,12,11,15:00,UTC,,1008.9,89,,,-11.4,,50000,170.8,3.6,2
2016,12,11,16:00,UTC,,1009.2,87,,,-12.9,,50000,161.5,3.9,3.2
2016,12,11,17:00,UTC,,1009.3,90,,,-10.7,,50000,166.7,4.5,3
2016,12,11,18:00,UTC,,1009.2,88,,,-12.9,,50000,22.1,0.9,0.4
2016,12,11,19:00,UTC,,1009.5,86,,,-15.5,,50000,93.6,1.1,0.6
2016,12,11,20:00,UTC,,1009.6,86,,,-16.3,,50000,136.3,0.7,0.4
2016,12,11,21:00,UTC,,1009.7,87,,,-15.3,,50000,123.5,2,1.5
2016,12,11,22:00,UTC,,1009,86,,,-16.5,,38277,114.7,1.6,1.2
2016,12,11,23:00,UTC,,1008.6,86,,,-15.8,,50000,95.2,1.5,1.1
2016,12,12,00:00,UTC,,1008,86,,,-16.4,,50000,90,1.8,1.3
2016,12,12,01:00,UTC,,1007.3,86,,,-14.8,,50000,111.6,2.1,1.5
2016,12,12,02:00,UTC,,1006.7,87,,,-13.5,,50000,96.7,1.4,1
2016,12,12,03:00,UTC,,1006.3,88,,,-12.4,,48579,73.6,2.3,1.8
2016,12,12,04:00,UTC,,1005.9,89,,,-11.9,,50000,129.1,1.2,0.8
2016,12,12,05:00,UTC,,1006.3,92,,,-7.2,,50000,168.7,4.3,2.9
2016,12,12,06:00,UTC,,1007.1,90,,,-9,,50000,184.2,4.2,2
2016,12,12,07:00,UTC,,1007.6,90,,,-10.3,,50000,165.1,3.5,2.5
2016,12,12,08:00,UTC,,1008,89,,,-11.2,,50000,2.1,2.3,1.3
2016,12,12,09:00,UTC,,1008.5,88,,,-11.8,,50000,172.9,1.6,1.1
2016,12,12,10:00,UTC,,1009,88,,,-12.2,,50000,3.1,1.8,1.2
2016,12,12,11:00,UTC,,1009.5,88,,,-12.7,,50000,177,1.4,0.9
2016,12,12,12:00,UTC,,1009.7,87,,,-12.9,,50000,8.7,1,0.5
2016,12,12,13:00,UTC,,1009.9,86,,,-14.1,,50000,15.4,3.3,2
2016,12,12,14:00,UTC,,1010.4,85,,,-15.5,,16311,59.2,3.1,2.2
2016,12,12,15:00,UTC,,1010.7,85,,,-16.3,,9248,182.1,1.2,0.6
2016,12,12,16:00,UTC,,1010.7,85,,,-16.3,,19398,91.1,1.8,1.3
2016,12,12,17:00,UTC,,1010.5,87,,,-16.9,,1384,64.3,2.5,2.1
2016,12,12,18:00,UTC,,1010.6,85,,,-16.7,,7493,68.9,2.6,2.3
2016,12,12,19:00,UTC,,1011.2,84,,,-17.9,,15569,59.7,2.3,1.9
2016,12,12,20:00,UTC,,1011.3,84,,,-17.7,,50000,66.4,3.6,3
2016,12,12,21:00,UTC,,1011.3,84,,,-18.1,,24094,73.6,3,1.8
2016,12,12,22:00,UTC,,1011.1,83,,,-18.6,,47675,71,2.8,2.4
2016,12,12,23:00,UTC,,1010.7,83,,,-18.9,,50000,66.9,3.3,2.9
2016,12,13,00:00,UTC,,1010.3,83,,,-18.3,,50000,69.4,2.8,2.4
2016,12,13,01:00,UTC,,1009.6,84,,,-17.3,,50000,71,2.5,2.2
2016,12,13,02:00,UTC,,1008.8,86,,,-14.6,,50000,74.6,3.3,2.7
2016,12,13,03:00,UTC,,1007.9,89,,,-12.2,,50000,90,2.7,1.7
2016,12,13,04:00,UTC,,1007.3,87,,,-13.3,,50000,73.1,2.7,2.4
2016,12,13,05:00,UTC,,1006.5,86,,,-13.7,,50000,81.3,2.4,1.9
2016,12,13,06:00,UTC,,1005.8,86,,,-12.4,,50000,99.3,4,2.2
2016,12,13,07:00,UTC,,1005.6,92,,,-10.5,,50000,90.5,2.5,2
2016,12,13,08:00,UTC,,1005.2,90,,,-10.6,,49106,99.8,2.5,1.6
2016,12,13,09:00,UTC,,1004.9,94,,,-6.9,,48664,95.2,3,2.3
2016,12,13,10:00,UTC,,1004.3,96,,,-3.8,,10498,108,4.2,2.6
2016,12,13,11:00,UTC,,1003.6,97,,,-3.3,,21849,104.9,3.6,2.5
2016,12,13,12:00,UTC,,1003,97,,,-3.6,,50000,109.1,4.1,2.8
2016,12,13,13:00,UTC,,1002.6,96,,,-4.2,,46651,98.3,3.3,2.4
2016,12,13,14:00,UTC,,1002.5,95,,,-5,,50000,89,3.1,2.1
2016,12,13,15:00,UTC,,1002.5,96,,,-3.7,,34847,111.1,4.6,2.8
2016,12,13,16:00,UTC,,1002.6,97,,,-3.7,,46390,97.7,4,2.6
2016,12,13,17:00,UTC,,1002.8,95,,,-5.2,,40719,75.1,2.7,2.2
2016,12,13,18:00,UTC,,1003.3,94,,,-6.4,,25274,62.8,2.9,1.9
2016,12,13,19:00,UTC,,1003.8,95,,,-5.3,,26754,63.8,2.8,2.4
2016,12,13,20:00,UTC,,1004.4,95,,,-5,,17604,75.6,3.4,1.9
2016,12,13,21:00,UTC,,1005.1,95,,,-5.1,,23770,80.8,1.6,1
2016,12,13,22:00,UTC,,1006.3,95,,,-5,,22389,48.9,0.7,0.4
2016,12,13,23:00,UTC,,1007.1,95,,,-5,,6365,101.9,1.3,1
2016,12,14,00:00,UTC,,1008.1,95,,,-4.9,,15276,37,1,0.5
2016,12,14,01:00,UTC,,1008.9,96,,,-4.1,,50000,4.1,1.4,0.7
2016,12,14,02:00,UTC,,1009.8,95,,,-5,,40929,9.8,0.7,0.5
2016,12,14,03:00,UTC,,1010.8,95,,,-5.8,,36985,3.1,1,0.7
2016,12,14,04:00,UTC,,1011.6,95,,,-5.6,,50000,167.2,0.7,0.3
2016,12,14,05:00,UTC,,1012.5,94,,,-6.9,,50000,146.6,1.2,1.1
2016,12,14,06:00,UTC,,1013.2,93,,,-7.5,,50000,8.7,1.5,1.2
2016,12,14,07:00,UTC,,1013.8,93,,,-7.6,,50000,62.2,0.9,0.5
2016,12,14,08:00,UTC,,1014.5,90,,,-10.6,,27293,78.7,1.1,0.7
2016,12,14,09:00,UTC,,1015,91,,,-10.4,,630,115.7,1.4,0.8
2016,12,14,10:00,UTC,,1015.5,94,,,-6.6,,657,95.7,4.2,2.5
2016,12,14,11:00,UTC,,1016.2,94,,,-6.3,,46307,97.7,3.1,2.1
2016,12,14,12:00,UTC,,1016.1,94,,,-6.1,,28303,89.5,2.6,1.8
2016,12,14,13:00,UTC,,1016.3,94,,,-5.9,,50000,92.1,2.9,2.1
2016,12,14,14:00,UTC,,1016.8,94,,,-5.8,,30410,106.5,2.4,1.7
2016,12,14,15:00,UTC,,1016.3,95,,,-5.7,,50000,94.7,3.7,2.5
2016,12,14,16:00,UTC,,1016.1,95,,,-5.4,,50000,86.9,4.5,3.1
2016,12,14,17:00,UTC,,1016.4,95,,,-4.8,,50000,82.3,3.3,2.2
2016,12,14,18:00,UTC,,1015.7,96,,,-4.3,,36746,89,5.3,3.5
2016,12,14,19:00,UTC,,1015.9,96,,,-3.8,,20782,95.2,4.4,2.8
2016,12,14,20:00,UTC,,1016.2,97,,,-3.1,,18991,96.7,3.7,1.9
2016,12,14,21:00,UTC,,1016,96,,,-3.9,,25405,88,2.4,1.7
2016,12,14,22:00,UTC,,1016.2,97,,,-3.3,,33850,98.3,2.3,1.7
2016,12,14,23:00,UTC,,1016.2,97,,,-3.3,,32913,118.8,2.6,1.7
2016,12,15,00:00,UTC,,1016.1,98,,,-1.6,,41971,115.7,3.7,2.7
2016,12,15,01:00,UTC,,1015.9,98,,,-1.9,,50000,103.9,4.2,2.8
2016,12,15,02:00,UTC,,1016,98,,,-1.8,,30409,110.6,3.2,2.2
2016,12,15,03:00,UTC,,1015.7,98,,,-1.6,,24814,108.5,3.6,2.3
2016,12,15,04:00,UTC,,1015.9,99,,,-1,,40399,115.2,3.3,2.4
2016,12,15,05:00,UTC,,1015.9,99,,,-0.5,,30980,117.8,2.5,1.7
2016,12,15,06:00,UTC,,1015.6,99,,,-0.4,,33256,106.5,3.3,2
2016,12,15,07:00,UTC,,1015.7,99,,,-0.8,,24889,84.9,2.4,1.8
2016,12,15,08:00,UTC,,1015.9,99,,,-0.7,,17857,97.7,3.4,2.6
2016,12,15,09:00,UTC,,1015.7,99,,,-0.5,,1748,98.3,3,2.2
2016,12,15,10:00,UTC,,1015.8,99,,,-0.7,,1311,99.3,3.7,2.4
2016,12,15,11:00,UTC,,1015.7,99,,,-1,,1098,99.3,3.4,2.4
2016,12,15,12:00,UTC,,1015.8,99,,,-1.3,,1208,96.2,4.4,2
2016,12,15,13:00,UTC,,1015.8,99,,,-1.7,,1567,78.2,2.9,2.1
2016,12,15,14:00,UTC,,1016,99,,,-1.9,,3689,93.6,5.3,3.2
2016,12,15,15:00,UTC,,1016,99,,,-2.1,,3974,90.5,4.3,2.9
2016,12,15,16:00,UTC,,1016.3,98,,,-2.2,,4517,99.8,3.9,2.6
2016,12,15,17:00,UTC,,1015.9,98,,,-2.2,,2337,79.7,4.7,3.3
2016,12,15,18:00,UTC,,1015.6,98,,,-2.2,,2403,77.2,3.7,2.8
2016,12,15,19:00,UTC,,1016.2,98,,,-2.1,,3147,76.7,3.9,2.6
2016,12,15,20:00,UTC,,1016.5,98,,,-2.1,,4270,77.7,4,2.1
2016,12,15,21:00,UTC,,1016.5,99,,,-1.7,,6233,85.4,3.7,2.6
2016,12,15,22:00,UTC,,1016.8,98,,,-2.3,,9016,89,4.4,3.1
2016,12,15,23:00,UTC,,1017,98,,,-2.6,,20444,93.1,4.1,2.8
2016,12,16,00:00,UTC,,1017.1,98,,,-2.8,,11624,92.6,3.4,2.3
2016,12,16,01:00,UTC,,1017.3,98,,,-2.9,,11709,91.6,2.6,1.8
2016,12,16,02:00,UTC,,1017.6,98,,,-2.9,,32227,101.9,1.5,1
2016,12,16,03:00,UTC,,1017.7,98,,,-2.4,,15330,119.4,1.4,1
2016,12,16,04:00,UTC,,1018,98,,,-1.9,,14312,135.3,3.1,2.3
2016,12,16,05:00,UTC,,1017.8,98,,,-2.4,,12107,133.2,2.4,1.7
2016,12,16,06:00,UTC,,1018.3,98,,,-2,,44776,142.5,6,4.8
2016,12,16,07:00,UTC,,1018.8,98,,,-3.1,,45171,148.2,3.8,2.5
2016,12,16,08:00,UTC,,1019.3,98,,,-1.9,,50000,164.1,4.1,2.9
2016,12,16,09:00,UTC,,1019.5,98,,,-2.4,,50000,175.4,1,0.6
2016,12,16,10:00,UTC,,1019.6,97,,,-4.2,,50000,131.2,1.9,1.5
2016,12,16,11:00,UTC,,1020,96,,,-4.2,,42846,139.9,2.2,1.9
2016,12,16,12:00,UTC,,1020,97,,,-3.4,,50000,124,1.5,1.1
2016,12,16,13:00,UTC,,1020.4,97,,,-3.9,,8587,141,1.8,1.3
2016,12,16,14:00,UTC,,1020.3,94,,,-6.4,,42067,97.2,1.1,1
2016,12,16,15:00,UTC,,1020.5,95,,,-5.7,,2301,90,2,1
2016,12,16,16:00,UTC,,1019.9,93,,,-7,,1887,76.7,2.5,2
2016,12,16,17:00,UTC,,1019.9,93,,,-7.6,,14447,85.4,3,1.7
2016,12,16,18:00,UTC,,1019.9,92,,,-8.6,,13880,65.8,2.9,2.5
2016,12,16,19:00,UTC,,1019.6,94,,,-6.5,,28289,79.7,3.3,2.7
2016,12,16,20:00,UTC,,1019.5,96,,,-4.7,,1719,94.1,2.6,1.8
2016,12,16,21:00,UTC,,1019.2,96,,,-4.4,,1712,81.8,3.7,1.7
2016,12,16,22:00,UTC,,1019,96,,,-4.3,,1741,81.3,2.4,1.9
2016,12,16,23:00,UTC,,1018.8,96,,,-4,,1389,87.5,2.3,1.7
2016,12,17,00:00,UTC,,1018.3,97,,,-3.5,,1374,98.8,3.2,2.4
2016,12,17,01:00,UTC,,1018.1,98,,,-3.1,,1176,86.9,2.5,2
2016,12,17,02:00,UTC,,1017.8,97,,,-3.7,,11748,91.6,2.4,1.7
2016,12,17,03:00,UTC,,1017.2,96,,,-4.3,,6299,104.4,2.2,1.5
2016,12,17,04:00,UTC,,1016.9,97,,,-3.3,,25381,109.1,3.2,1.9
2016,12,17,05:00,UTC,,1016.6,98,,,-2.5,,50000,104.4,2.6,1.6
2016,12,17,06:00,UTC,,1015.9,99,,,-0.5,,50000,113.7,3.8,2.6
2016,12,17,07:00,UTC,,1015.8,99,,,-0.9,,34754,93.6,1.8,1.2
2016,12,17,08:00,UTC,,1015.6,99,,,-0.3,,50000,109.1,4.7,2.9
2016,12,17,09:00,UTC,,1014.9,99,,,-0.4,,48098,111.6,4.3,3.3
2016,12,17,10:00,UTC,,1014.5,100,,,0.1,,8373,115.2,5.9,3.3
2016,12,17,11:00,UTC,,1014.8,100,,,0.6,,1022,126.6,5,3.4
2016,12,17,12:00,UTC,,1014.4,100,,,0.6,,1191,110.1,5.6,3.4
2016,12,17,13:00,UTC,,1014.1,100,,,1,,1722,117.3,7.2,4.5
2016,12,17,14:00,UTC,,1014.2,100,,,1,,3490,124,7.6,5
2016,12,17,15:00,UTC,,1013.6,100,,,0.9,,3689,120.4,7.1,4.6
2016,12,17,16:00,UTC,,1013.7,100,,,0.8,,4248,127.6,7.6,6
2016,12,17,17:00,UTC,,1013.8,100,,,0.8,,4121,124,7.5,5.1
2016,12,17,18:00,UTC,,1013.9,100,,,0.7,,3322,129.1,6.4,4.7
2016,12,17,19:00,UTC,,1013.6,100,,,0.9,,5625,124,4.8,3.6
2016,12,17,20:00,UTC,,1013.5,100,,,0.7,,8157,123,4.4,3.1
2016,12,17,21:00,UTC,,1013.8,100,,,0.1,,50000,138.9,5.1,4
2016,12,17,22:00,UTC,,1014.2,100,,,-0.5,,50000,135.8,4.3,3.5
2016,12,17,23:00,UTC,,1014.5,100,,,-0.9,,50000,133.2,3,2.4
2016,12,18,00:00,UTC,,1014.8,100,,,-1.8,,50000,144,3.3,2.7
2016,12,18,01:00,UTC,,1014.7,100,,,-3.1,,50000,141,3.1,2.3
2016,12,18,02:00,UTC,,1014.4,100,,,-2.5,,43050,117.3,3.5,2.6
2016,12,18,03:00,UTC,,1014.3,99,,,-3.2,,49618,119.9,2.5,1.8
2016,12,18,04:00,UTC,,1014.7,99,,,-3.1,,50000,135.3,2.6,2.1
2016,12,18,05:00,UTC,,1015.1,98,,,-2.8,,6204,145.6,2.4,1.7
2016,12,18,06:00,UTC,,1015.1,98,,,-4.1,,11580,129.6,2.4,1.8
2016,12,18,07:00,UTC,,1015.4,97,,,-4.3,,4000,134.8,1,0.5
2016,12,18,08:00,UTC,,1015.5,96,,,-5.1,,814,105.5,0.9,0.5
2016,12,18,09:00,UTC,,1015.8,96,,,-5.9,,39143,107,1.6,1.1
2016,12,18,10:00,UTC,,1015.8,97,,,-4.2,,21128,123,1.7,1.2
2016,12,18,11:00,UTC,,1015,95,,,-5.7,,46511,102.4,2.3,1.5
2016,12,18,12:00,UTC,,1015.2,97,,,-3,,50000,117.3,3.1,2.2
2016,12,18,13:00,UTC,,1014.9,97,,,-4.2,,18053,96.7,1.6,0.9
2016,12,18,14:00,UTC,,1015,97,,,-3.2,,50000,108,3,2.2
2016,12,18,15:00,UTC,,1014.3,97,,,-3.4,,34014,98.3,3,2.5
2016,12,18,16:00,UTC,,1013.8,97,,,-3.9,,44650,89.5,3.1,2.1
2016,12,18,17:00,UTC,,1013.4,97,,,-3.2,,47107,92.6,2.8,2
2016,12,18,18:00,UTC,,1013,97,,,-3.4,,50000,97.7,3,2.1
2016,12,18,19:00,UTC,,1012.4,98,,,-3,,50000,74.6,2.4,1.9
2016,12,18,20:00,UTC,,1011.9,97,,,-3.6,,50000,80.3,3.4,2.8
2016,12,18,21:00,UTC,,1011.9,96,,,-4.5,,50000,71,3.1,2.8
2016,12,18,22:00,UTC,,1011.3,97,,,-2.9,,50000,77.2,3.5,2.5
2016,12,18,23:00,UTC,,1011,98,,,-1.8,,50000,85.4,3.3,2.4
2016,12,19,00:00,UTC,,1010.9,99,,,-1.4,,50000,84.4,3,2.1
2016,12,19,01:00,UTC,,1010.3,99,,,-0.9,,14407,77.7,4.4,3.3
2016,12,19,02:00,UTC,,1010.2,99,,,-0.5,,26593,76.7,4.5,3.4
2016,12,19,03:00,UTC,,1010.1,99,,,-0.3,,17862,78.7,4.4,3.3
2016,12,19,04:00,UTC,,1010,100,,,-0.1,,11374,83.9,3.8,2.9
2016,12,19,05:00,UTC,,1009.8,100,,,0,,7742,78.2,3.7,2.8
2016,12,19,06:00,UTC,,1010.2,100,,,0,,2268,78.2,3.7,2.9
2016,12,19,07:00,UTC,,1010.5,100,,,0.1,,4270,79.2,3.2,2.5
2016,12,19,08:00,UTC,,1011.1,100,,,0.1,,3405,77.2,3.5,2.8
2016,12,19,09:00,UTC,,1011.3,100,,,0.1,,2850,77.2,3.1,2.4
2016,12,19,10:00,UTC,,1012.2,100,,,0.1,,2993,92.1,3.1,2.3
2016,12,19,11:00,UTC,,1012.3,100,,,-0.2,,1246,68.9,3.5,2.8
2016,12,19,12:00,UTC,,1012.4,100,,,-0.1,,1176,65.3,3.3,2.8
2016,12,19,13:00,UTC,,1012.8,100,,,-0.1,,1083,89.5,3.7,2.3
2016,12,19,14:00,UTC,,1012.5,100,,,-0.2,,1304,65.8,3.8,3.3
2016,12,19,15:00,UTC,,1012.8,100,,,-0.1,,2532,80.3,4.9,3.8
2016,12,19,16:00,UTC,,1012.9,100,,,0.1,,2213,86.9,4.9,3.2
2016,12,19,17:00,UTC,,1012.7,100,,,0,,3036,79.2,5.5,3.2
2016,12,19,18:00,UTC,,1012.4,100,,,0.1,,3164,79.2,5.1,3.6
2016,12,19,19:00,UTC,,1011.9,100,,,0.1,,2546,77.2,5.9,4.3
2016,12,19,20:00,UTC,,1011.8,100,,,0.3,,15847,79.7,6.3,4.8
2016,12,19,21:00,UTC,,1011.7,100,,,0.5,,31076,78.2,4.9,3.7
2016,12,19,22:00,UTC,,1011.1,100,,,0.9,,50000,82.8,5.7,4.2
2016,12,19,23:00,UTC,,1011,100,,,1.2,,50000,82.3,4.5,3.3
2016,12,20,00:00,UTC,,1010.2,100,,,1.6,,50000,86.4,6.1,3.9
2016,12,20,01:00,UTC,,1010,100,,,1.8,,15561,97.2,4.8,3.7
2016,12,20,02:00,UTC,,1009.2,100,,,2,,5192,98.3,5.2,3.9
2016,12,20,03:00,UTC,,1008.6,100,,,2,,5192,87.5,4.8,3.5
2016,12,20,04:00,UTC,,1007.7,100,,,2.4,,7369,81.8,3.4,2.7
2016,12,20,05:00,UTC,,1006.6,100,,,3.2,,5347,84.4,3.6,2.5
2016,12,20,06:00,UTC,,1007.1,100,,,4.8,,10532,125.5,7,4.3
2016,12,20,07:00,UTC,,1007,100,,,4.2,,42952,123.5,8,5.1
2016,12,20,08:00,UTC,,1008,100,,,4.1,,50000,131.7,8.7,5.2
2016,12,20,09:00,UTC,,1008.3,90,,,4.8,,50000,136.8,11.6,8.9
2016,12,20,10:00,UTC,,1009.2,86,,,3.6,,50000,141,10,7.5
2016,12,20,11:00,UTC,,1010.3,81,,,3.6,,50000,137.9,7.2,5.6
2016,12,20,12:00,UTC,,1011.4,79,,,3.8,,50000,142,8.7,6.4
2016,12,20,13:00,UTC,,1012.7,80,,,3.3,,50000,146.1,6.6,4.9
2016,12,20,14:00,UTC,,1013.1,88,,,1.7,,50000,137.4,4.9,3.4
2016,12,20,15:00,UTC,,1013.6,87,,,1.7,,50000,143,4.1,2.8
2016,12,20,16:00,UTC,,1013.8,87,,,-0.1,,50000,85.9,2.3,1.3
2016,12,20,17:00,UTC,,1014.3,94,,,0.1,,50000,86.9,3.7,2.6
2016,12,20,18:00,UTC,,1014.3,93,,,0,,50000,107,4.6,3.3
2016,12,20,19:00,UTC,,1014.4,95,,,-0.4,,50000,108.5,3.9,3
2016,12,20,20:00,UTC,,1014.1,97,,,-0.8,,50000,98.3,3.9,2.7
2016,12,20,21:00,UTC,,1013.7,98,,,-1.7,,50000,80.3,4,3.2
2016,12,20,22:00,UTC,,1012.9,97,,,-2.9,,50000,69.4,5.3,4.3
2016,12,20,23:00,UTC,,1012.3,97,,,-2.1,,50000,73.6,5.7,4.6
2016,12,21,00:00,UTC,,1011.7,95,,,-1,,50000,75.1,5.4,4.2
2016,12,21,01:00,UTC,,1011.4,95,,,0.4,,50000,90.5,5.6,3.9
2016,12,21,02:00,UTC,,1011.1,98,,,1.1,,12847,101.3,7.6,4.7
2016,12,21,03:00,UTC,,1010.3,96,,,1.3,,15825,93.1,8.3,5.2
2016,12,21,04:00,UTC,,1009.5,96,,,1.5,,13821,92.6,7.8,5.1
2016,12,21,05:00,UTC,,1009.5,97,,,1.6,,9419,95.2,7.1,4.8
2016,12,21,06:00,UTC,,1008.8,95,,,2,,50000,100.3,9.3,5.6
2016,12,21,07:00,UTC,,1008.1,90,,,2.4,,50000,100.3,8.5,6.1
2016,12,21,08:00,UTC,,1008.2,87,,,2.5,,49904,104.9,9.1,5.6
2016,12,21,09:00,UTC,,1007.8,86,,,2.5,,50000,99.8,6.5,4.5
2016,12,21,10:00,UTC,,1007.2,85,,,2.5,,50000,100.8,6.7,4.2
2016,12,21,11:00,UTC,,1006.6,86,,,2.2,,50000,95.7,6.8,4.4
2016,12,21,12:00,UTC,,1006.5,87,,,1.9,,50000,100.3,5.7,3.7
2016,12,21,13:00,UTC,,1005.9,86,,,1.6,,50000,94.7,5.8,4.1
2016,12,21,14:00,UTC,,1004.7,85,,,1.3,,50000,94.7,7.8,5.5
2016,12,21,15:00,UTC,,1003.8,88,,,0.7,,50000,89.5,8,5.1
2016,12,21,16:00,UTC,,1003,88,,,0.4,,50000,94.7,7.7,5.5
2016,12,21,17:00,UTC,,1002.2,83,,,0.6,,50000,100.8,7.4,5.3
2016,12,21,18:00,UTC,,1000.7,87,,,0.5,,50000,86.9,8.5,5.9
2016,12,21,19:00,UTC,,999.1,85,,,1.1,,50000,86.9,8.4,5.7
2016,12,21,20:00,UTC,,998.9,90,,,1.4,,50000,99.8,8.5,5.2
2016,12,21,21:00,UTC,,998.8,83,,,1.4,,16489,103.4,11.3,7.7
2016,12,21,22:00,UTC,,998,95,,,0.4,,6080,98.8,9.9,6.3
2016,12,21,23:00,UTC,,998.2,96,,,0.5,,5185,103.9,9.2,6
2016,12,22,00:00,UTC,,997.9,96,,,1.2,,50000,108.5,8.8,5.7
2016,12,22,01:00,UTC,,998.1,90,,,2.3,,48722,116.3,11.3,7.6
2016,12,22,02:00,UTC,,998.3,86,,,2.5,,44443,119.4,11.7,7.4
2016,12,22,03:00,UTC,,998.3,85,,,2.6,,47030,118.8,11.6,8
2016,12,22,04:00,UTC,,998.3,84,,,2.6,,47661,117.8,13.2,9
2016,12,22,05:00,UTC,,998.6,86,,,2.5,,50000,117.8,10.5,7.3
2016,12,22,06:00,UTC,,998.9,85,,,2.6,,50000,117.8,12,7.2
2016,12,22,07:00,UTC,,999.2,86,,,2.5,,50000,118.3,9.8,6.2
2016,12,22,08:00,UTC,,999.9,88,,,2.3,,50000,117.3,9.4,6.6
2016,12,22,09:00,UTC,,1000.2,89,,,2.2,,50000,114.2,8.8,5.7
2016,12,22,10:00,UTC,,1000.5,88,,,2.3,,50000,114.2,7.4,4.9
2016,12,22,11:00,UTC,,1000.5,89,,,2.2,,50000,112.1,5.8,3.9
2016,12,22,12:00,UTC,,1000.8,87,,,2.3,,50000,110.6,7.7,4.8
2016,12,22,13:00,UTC,,1001.3,86,,,2.5,,50000,111.6,7.6,4.9
2016,12,22,14:00,UTC,,1000.9,86,,,2.1,,50000,109.6,6,3.7
2016,12,22,15:00,UTC,,1000.8,88,,,1.5,,50000,96.2,6.2,4.4
2016,12,22,16:00,UTC,,1001,89,,,1,,47951,101.9,7.8,3.7
2016,12,22,17:00,UTC,,1000.6,90,,,0.5,,50000,95.7,5.6,3.5
2016,12,22,18:00,UTC,,1000.1,91,,,0.4,,33996,93.1,5.4,3.7
2016,12,22,19:00,UTC,,999.6,85,,,1.4,,50000,101.9,7.7,5.1
2016,12,22,20:00,UTC,,999.2,82,,,1.8,,50000,105.5,10.2,5.7
2016,12,22,21:00,UTC,,998.5,81,,,2.1,,50000,102.9,9.7,6
2016,12,22,22:00,UTC,,998.5,80,,,2.3,,50000,107,7.4,4.9
2016,12,22,23:00,UTC,,998.1,79,,,2.7,,50000,114.7,9.4,5.8
2016,12,23,00:00,UTC,,997.5,80,,,2.6,,50000,112.7,8.4,5.1
2016,12,23,01:00,UTC,,997.3,82,,,2.5,,50000,112.1,8.8,5.1
2016,12,23,02:00,UTC,,996.9,84,,,2.3,,50000,110.1,7,4.4
2016,12,23,03:00,UTC,,996.1,86,,,2.2,,50000,107.5,6.6,4.5
2016,12,23,04:00,UTC,,996.1,90,,,2,,48683,112.1,6.3,3.1
2016,12,23,05:00,UTC,,996,91,,,1.8,,50000,108.5,5.9,3.6
2016,12,23,06:00,UTC,,995.7,92,,,1.6,,50000,104.9,6.5,3.9
2016,12,23,07:00,UTC,,996.2,90,,,1.6,,47015,112.7,5.6,4
2016,12,23,08:00,UTC,,996.6,92,,,1,,47500,109.6,6,3.8
2016,12,23,09:00,UTC,,996.8,92,,,0.8,,50000,107.5,6.4,4.3
2016,12,23,10:00,UTC,,997.2,93,,,0.3,,50000,112.1,6.1,3.8
2016,12,23,11:00,UTC,,997.1,94,,,0.1,,50000,107.5,6.9,4.1
2016,12,23,12:00,UTC,,997.4,91,,,0,,47708,105.5,7.7,4.3
2016,12,23,13:00,UTC,,997.8,92,,,-0.4,,50000,113.2,6.9,4.4
2016,12,23,14:00,UTC,,998.3,90,,,-0.6,,50000,113.2,5.9,3.8
2016,12,23,15:00,UTC,,998.6,90,,,-0.7,,50000,110.1,5.7,3.9
2016,12,23,16:00,UTC,,998.8,92,,,-1.2,,50000,107,5.7,3.9
2016,12,23,17:00,UTC,,999.2,94,,,-1.6,,50000,107,5.2,3.4
2016,12,23,18:00,UTC,,999.2,94,,,-2.1,,50000,103.9,4.5,3.2
2016,12,23,19:00,UTC,,999.8,94,,,-1.9,,50000,109.1,6.2,4
2016,12,23,20:00,UTC,,999.9,94,,,-1.9,,50000,109.6,5.1,3.4
2016,12,23,21:00,UTC,,1000.2,95,,,-2.1,,50000,105.5,6,4.1
2016,12,23,22:00,UTC,,1000,96,,,-2.5,,50000,98.8,4.1,2.7
2016,12,23,23:00,UTC,,999.8,96,,,-2.5,,50000,106.5,4.8,3
2016,12,24,00:00,UTC,,999.1,96,,,-3.4,,50000,77.7,4.5,3.4
2016,12,24,01:00,UTC,,999.2,96,,,-3.2,,50000,92.1,5.3,3.9
2016,12,24,02:00,UTC,,998.7,98,,,-2.4,,50000,93.1,5.2,3.8
2016,12,24,03:00,UTC,,997.8,96,,,-2,,50000,80.8,6.9,4.9
2016,12,24,04:00,UTC,,996.7,92,,,-2.4,,50000,78.7,6.7,5.1
2016,12,24,05:00,UTC,,995.3,92,,,-3.1,,50000,71,7.5,6.2
2016,12,24,06:00,UTC,,994.1,89,,,-2.7,,50000,74.6,8.2,5.9
2016,12,24,07:00,UTC,,993.1,88,,,-2.7,,50000,72,7.9,6.2
2016,12,24,08:00,UTC,,991.7,89,,,-2.1,,50000,73.1,8.7,6.7
2016,12,24,09:00,UTC,,989.8,89,,,-1.7,,50000,71,9.1,7
2016,12,24,10:00,UTC,,987.7,94,,,-1.4,,3163,67.4,9.6,7.7
2016,12,24,11:00,UTC,,985.6,94,,,-1.1,,3970,67.4,9.5,7.4
2016,12,24,12:00,UTC,,983.6,95,,,-0.7,,4803,65.8,10.6,8.4
2016,12,24,13:00,UTC,,981.9,95,,,-0.5,,4311,66.9,10.1,7.8
2016,12,24,14:00,UTC,,980.2,96,,,-0.1,,6574,67.9,10.3,7.4
2016,12,24,15:00,UTC,,979,97,,,0.2,,6270,68.4,7.6,6.1
2016,12,24,16:00,UTC,,977.9,98,,,0.2,,10064,71,6.6,5.1
2016,12,24,17:00,UTC,,977.1,99,,,0.3,,21252,75.1,5.2,3.9
2016,12,24,18:00,UTC,,976.9,99,,,0.5,,25562,93.1,4.8,3.4
2016,12,24,19:00,UTC,,977.5,99,,,0.4,,12127,127.1,7.8,5.3
2016,12,24,20:00,UTC,,978.6,98,,,0.1,,6424,133.2,12.3,8.8
2016,12,24,21:00,UTC,,979.7,98,,,0.2,,9030,133.8,12.9,7.4
2016,12,24,22:00,UTC,,980.7,98,,,0.6,,50000,122.4,9.2,6.5
2016,12,24,23:00,UTC,,981.2,93,,,0.8,,50000,124.5,9,6.4
2016,12,25,00:00,UTC,,982,92,,,0.4,,50000,119.4,8.4,5.2
2016,12,25,01:00,UTC,,982.3,94,,,0.2,,48821,115.2,7.5,4.6
2016,12,25,02:00,UTC,,982.9,93,,,0.3,,50000,113.2,6.9,4.8
2016,12,25,03:00,UTC,,982.9,92,,,0.3,,50000,113.7,7,4.3
2016,12,25,04:00,UTC,,982.8,91,,,0.3,,50000,108,6.6,4
2016,12,25,05:00,UTC,,982.8,88,,,0.5,,50000,108,5.7,3.7
2016,12,25,06:00,UTC,,982.9,89,,,0.5,,41201,99.8,5.9,3.6
2016,12,25,07:00,UTC,,983.1,93,,,0.1,,50000,80.3,4.5,2.9
2016,12,25,08:00,UTC,,983.3,94,,,0.2,,38640,85.4,4.8,3.4
2016,12,25,09:00,UTC,,983.2,96,,,-0.3,,50000,76.7,5,3.3
2016,12,25,10:00,UTC,,982.9,95,,,-0.1,,38574,76.1,5.8,4.2
2016,12,25,11:00,UTC,,982.8,96,,,-0.2,,50000,78.7,5,3.8
2016,12,25,12:00,UTC,,982.9,97,,,-0.1,,50000,78.2,4.2,2.9
2016,12,25,13:00,UTC,,983.5,97,,,0.3,,50000,117.3,2.4,1.4
2016,12,25,14:00,UTC,,983.9,94,,,0.2,,50000,138.4,3.1,2
2016,12,25,15:00,UTC,,984.2,96,,,0,,44869,154.3,3.2,1.4
2016,12,25,16:00,UTC,,984.9,98,,,-0.9,,1707,129.1,1.5,1.2
2016,12,25,17:00,UTC,,985,99,,,-0.5,,47183,118.8,2.4,1.8
2016,12,25,18:00,UTC,,985.6,99,,,-1.9,,50000,154.8,4.4,3.1
2016,12,25,19:00,UTC,,985.4,97,,,-2,,50000,131.7,4.6,3.1
2016,12,25,20:00,UTC,,985.9,95,,,-2.8,,4505,133.8,5.6,3.7
2016,12,25,21:00,UTC,,985.9,95,,,-4.7,,50000,142,4.1,2.5
2016,12,25,22:00,UTC,,986.3,96,,,-3.9,,50000,120.9,4.4,3
2016,12,25,23:00,UTC,,986.2,93,,,-3.2,,50000,105.5,3.4,1.9
2016,12,26,00:00,UTC,,985.4,92,,,-2.8,,50000,92.6,2.3,1.6
2016,12,26,01:00,UTC,,985,94,,,-2.5,,7376,92.1,2.9,2.2
2016,12,26,02:00,UTC,,983.9,89,,,-2.4,,50000,98.3,4.6,3
2016,12,26,03:00,UTC,,982.5,93,,,-2.7,,50000,80.3,3.9,2.9
2016,12,26,04:00,UTC,,981.7,93,,,-2.9,,45793,82.3,6,3.9
2016,12,26,05:00,UTC,,980.7,92,,,-3.3,,50000,81.8,6.1,4.3
2016,12,26,06:00,UTC,,979.8,93,,,-3.2,,50000,57.1,3.4,2.9
2016,12,26,07:00,UTC,,978.7,94,,,-3.2,,25106,46.3,3.3,2.3
2016,12,26,08:00,UTC,,977.5,95,,,-3.1,,9613,42.2,3.6,2.2
2016,12,26,09:00,UTC,,977,95,,,-3,,2298,44.8,2.1,1.5
2016,12,26,10:00,UTC,,976.2,96,,,-3,,18708,34.5,1.5,0.9
2016,12,26,11:00,UTC,,975.8,96,,,-3.1,,10524,54.5,1.9,1.5
2016,12,26,12:00,UTC,,975.8,96,,,-3.1,,44164,74.1,2.2,1.6
2016,12,26,13:00,UTC,,975.2,97,,,-2.9,,50000,85.4,3.1,2.2
2016,12,26,14:00,UTC,,974.9,97,,,-2.4,,5955,78.7,2.8,2.2
2016,12,26,15:00,UTC,,974.8,98,,,-1.4,,21581,103.9,4.7,2.7
2016,12,26,16:00,UTC,,974.5,97,,,0,,8804,124.5,5.5,4.1
2016,12,26,17:00,UTC,,974.4,98,,,-0.2,,4738,137.4,8.2,6
2016,12,26,18:00,UTC,,974.6,98,,,-0.2,,4329,132.2,7.4,5.7
2016,12,26,19:00,UTC,,975,98,,,0,,5332,137.4,7.4,5.5
2016,12,26,20:00,UTC,,975.8,98,,,-0.1,,7786,136.3,5.9,4.6
2016,12,26,21:00,UTC,,976.4,98,,,-0.1,,8684,138.4,7.8,5.6
2016,12,26,22:00,UTC,,977.3,97,,,-0.8,,4988,156.9,6.4,4.3
2016,12,26,23:00,UTC,,978,95,,,-2.9,,2315,167.7,4.1,2.5
2016,12,27,00:00,UTC,,978.8,95,,,-3.1,,3948,166.2,4.4,2.7
2016,12,27,01:00,UTC,,979.4,95,,,-2.9,,3594,164.6,5.1,3.7
2016,12,27,02:00,UTC,,980.5,95,,,-3.2,,3674,165.1,5.2,3.1
2016,12,27,03:00,UTC,,981.4,94,,,-3.7,,6262,171.3,4,2.5
2016,12,27,04:00,UTC,,982.4,94,,,-4,,15327,165.1,3.4,2.4
2016,12,27,05:00,UTC,,983.4,94,,,-4.2,,50000,157.9,2.8,1.8
2016,12,27,06:00,UTC,,984.4,93,,,-4.6,,50000,147.6,3.8,3
2016,12,27,07:00,UTC,,985.2,93,,,-4.8,,50000,140.4,1.4,1.1
2016,12,27,08:00,UTC,,986.9,94,,,-5.4,,50000,152.3,2.4,2.1
2016,12,27,09:00,UTC,,988.3,95,,,-5.2,,50000,151.8,2.7,2
2016,12,27,10:00,UTC,,989.6,94,,,-5.4,,50000,164.1,4.1,2.9
2016,12,27,11:00,UTC,,991.2,87,,,-6.3,,50000,163.6,8.9,6
2016,12,27,12:00,UTC,,993,86,,,-6.7,,50000,166.7,10.3,6
2016,12,27,13:00,UTC,,994.9,86,,,-7.3,,50000,167.7,9.3,6.1
2016,12,27,14:00,UTC,,996.6,86,,,-6.4,,50000,167.2,7.5,5.1
2016,12,27,15:00,UTC,,998.5,87,,,-7.1,,50000,166.2,8.5,5.4
2016,12,27,16:00,UTC,,1000.1,86,,,-6.2,,18031,170.3,9.3,5.2
2016,12,27,17:00,UTC,,1001.5,88,,,-5.6,,10628,166.2,9.4,6
2016,12,27,18:00,UTC,,1002.8,90,,,-4.7,,9145,168.2,8.4,4.8
2016,12,27,19:00,UTC,,1004.6,92,,,-4.3,,47560,170.3,7.9,4.5
2016,12,27,20:00,UTC,,1006.3,89,,,-4.1,,50000,171.8,6.8,4.3
2016,12,27,21:00,UTC,,1008.4,89,,,-4.4,,50000,170.3,5.8,3.8
2016,12,27,22:00,UTC,,1010.3,90,,,-5.3,,50000,165.7,6.5,4.6
2016,12,27,23:00,UTC,,1011.5,91,,,-5.5,,50000,166.7,7.8,5.2
2016,12,28,00:00,UTC,,1012.6,90,,,-4.7,,50000,165.7,9,5.7
2016,12,28,01:00,UTC,,1013.3,90,,,-5.4,,49393,168.7,6,3.8
2016,12,28,02:00,UTC,,1014.6,89,,,-5.6,,50000,164.6,7.4,5.1
2016,12,28,03:00,UTC,,1016,88,,,-5.2,,50000,171.8,7.7,5
2016,12,28,04:00,UTC,,1018.1,89,,,-5.6,,50000,170.8,7.7,5.4
2016,12,28,05:00,UTC,,1019.2,89,,,-5.3,,50000,169.8,8.8,5.2
2016,12,28,06:00,UTC,,1020.2,91,,,-5.8,,50000,172.9,5.6,4.1
2016,12,28,07:00,UTC,,1021.7,91,,,-5.8,,50000,168.7,5.7,4
2016,12,28,08:00,UTC,,1023.3,92,,,-6.3,,50000,160.5,6.5,4.4
2016,12,28,09:00,UTC,,1023.8,92,,,-6.4,,50000,172.3,4.7,2.9
2016,12,28,10:00,UTC,,1024.5,93,,,-7.8,,50000,167.2,2.1,1.3
2016,12,28,11:00,UTC,,1024.8,92,,,-8.6,,50000,3.1,0.8,0.4
2016,12,28,12:00,UTC,,1025.2,90,,,-10.8,,44027,151.8,1.6,1.2
2016,12,28,13:00,UTC,,1025.2,89,,,-12.2,,50000,110.1,1.5,1
2016,12,28,14:00,UTC,,1024.8,88,,,-12.9,,8962,95.7,2,1
2016,12,28,15:00,UTC,,1024.9,88,,,-13.1,,46681,83.9,2.8,2.1
2016,12,28,16:00,UTC,,1024.2,90,,,-10.9,,50000,79.2,3.8,2.9
2016,12,28,17:00,UTC,,1023,91,,,-9.3,,50000,77.2,4.6,4
2016,12,28,18:00,UTC,,1021,94,,,-5.9,,50000,79.2,6.1,4.5
2016,12,28,19:00,UTC,,1019.2,96,,,-3.5,,50000,94.1,6.9,4.9
2016,12,28,20:00,UTC,,1018.1,93,,,-2.7,,26291,95.2,6.9,4.5
2016,12,28,21:00,UTC,,1015.9,91,,,-1.3,,23259,97.2,8.9,5.8
2016,12,28,22:00,UTC,,1014,86,,,-0.6,,50000,101.3,8.1,4.9
2016,12,28,23:00,UTC,,1012.9,77,,,-0.1,,23690,110.6,11.3,6.6
2016,12,29,00:00,UTC,,1011,88,,,0.2,,50000,108.5,9.5,6.2
2016,12,29,01:00,UTC,,1010.5,87,,,1.4,,38239,120.4,10.9,6.2
2016,12,29,02:00,UTC,,1009.8,89,,,1.7,,50000,118.3,12,7.8
2016,12,29,03:00,UTC,,1009.4,89,,,2.2,,50000,120.9,13.1,8.2
2016,12,29,04:00,UTC,,1008.9,89,,,2.2,,50000,127.6,10.7,7.9
2016,12,29,05:00,UTC,,1008.5,87,,,2.5,,49782,127.6,11,7.5
2016,12,29,06:00,UTC,,1008.5,86,,,2.9,,50000,133.2,11,7.8
2016,12,29,07:00,UTC,,1009.1,92,,,1.5,,50000,136.8,9.3,6.5
2016,12,29,08:00,UTC,,1009.4,91,,,1.6,,50000,133.2,7.3,5.3
2016,12,29,09:00,UTC,,1009.5,94,,,1.1,,50000,123.5,4.8,3.6
2016,12,29,10:00,UTC,,1010,94,,,0.8,,50000,130.7,6.6,4.9
2016,12,29,11:00,UTC,,1009.8,95,,,0.5,,50000,123.5,4.9,3.7
2016,12,29,12:00,UTC,,1009.5,95,,,0.2,,50000,113.2,3.6,2.5
2016,12,29,13:00,UTC,,1009.4,96,,,-0.4,,49389,96.2,3.3,2.4
2016,12,29,14:00,UTC,,1009.5,97,,,-0.5,,50000,98.3,2.9,2.1
2016,12,29,15:00,UTC,,1009.2,98,,,-0.7,,50000,102.9,4.2,2.2
2016,12,29,16:00,UTC,,1009.3,97,,,-0.5,,50000,110.1,3.6,2.6
2016,12,29,17:00,UTC,,1008.9,94,,,0.5,,50000,120.9,5.8,4
2016,12,29,18:00,UTC,,1009.4,91,,,0.4,,50000,127.1,5.7,4.1
2016,12,29,19:00,UTC,,1010.1,93,,,-0.3,,50000,125.5,4.4,3
2016,12,29,20:00,UTC,,1010.2,96,,,-2.4,,50000,114.2,2.5,0.9
2016,12,29,21:00,UTC,,1009.9,98,,,-3.5,,36046,82.8,4,2.3
2016,12,29,22:00,UTC,,1009.8,95,,,-1.4,,50000,106.5,5.7,4.1
2016,12,29,23:00,UTC,,1010,93,,,-2,,50000,102.4,4.4,3.3
2016,12,30,00:00,UTC,,1010.4,94,,,-1.6,,50000,122.4,3.9,2.8
2016,12,30,01:00,UTC,,1010.4,95,,,-1.3,,50000,119.4,4.3,2.9
2016,12,30,02:00,UTC,,1010.3,96,,,-1.5,,50000,118.8,4.9,3.3
2016,12,30,03:00,UTC,,1009.3,98,,,-1.7,,19374,104.9,3.1,2.4
2016,12,30,04:00,UTC,,1008.9,99,,,-1.1,,9387,109.6,4.8,3.2
2016,12,30,05:00,UTC,,1007.3,99,,,-0.7,,2796,96.7,5.1,3.8
2016,12,30,06:00,UTC,,1005.7,99,,,-1.1,,4059,83.3,4.1,3
2016,12,30,07:00,UTC,,1004.7,99,,,-1,,25182,80.8,5.7,4.5
2016,12,30,08:00,UTC,,1003,99,,,-0.2,,50000,85.4,7.4,5.4
2016,12,30,09:00,UTC,,1001.1,99,,,0.7,,29780,88,7.6,5.1
2016,12,30,10:00,UTC,,999.1,98,,,1,,12592,86.9,8.7,5.5
2016,12,30,11:00,UTC,,996.9,95,,,2,,50000,97.2,7.5,5.1
2016,12,30,12:00,UTC,,995.3,92,,,2.5,,50000,100.8,7.3,5.2
2016,12,30,13:00,UTC,,994.5,89,,,3.2,,50000,108,9.1,5.3
2016,12,30,14:00,UTC,,993.4,85,,,3.4,,50000,109.6,9.3,5.9
2016,12,30,15:00,UTC,,992.9,81,,,3.9,,50000,117.3,13.3,7.6
2016,12,30,16:00,UTC,,993,82,,,3.8,,50000,121.9,11.3,7.3
2016,12,30,17:00,UTC,,992.9,82,,,4,,50000,131.7,9.7,6.7
2016,12,30,18:00,UTC,,992.1,83,,,3.6,,46884,123.5,8.9,5.7
2016,12,30,19:00,UTC,,992.4,78,,,3.3,,50000,138.4,12.5,7.9
2016,12,30,20:00,UTC,,991.9,75,,,3.7,,50000,134.8,12.7,8.7
2016,12,30,21:00,UTC,,991.7,64,,,4.5,,50000,131.2,14.3,10.1
2016,12,30,22:00,UTC,,991.4,68,,,4.1,,50000,129.1,12.3,8.5
2016,12,30,23:00,UTC,,990.4,71,,,3.7,,50000,127.6,12.6,9
2016,12,31,00:00,UTC,,989.7,72,,,3.6,,50000,124,13.2,8.5
2016,12,31,01:00,UTC,,989.2,71,,,3.4,,50000,122.4,14.9,9.1
2016,12,31,02:00,UTC,,988.5,72,,,3.3,,50000,123,15,9.3
2016,12,31,03:00,UTC,,987.7,73,,,3.3,,50000,127.6,13.6,9.2
2016,12,31,04:00,UTC,,987.1,72,,,3.4,,50000,128.1,13.6,9.8
2016,12,31,05:00,UTC,,986.1,73,,,3.1,,50000,125.5,12.8,9
2016,12,31,06:00,UTC,,985.9,71,,,3.1,,50000,127.1,13.7,9.9
2016,12,31,07:00,UTC,,985.6,70,,,3.2,,50000,125,12.6,8.2
2016,12,31,08:00,UTC,,985.4,70,,,3.3,,50000,121.4,11.7,8.4
2016,12,31,09:00,UTC,,984.7,68,,,3.4,,50000,124,14.5,8.9
2016,12,31,10:00,UTC,,984.6,71,,,3.3,,50000,122.4,13.4,8.3
2016,12,31,11:00,UTC,,983.9,68,,,3.5,,50000,118.3,13.8,9.3
2016,12,31,12:00,UTC,,983.2,69,,,3.3,,50000,122.4,12.7,8.6
2016,12,31,13:00,UTC,,982.7,67,,,3.4,,50000,124,14.4,9.2
2016,12,31,14:00,UTC,,982,70,,,3.1,,50000,120.4,12.6,8
2016,12,31,15:00,UTC,,981.9,68,,,3.2,,50000,123,13.8,8.7
2016,12,31,16:00,UTC,,981.6,67,,,3.2,,49565,131.7,11.8,8.2
2016,12,31,17:00,UTC,,981.9,72,,,2.9,,46993,133.8,14.7,9.6
2016,12,31,18:00,UTC,,982.6,83,,,2,,50000,139.4,8.2,5.6
2016,12,31,19:00,UTC,,983.8,93,,,1,,50000,170.8,4.7,2.7
2016,12,31,20:00,UTC,,985.2,93,,,0.6,,47989,175.4,4.1,2.7
2016,12,31,21:00,UTC,,986.9,92,,,0.4,,50000,167.7,7,4.4
2016,12,31,22:00,UTC,,987.9,92,,,-0.9,,50000,166.2,8.1,5.4
2016,12,31,23:00,UTC,,989.1,93,,,-1.9,,50000,170.8,7.6,4.6
2017,1,1,00:00,UTC,,989.9,89,,,-3.7,,50000,168.2,7.9,4.6