Year,m,d,Time,Time zone,Cloud amount (1/8),Pressure (msl) (hPa),Relative humidity (%),Precipitation intensity (mm/h),Snow depth (cm),Air temperature (degC),Dew-point temperature (degC),Horizontal visibility (m),Wind direction (deg),Gust speed (m/s),Wind speed (m/s)
2018,1,1,01:00,UTC,,999.3,89,,,-3.3,,50000,70.5,8.1,6
2018,1,1,02:00,UTC,,998.9,93,,,-4.4,,50000,69.4,5.6,4.4
2018,1,1,03:00,UTC,,998.5,92,,,-3.7,,50000,66.9,5.3,4.4
2018,1,1,04:00,UTC,,998.1,92,,,-3.1,,50000,62.8,5,4.2
2018,1,1,05:00,UTC,,997.4,92,,,-2.4,,50000,61.2,7.8,6.1
2018,1,1,06:00,UTC,,997,90,,,-1.9,,49644,65.3,7.8,6
2018,1,1,07:00,UTC,,996.9,89,,,-1.8,,50000,66.9,7.7,6
2018,1,1,08:00,UTC,,996.7,87,,,-1.5,,50000,66.9,7.9,6.1
2018,1,1,09:00,UTC,,996.6,86,,,-1.6,,50000,66.9,7.8,6
2018,1,1,10:00,UTC,,996.2,87,,,-1.6,,50000,62.2,8.7,7
2018,1,1,11:00,UTC,,996.1,87,,,-1.7,,41587,61.2,7.3,5.5
2018,1,1,12:00,UTC,,995.7,89,,,-1.7,,50000,58.6,6.7,5.6
2018,1,1,13:00,UTC,,995.1,87,,,-1.7,,50000,57.1,7.5,5.8
2018,1,1,14:00,UTC,,994.6,85,,,-1.9,,50000,55,6.3,5
2018,1,1,15:00,UTC,,994.2,86,,,-2,,50000,57.1,7,5.8
2018,1,1,16:00,UTC,,993.8,87,,,-2.1,,50000,59.2,6.9,5.6
2018,1,1,17:00,UTC,,993.5,89,,,-2.2,,50000,57.1,6.1,4.6
2018,1,1,18:00,UTC,,993.2,91,,,-2,,50000,61.2,5.4,4.4
2018,1,1,19:00,UTC,,993,91,,,-1.6,,47830,58.1,6.4,4.7
2018,1,1,20:00,UTC,,992.8,91,,,-1.5,,50000,55.6,5,4
2018,1,1,21:00,UTC,,992.6,91,,,-1.4,,48102,50.4,4.5,3.4
2018,1,1,22:00,UTC,,992.3,91,,,-1.3,,50000,46.8,4.5,3.2
2018,1,1,23:00,UTC,,991.7,93,,,-1.2,,50000,46.8,5.2,3.6
2018,1,2,00:00,UTC,,991.3,92,,,-1.1,,50000,46.8,4.7,2.9
2018,1,2,01:00,UTC,,990.9,93,,,-1,,43747,37.6,4,2.5
2018,1,2,02:00,UTC,,990.6,94,,,-1,,50000,32.4,3.8,2.6
2018,1,2,03:00,UTC,,990.1,93,,,-1,,31611,38.6,3.5,2.2
2018,1,2,04:00,UTC,,989.8,93,,,-1.1,,44120,29.8,2.9,2
2018,1,2,05:00,UTC,,989.5,93,,,-1.1,,49369,29.3,3.5,2.2
2018,1,2,06:00,UTC,,989.5,96,,,-1.5,,10393,22.6,3.3,2.4
2018,1,2,07:00,UTC,,989.4,97,,,-2.3,,10569,15.9,2.8,2
2018,1,2,08:00,UTC,,989.8,98,,,-2.9,,50000,10.3,2.2,1.5
2018,1,2,09:00,UTC,,989.8,97,,,-2.3,,50000,20.6,2.7,1.8
2018,1,2,10:00,UTC,,990.3,96,,,-2.2,,50000,6.2,1.3,0.9
2018,1,2,11:00,UTC,,990.4,95,,,-2.1,,50000,2.1,1.8,1.4
2018,1,2,12:00,UTC,,991,95,,,-2,,50000,165.1,1.3,0.8
2018,1,2,13:00,UTC,,991.6,96,,,-2.3,,50000,161,2,1.6
2018,1,2,14:00,UTC,,992.1,95,,,-2.5,,50000,146.6,2,1.5
2018,1,2,15:00,UTC,,992.7,96,,,-2.1,,50000,139.4,2.8,1.7
2018,1,2,16:00,UTC,,993.4,97,,,-2.3,,50000,117.8,1.9,1.7
2018,1,2,17:00,UTC,,994.2,97,,,-2.1,,50000,123,2.3,1.7
2018,1,2,18:00,UTC,,994.7,97,,,-2.1,,50000,110.1,2.4,1.8
2018,1,2,19:00,UTC,,995.1,98,,,-2.1,,40723,103.4,1.9,1.6
2018,1,2,20:00,UTC,,995.5,96,,,-2,,50000,71.5,1.6,1
2018,1,2,21:00,UTC,,995.8,97,,,-1.9,,34533,78.7,3.6,2.7
2018,1,2,22:00,UTC,,995.7,97,,,-2.1,,16592,62.2,4.4,3.8
2018,1,2,23:00,UTC,,995.6,98,,,-2.1,,24102,70.5,5.6,3.5
2018,1,3,00:00,UTC,,995.4,97,,,-2,,14041,66.9,5.5,4.4
2018,1,3,01:00,UTC,,995.1,96,,,-1.7,,34646,65.8,7.6,5.5
2018,1,3,02:00,UTC,,994.7,94,,,-1.5,,35352,69.4,8.1,5.8
2018,1,3,03:00,UTC,,994,95,,,-1.4,,50000,70,6.8,5.6
2018,1,3,04:00,UTC,,993.7,96,,,-1.1,,47598,72.5,7,5
2018,1,3,05:00,UTC,,993.4,95,,,-0.6,,50000,78.2,6.7,4.4
2018,1,3,06:00,UTC,,993.1,96,,,-0.1,,10247,75.6,6.1,4.6
2018,1,3,07:00,UTC,,993.3,98,,,0.1,,12972,82.8,5.7,4.3
2018,1,3,08:00,UTC,,993.8,98,,,0.4,,50000,90,5.5,3.9
2018,1,3,09:00,UTC,,994.7,96,,,0.3,,11077,116.8,6.4,4.1
2018,1,3,10:00,UTC,,995.2,88,,,0.4,,50000,107,7.7,5.3
2018,1,3,11:00,UTC,,995.8,91,,,0.2,,50000,107,3.9,2.9
2018,1,3,12:00,UTC,,996.4,86,,,0.1,,50000,104.9,7.3,4.6
2018,1,3,13:00,UTC,,996.9,86,,,0.1,,50000,100.8,5.8,4.1
2018,1,3,14:00,UTC,,997.4,86,,,-0.2,,50000,109.6,4,2.8
2018,1,3,15:00,UTC,,997.7,89,,,-0.5,,30226,92.6,5.5,3.8
2018,1,3,16:00,UTC,,998.4,87,,,-0.7,,50000,102.9,7,4.8
2018,1,3,17:00,UTC,,998.6,88,,,-1,,50000,109.1,5.9,3.9
2018,1,3,18:00,UTC,,999.2,87,,,-0.9,,50000,114.2,4.2,3
2018,1,3,19:00,UTC,,999.6,87,,,-0.9,,50000,123,6.1,3.6
2018,1,3,20:00,UTC,,1000.1,87,,,-0.9,,50000,116.3,3.8,2.6
2018,1,3,21:00,UTC,,1000.1,85,,,-0.6,,50000,97.7,5,3.1
2018,1,3,22:00,UTC,,1000.3,85,,,-0.5,,50000,109.6,3.2,2.1
2018,1,3,23:00,UTC,,1000.5,86,,,-0.5,,50000,107,2.8,1.3
2018,1,4,00:00,UTC,,1000.8,87,,,-1,,50000,112.1,1.7,1.1
2018,1,4,01:00,UTC,,1001.1,91,,,-1.8,,50000,161.5,1.1,0.4
2018,1,4,02:00,UTC,,1001.3,96,,,-3.2,,50000,67.4,2.7,2.3
2018,1,4,03:00,UTC,,1001.4,99,,,-3.2,,3791,68.9,2.2,1.8
2018,1,4,04:00,UTC,,1001.7,99,,,-2.4,,44936,64.8,1.9,1.5
2018,1,4,05:00,UTC,,1001.9,98,,,-2.9,,15528,31.4,1.2,0.5
2018,1,4,06:00,UTC,,1002.4,97,,,-5.4,,755,14.4,0.9,0.6
2018,1,4,07:00,UTC,,1003,94,,,-8.6,,4387,145.1,1.1,0.5
2018,1,4,08:00,UTC,,1003.7,95,,,-8,,25269,175.4,2.6,1.5
2018,1,4,09:00,UTC,,1004,95,,,-7.4,,31237,177,3.3,2.3
2018,1,4,10:00,UTC,,1004,94,,,-8.5,,50000,182.6,2.5,1.8
2018,1,4,11:00,UTC,,1003.9,93,,,-8.6,,50000,1.5,2.4,1.7
2018,1,4,12:00,UTC,,1004,94,,,-8.5,,50000,183.1,2.5,1.4
2018,1,4,13:00,UTC,,1004.2,94,,,-7.4,,5154,182.6,2.1,1.5
2018,1,4,14:00,UTC,,1003.9,96,,,-5.1,,3535,11.8,3.7,2.3
2018,1,4,15:00,UTC,,1004.1,96,,,-4.6,,50000,30.4,2.6,1.9
2018,1,4,16:00,UTC,,1004.2,97,,,-4.3,,50000,32.4,4.6,2.6
2018,1,4,17:00,UTC,,1004,97,,,-4.2,,50000,20.6,5,3.1
2018,1,4,18:00,UTC,,1003.7,97,,,-4.8,,50000,17.5,3.9,2.5
2018,1,4,19:00,UTC,,1003.7,97,,,-4.5,,27132,23.7,4.8,3.3
2018,1,4,20:00,UTC,,1003.2,96,,,-5.4,,50000,24.2,6.4,4
2018,1,4,21:00,UTC,,1002.8,96,,,-5.8,,35126,25.2,6.9,4.3
2018,1,4,22:00,UTC,,1002.2,96,,,-5.5,,50000,25.2,6.1,4.2
2018,1,4,23:00,UTC,,1001.8,96,,,-5.3,,14286,25.2,5.5,3.8
2018,1,5,00:00,UTC,,1001.3,95,,,-5,,14689,26.8,6.5,4.3
2018,1,5,01:00,UTC,,1000.8,95,,,-4.7,,10647,26.8,7.3,4.1
2018,1,5,02:00,UTC,,1000.1,94,,,-4.3,,9915,30.4,6.5,4.1
2018,1,5,03:00,UTC,,999.5,94,,,-3.9,,3769,32.4,6.4,4.4
2018,1,5,04:00,UTC,,998.7,94,,,-3.8,,10237,32.4,7.8,5.1
2018,1,5,05:00,UTC,,998,94,,,-3.5,,11673,30.4,7.3,4.8
2018,1,5,06:00,UTC,,997.6,94,,,-3.3,,4907,32.9,6.9,4.7
2018,1,5,07:00,UTC,,997.1,94,,,-3.1,,4652,33.4,6.6,4.4
2018,1,5,08:00,UTC,,996.7,94,,,-2.8,,5255,34.5,6.4,3.8
2018,1,5,09:00,UTC,,996.2,95,,,-2.6,,2737,35,5.5,3.7
2018,1,5,10:00,UTC,,995.5,95,,,-2.2,,4371,35.5,6.7,4.4
2018,1,5,11:00,UTC,,994.7,95,,,-2,,5741,37,5.9,3.8
2018,1,5,12:00,UTC,,994.3,95,,,-1.6,,3671,38.1,6.4,3.6
2018,1,5,13:00,UTC,,993.8,96,,,-1.5,,4000,34,5.3,3.5
2018,1,5,14:00,UTC,,993.3,96,,,-1,,10745,38.1,5.2,3.7
2018,1,5,15:00,UTC,,992.8,96,,,-0.2,,14655,47.3,5.4,3.8
2018,1,5,16:00,UTC,,992.5,97,,,0.1,,7031,51.4,4.7,3.3
2018,1,5,17:00,UTC,,992.3,98,,,0.3,,22146,59.2,5,3.9
2018,1,5,18:00,UTC,,992.2,98,,,0.4,,50000,65.3,4.7,3.7
2018,1,5,19:00,UTC,,992,98,,,0.6,,41067,68.9,4.5,3.7
2018,1,5,20:00,UTC,,992.1,98,,,0.5,,18706,66.9,5.1,3.8
2018,1,5,21:00,UTC,,992.1,98,,,0.5,,31540,69.4,5.3,4.3
2018,1,5,22:00,UTC,,992.1,97,,,0.7,,50000,72.5,4.7,3.8
2018,1,5,23:00,UTC,,991.9,97,,,0.7,,23968,67.9,5,3.8
2018,1,6,00:00,UTC,,991.5,98,,,0.4,,23541,61.7,4.5,3.6
2018,1,6,01:00,UTC,,991.3,98,,,0.5,,43102,65.3,4.4,3.5
2018,1,6,02:00,UTC,,991,98,,,0.3,,11079,63.8,4.2,3.5
2018,1,6,03:00,UTC,,990.4,99,,,0.3,,33044,64.8,4.3,3.6
2018,1,6,04:00,UTC,,990.2,99,,,0.7,,48576,67.9,3.6,2.9
2018,1,6,05:00,UTC,,989.9,97,,,1,,50000,68.4,5.5,4.2
2018,1,6,06:00,UTC,,989.7,98,,,0.8,,22049,66.4,5.4,4.4
2018,1,6,07:00,UTC,,989.7,98,,,0.6,,30416,65.8,5.2,4.3
2018,1,6,08:00,UTC,,989.6,98,,,0.3,,6362,64.3,4.9,4
2018,1,6,09:00,UTC,,989.4,99,,,0.3,,8552,61.7,5.4,4
2018,1,6,10:00,UTC,,989.1,99,,,0.2,,4668,62.8,4,3.3
2018,1,6,11:00,UTC,,988.6,99,,,0.2,,7229,63.3,4.8,3.2
2018,1,6,12:00,UTC,,988.4,99,,,0.1,,7509,64.3,3.6,2.7
2018,1,6,13:00,UTC,,988.5,99,,,0.1,,6483,70.5,3.1,2.2
2018,1,6,14:00,UTC,,988.4,99,,,0.1,,10042,97.7,2.4,1.7
2018,1,6,15:00,UTC,,989,96,,,-2.8,,13979,159.5,7.5,5.9
2018,1,6,16:00,UTC,,989.7,94,,,-4.5,,23422,163.1,10.7,6.9
2018,1,6,17:00,UTC,,990.5,93,,,-4.9,,5757,165.7,11.9,6.9
2018,1,6,18:00,UTC,,991.3,93,,,-4.1,,7786,164.1,11.7,8.1
2018,1,6,19:00,UTC,,992.5,92,,,-4,,9456,161.5,11.1,8
2018,1,6,20:00,UTC,,993.6,88,,,-4.3,,11690,157.4,14,9.1
2018,1,6,21:00,UTC,,994.4,86,,,-4.7,,11301,156.9,11.9,8.8
2018,1,6,22:00,UTC,,995.1,81,,,-4.9,,50000,160.5,10,7.2
2018,1,6,23:00,UTC,,995.4,81,,,-5.1,,50000,162.6,12,7.1
2018,1,7,00:00,UTC,,995.9,81,,,-5.4,,50000,150.7,8.9,6.9
2018,1,7,01:00,UTC,,996.5,78,,,-5.8,,50000,151.8,10.9,7
2018,1,7,02:00,UTC,,996.8,77,,,-5.2,,50000,149.7,9.8,7.3
2018,1,7,03:00,UTC,,997.2,75,,,-5.9,,50000,149.7,9.5,6.9
2018,1,7,04:00,UTC,,997.5,75,,,-6,,50000,150.2,9.9,7.2
2018,1,7,05:00,UTC,,997.9,77,,,-5.8,,50000,154.8,9.3,6.6
2018,1,7,06:00,UTC,,998.4,77,,,-5.5,,50000,156.4,8.8,6.5
2018,1,7,07:00,UTC,,998.9,75,,,-5.5,,50000,157.4,10.3,7.5
2018,1,7,08:00,UTC,,999.4,75,,,-5.4,,50000,157.4,10.5,7.3
2018,1,7,09:00,UTC,,1000,74,,,-5,,50000,156.4,9.8,6.8
2018,1,7,10:00,UTC,,999.8,72,,,-4.9,,50000,156.4,9.9,7.4
2018,1,7,11:00,UTC,,999.6,76,,,-6,,50000,151.2,6.5,4.7
2018,1,7,12:00,UTC,,1000.1,81,,,-6.3,,50000,138.4,6.1,4.8
2018,1,7,13:00,UTC,,1000.5,81,,,-6.1,,50000,137.9,5.9,4.6
2018,1,7,14:00,UTC,,1000.1,87,,,-7.8,,50000,124.5,3.8,3.1
2018,1,7,15:00,UTC,,999.6,94,,,-10,,50000,63.8,1.5,1.3
2018,1,7,16:00,UTC,,999,94,,,-10.7,,50000,81.3,1.9,1.5
2018,1,7,17:00,UTC,,998.4,92,,,-11.7,,44241,78.7,2,1.3
2018,1,7,18:00,UTC,,998.4,89,,,-13.1,,50000,56.6,2,1.6
2018,1,7,19:00,UTC,,998.9,92,,,-12,,50000,66.9,2,1.5
2018,1,7,20:00,UTC,,1000,89,,,-15,,50000,36.5,1.3,0.9
2018,1,7,21:00,UTC,,1001.4,86,,,-17.8,,50000,5.1,2.4,1.6
2018,1,7,22:00,UTC,,1002.8,88,,,-17.9,,50000,151.8,1.6,1.1
2018,1,7,23:00,UTC,,1004,91,,,-15,,1406,152.8,2.2,1.6
2018,1,8,00:00,UTC,,1005.1,89,,,-14.9,,49489,103.4,2.1,1.7
2018,1,8,01:00,UTC,,1006.1,87,,,-16.1,,48039,84.4,3.1,1.9
2018,1,8,02:00,UTC,,1007.1,86,,,-17.3,,50000,127.1,2.1,1.4
2018,1,8,03:00,UTC,,1008.2,91,,,-13.1,,50000,120.4,4.3,3.4
2018,1,8,04:00,UTC,,1009,90,,,-13.5,,50000,139.4,4.5,3.6
2018,1,8,05:00,UTC,,1010.3,88,,,-13.9,,50000,9.8,1.6,0.8
2018,1,8,06:00,UTC,,1010.9,89,,,-14.5,,50000,112.7,1.5,1.1
2018,1,8,07:00,UTC,,1011.5,90,,,-14.9,,50000,126.6,1.2,1
2018,1,8,08:00,UTC,,1012.6,89,,,-14,,944,121.4,2.7,1.9
2018,1,8,09:00,UTC,,1013.4,93,,,-9.6,,49950,109.6,3.3,2.7
2018,1,8,10:00,UTC,,1013.8,93,,,-9.4,,50000,119.9,1.5,1.1
2018,1,8,11:00,UTC,,1014.1,90,,,-11.2,,50000,127.1,3.1,2.2
2018,1,8,12:00,UTC,,1014.3,93,,,-8.1,,50000,130.2,5,3.5
2018,1,8,13:00,UTC,,1015,94,,,-6.6,,22600,133.2,4.5,3.5
2018,1,8,14:00,UTC,,1015.3,88,,,-5.9,,50000,133.8,6.2,4.5
2018,1,8,15:00,UTC,,1015.5,86,,,-5.6,,50000,133.2,5.7,4.2
2018,1,8,16:00,UTC,,1015.6,87,,,-5.7,,50000,131.7,5.1,4.1
2018,1,8,17:00,UTC,,1016,86,,,-5.3,,50000,137.9,5.9,4.6
2018,1,8,18:00,UTC,,1016.1,87,,,-5.7,,50000,135.8,5.6,4.6
2018,1,8,19:00,UTC,,1016.3,85,,,-5.2,,50000,135.8,7.5,5.7
2018,1,8,20:00,UTC,,1016.8,87,,,-5.4,,50000,134.8,5.8,4.8
2018,1,8,21:00,UTC,,1017,90,,,-5.9,,50000,133.8,5.7,4.5
2018,1,8,22:00,UTC,,1017.2,90,,,-5.4,,50000,134.8,6.4,5.1
2018,1,8,23:00,UTC,,1017.3,88,,,-5,,50000,133.2,7.1,5
2018,1,9,00:00,UTC,,1017.3,90,,,-5.9,,50000,136.3,6.2,4.6
2018,1,9,01:00,UTC,,1017.6,91,,,-5.3,,50000,120.4,3.1,2.2
2018,1,9,02:00,UTC,,1018.2,90,,,-4.1,,50000,134.3,5.7,4.3
2018,1,9,03:00,UTC,,1018.2,91,,,-4,,50000,123.5,3.7,2.8
2018,1,9,04:00,UTC,,1017.8,92,,,-4,,50000,106.5,2.2,1.3
2018,1,9,05:00,UTC,,1017.9,94,,,-4,,50000,137.9,1.7,1.3
2018,1,9,06:00,UTC,,1017.9,94,,,-3.2,,50000,129.6,3.9,3.1
2018,1,9,07:00,UTC,,1018.1,96,,,-2.8,,10964,133.2,3.3,2.2
2018,1,9,08:00,UTC,,1018.2,96,,,-3.8,,10126,71.5,2,1.4
2018,1,9,09:00,UTC,,1018.2,97,,,-3.6,,50000,79.2,2.1,1.8
2018,1,9,10:00,UTC,,1018.2,96,,,-4.3,,50000,64.3,2.8,2.5
2018,1,9,11:00,UTC,,1018.2,97,,,-3.9,,47357,60.2,3.5,2.9
2018,1,9,12:00,UTC,,1018.2,98,,,-3.7,,4252,63.8,3.6,3.2
2018,1,9,13:00,UTC,,1018.1,98,,,-3.6,,10074,63.3,4.5,3.8
2018,1,9,14:00,UTC,,1018.7,98,,,-3.3,,9226,70,4.5,3.4
2018,1,9,15:00,UTC,,1018.5,98,,,-3,,12587,75.6,3.7,2.9
2018,1,9,16:00,UTC,,1018.4,98,,,-2.5,,7376,74.6,3.9,3
2018,1,9,17:00,UTC,,1019.1,98,,,-2.6,,2502,75.6,4.1,2.4
2018,1,9,18:00,UTC,,1019.7,98,,,-2.7,,2087,61.2,3.5,2.9
2018,1,9,19:00,UTC,,1019.4,99,,,-2.5,,1882,78.7,4.4,3.1
2018,1,9,20:00,UTC,,1019.7,99,,,-2.5,,2638,82.3,3.5,2.7
2018,1,9,21:00,UTC,,1019.5,98,,,-2.7,,4919,89.5,2.9,2.1
2018,1,9,22:00,UTC,,1019.6,98,,,-3.1,,12613,82.8,2.2,1.6
2018,1,9,23:00,UTC,,1020,98,,,-3.2,,6299,91.6,1.6,0.8
2018,1,10,00:00,UTC,,1020,98,,,-3.6,,1712,108,1.8,1.2
2018,1,10,01:00,UTC,,1020.4,97,,,-4.1,,3381,97.2,1.3,1
2018,1,10,02:00,UTC,,1020.6,97,,,-4.2,,804,127.1,0.4,0.2
2018,1,10,03:00,UTC,,1020.4,97,,,-4.2,,1076,126.6,1.7,1.1
2018,1,10,04:00,UTC,,1020.4,97,,,-4.4,,937,184.7,1.6,0.7
2018,1,10,05:00,UTC,,1020.6,97,,,-4.2,,2315,106.5,1.9,1.2
2018,1,10,06:00,UTC,,1020.8,97,,,-4.1,,782,118.3,2.1,1.5
2018,1,10,07:00,UTC,,1020.7,97,,,-4.1,,716,124,1.7,1
2018,1,10,08:00,UTC,,1021,97,,,-4.8,,2410,158.4,1.1,0.5
2018,1,10,09:00,UTC,,1021.3,96,,,-5.3,,49840,135.8,2.1,1.5
2018,1,10,10:00,UTC,,1021.4,96,,,-4.9,,1669,128.1,2.1,1.4
2018,1,10,11:00,UTC,,1021.5,96,,,-5.1,,872,16.5,0.9,0.6
2018,1,10,12:00,UTC,,1021.9,96,,,-5.7,,811,149.2,0.9,0.5
2018,1,10,13:00,UTC,,1021.8,95,,,-6.1,,2447,83.9,1.7,1.2
2018,1,10,14:00,UTC,,1022.2,96,,,-5.8,,48543,114.2,2.1,1
2018,1,10,15:00,UTC,,1022.3,94,,,-7.4,,909,24.7,1.1,0.8
2018,1,10,16:00,UTC,,1022.5,95,,,-7.1,,13513,59.2,1.7,1
2018,1,10,17:00,UTC,,1022.9,94,,,-7.1,,1216,62.8,2.4,1.8
2018,1,10,18:00,UTC,,1023.2,95,,,-6.9,,2146,98.8,2.4,1.7
2018,1,10,19:00,UTC,,1023.3,95,,,-6.4,,1919,90.5,2.2,1.6
2018,1,10,20:00,UTC,,1023.7,95,,,-6.9,,11983,100.3,4.2,1.7
2018,1,10,21:00,UTC,,1024,94,,,-7.9,,45112,88.5,1.2,0.7
2018,1,10,22:00,UTC,,1024.3,94,,,-7.8,,24794,100.8,1.7,1.3
2018,1,10,23:00,UTC,,1024.8,94,,,-8.1,,35037,66.9,1.5,1.2
2018,1,11,00:00,UTC,,1025,94,,,-8.1,,1715,75.6,2,1.7
2018,1,11,01:00,UTC,,1025.4,94,,,-7.7,,811,90,1.8,1.2
2018,1,11,02:00,UTC,,1025.4,94,,,-7.5,,1509,59.7,4.3,3.5
2018,1,11,03:00,UTC,,1025.9,94,,,-7.9,,11023,81.8,3.2,2.2
2018,1,11,04:00,UTC,,1026,93,,,-8.9,,3106,78.2,3.3,2.7
2018,1,11,05:00,UTC,,1026.2,93,,,-9.4,,2490,65.3,3.3,2.7
2018,1,11,06:00,UTC,,1026.7,92,,,-9.8,,16464,86.9,2.5,1.6
2018,1,11,07:00,UTC,,1027.5,92,,,-10.4,,41966,83.9,2.7,1.7
2018,1,11,08:00,UTC,,1027.9,91,,,-11.2,,44875,62.8,3.4,2.7
2018,1,11,09:00,UTC,,1028.5,91,,,-10.9,,10800,69.4,3.6,2.9
2018,1,11,10:00,UTC,,1028.4,91,,,-10.9,,50000,71.5,4.2,3.3
2018,1,11,11:00,UTC,,1028.6,91,,,-11.6,,44100,65.8,2.8,2.1
2018,1,11,12:00,UTC,,1029.4,91,,,-11.2,,45970,68.9,3.9,3.3
2018,1,11,13:00,UTC,,1029.8,91,,,-10.8,,50000,72,5.2,4
2018,1,11,14:00,UTC,,1029.8,91,,,-10.6,,50000,77.7,5.7,4.6
2018,1,11,15:00,UTC,,1030.3,91,,,-10.8,,50000,75.6,5.3,4.1
2018,1,11,16:00,UTC,,1030.4,91,,,-11.5,,50000,76.7,6.1,4.6
2018,1,11,17:00,UTC,,1030.4,91,,,-11.4,,45158,78.7,6.6,4.5
2018,1,11,18:00,UTC,,1030.6,91,,,-10.9,,22603,81.3,5.6,4.1
2018,1,11,19:00,UTC,,1031.1,92,,,-10.4,,42476,90.5,3.3,1.9
2018,1,11,20:00,UTC,,1031.2,92,,,-10.1,,50000,90,3.5,2.3
2018,1,11,21:00,UTC,,1031.8,92,,,-9.3,,13020,96.2,3.9,2.6
2018,1,11,22:00,UTC,,1031.8,93,,,-8.7,,4532,85.9,4.2,3.2
2018,1,11,23:00,UTC,,1032,93,,,-8.2,,8896,92.6,6.1,3.6
2018,1,12,00:00,UTC,,1032.1,94,,,-8,,20720,89.5,5.1,3.6
2018,1,12,01:00,UTC,,1032.3,94,,,-7.8,,8115,88,5.8,4.6
2018,1,12,02:00,UTC,,1032.3,94,,,-7.5,,7588,88,6.7,5
2018,1,12,03:00,UTC,,1032.2,94,,,-7,,5017,94.7,6.8,4.8
2018,1,12,04:00,UTC,,1032.7,94,,,-6.9,,13254,95.7,7.1,4.7
2018,1,12,05:00,UTC,,1032.7,95,,,-6.5,,20417,95.7,5.8,4.1
2018,1,12,06:00,UTC,,1032.8,95,,,-5.9,,13096,104.4,5.1,3.6
2018,1,12,07:00,UTC,,1032.9,96,,,-5.3,,24998,103.9,7,4.4
2018,1,12,08:00,UTC,,1033,96,,,-4.9,,47860,106,7.8,4.7
2018,1,12,09:00,UTC,,1033,96,,,-4.6,,44357,105.5,7.7,5.3
2018,1,12,10:00,UTC,,1033.1,97,,,-4.1,,44880,104.9,7.3,5.2
2018,1,12,11:00,UTC,,1033.1,97,,,-3.5,,37526,104.9,6.9,5.3
2018,1,12,12:00,UTC,,1033.1,98,,,-2.8,,6077,108.5,6.5,4.5
2018,1,12,13:00,UTC,,1033.3,98,,,-2.3,,3427,107.5,5.1,3.5
2018,1,12,14:00,UTC,,1033.6,99,,,-1.3,,27539,117.3,7.3,4.4
2018,1,12,15:00,UTC,,1033.5,99,,,-0.8,,50000,117.8,6.9,4.7
2018,1,12,16:00,UTC,,1033.3,100,,,-0.7,,15183,107.5,8.4,4.1
2018,1,12,17:00,UTC,,1033.5,100,,,-0.8,,50000,118.3,8.9,4.7
2018,1,12,18:00,UTC,,1033.7,99,,,-1,,50000,123,9.2,5.7
2018,1,12,19:00,UTC,,1033.9,99,,,-1.1,,35861,120.9,7.9,5.4
2018,1,12,20:00,UTC,,1034.5,99,,,-1.1,,50000,126.6,7.6,5.3
2018,1,12,21:00,UTC,,1034.6,98,,,-1.3,,50000,124,7.2,4.9
2018,1,12,22:00,UTC,,1035.2,98,,,-1.1,,50000,117.3,5,3.2
2018,1,12,23:00,UTC,,1035,97,,,-1,,50000,123.5,7,4.3
2018,1,13,00:00,UTC,,1035.4,96,,,-1.1,,50000,126.6,7.7,5.1
2018,1,13,01:00,UTC,,1035.8,96,,,-1.4,,50000,124.5,5.8,4.1
2018,1,13,02:00,UTC,,1035.8,96,,,-1.5,,50000,128.1,7.2,4.7
2018,1,13,03:00,UTC,,1036.1,96,,,-1.6,,50000,117.8,5.8,4.1
2018,1,13,04:00,UTC,,1036,96,,,-1.4,,48154,117.3,5.9,3.2
2018,1,13,05:00,UTC,,1036,96,,,-1.5,,50000,123.5,5.8,4.2
2018,1,13,06:00,UTC,,1036.2,96,,,-1.6,,10247,118.8,3.4,2.3
2018,1,13,07:00,UTC,,1036.4,96,,,-1.6,,9768,108,3.8,2.4
2018,1,13,08:00,UTC,,1036.5,96,,,-1.4,,10287,121.4,5.6,2.4
2018,1,13,09:00,UTC,,1036.6,97,,,-1.4,,22800,101.3,3.5,2.5
2018,1,13,10:00,UTC,,1036.7,97,,,-1.3,,12832,104.4,3.7,2.6
2018,1,13,11:00,UTC,,1036.8,98,,,-1.5,,14270,84.4,3.6,2.5
2018,1,13,12:00,UTC,,1036.6,98,,,-1.4,,7488,87.5,3.7,2.4
2018,1,13,13:00,UTC,,1036.6,97,,,-1.3,,6902,91.1,4.5,3.1
2018,1,13,14:00,UTC,,1036.6,95,,,-1.4,,49039,95.2,4.4,2.8
2018,1,13,15:00,UTC,,1036.5,94,,,-1.4,,50000,92.1,4.3,3.1
2018,1,13,16:00,UTC,,1036.5,94,,,-1.4,,50000,93.1,4.9,3.5
2018,1,13,17:00,UTC,,1036.5,95,,,-1.5,,28375,89.5,5.3,3.6
2018,1,13,18:00,UTC,,1036.1,96,,,-1.6,,10957,93.6,3.5,2.6
2018,1,13,19:00,UTC,,1035.9,94,,,-1.5,,39271,103.4,4.7,3
2018,1,13,20:00,UTC,,1035.8,94,,,-1.5,,18931,107.5,4.5,2.8
2018,1,13,21:00,UTC,,1036,95,,,-1.6,,29780,108,4.8,2.9
2018,1,13,22:00,UTC,,1035.9,92,,,-1.4,,50000,103.9,5.7,3.6
2018,1,13,23:00,UTC,,1035.6,91,,,-1.5,,50000,100.8,6,3.7
2018,1,14,00:00,UTC,,1035.3,90,,,-1.4,,50000,103.4,6.4,4.7
2018,1,14,01:00,UTC,,1035.1,90,,,-1.5,,50000,102.9,7.2,4.2
2018,1,14,02:00,UTC,,1034.8,90,,,-1.8,,10825,110.6,7.6,4.6
2018,1,14,03:00,UTC,,1034.4,90,,,-2,,50000,104.4,6.8,3.9
2018,1,14,04:00,UTC,,1034,89,,,-2,,50000,101.3,6,4.4
2018,1,14,05:00,UTC,,1033.7,88,,,-1.9,,50000,101.9,5.4,3.8
2018,1,14,06:00,UTC,,1033.4,85,,,-1.7,,50000,99.3,6,4.3
2018,1,14,07:00,UTC,,1033.1,86,,,-1.8,,50000,93.1,6.3,4.2
2018,1,14,08:00,UTC,,1033,87,,,-1.8,,50000,88.5,6.4,3.9
2018,1,14,09:00,UTC,,1032.7,87,,,-1.9,,50000,88.5,6.8,4.9
2018,1,14,10:00,UTC,,1032.7,87,,,-1.8,,50000,90,6.4,4.8
2018,1,14,11:00,UTC,,1032.3,87,,,-1.7,,50000,91.6,7.2,5
2018,1,14,12:00,UTC,,1032.2,87,,,-1.8,,50000,91.6,6.3,4.4
2018,1,14,13:00,UTC,,1031.9,87,,,-1.8,,50000,90.5,6.8,4.9
2018,1,14,14:00,UTC,,1031.2,88,,,-2,,50000,89,5.9,4.6
2018,1,14,15:00,UTC,,1030.8,88,,,-2.1,,50000,85.4,8.1,5.2
2018,1,14,16:00,UTC,,1030.2,88,,,-2.5,,50000,84.4,7.6,5.3
2018,1,14,17:00,UTC,,1029.5,87,,,-2.7,,50000,79.7,7.9,5.9
2018,1,14,18:00,UTC,,1029.1,86,,,-2.8,,50000,84.4,8.1,5.8
2018,1,14,19:00,UTC,,1028.8,87,,,-3,,50000,85.4,8,5.2
2018,1,14,20:00,UTC,,1028.4,87,,,-3.1,,50000,84.9,7.4,5.4
2018,1,14,21:00,UTC,,1027.9,87,,,-3.2,,50000,84.9,7.6,5.1
2018,1,14,22:00,UTC,,1027.1,88,,,-3.2,,50000,80.3,8.9,6.4
2018,1,14,23:00,UTC,,1026.8,88,,,-3.3,,50000,80.3,8.1,5.4
2018,1,15,00:00,UTC,,1026.4,87,,,-3.2,,50000,82.8,8.7,5.6
2018,1,15,01:00,UTC,,1025.7,87,,,-3,,50000,82.8,9.7,6.5
2018,1,15,02:00,UTC,,1025.1,85,,,-2.9,,50000,85.4,9.8,6.9
2018,1,15,03:00,UTC,,1024.4,85,,,-3.1,,50000,86.4,9.6,7
2018,1,15,04:00,UTC,,1023.9,85,,,-3.3,,50000,84.9,10.8,7.7
2018,1,15,05:00,UTC,,1024,84,,,-3.4,,50000,85.4,9.7,7.1
2018,1,15,06:00,UTC,,1023.5,84,,,-3.7,,50000,83.3,9.9,6.8
2018,1,15,07:00,UTC,,1023.3,83,,,-3.7,,50000,88,10.8,7.1
2018,1,15,08:00,UTC,,1023.6,79,,,-4.4,,50000,95.2,8.7,5.5
2018,1,15,09:00,UTC,,1023.4,82,,,-5.2,,42210,88.5,8.3,6.1
2018,1,15,10:00,UTC,,1023,82,,,-5.8,,44615,86.9,9.3,6.3
2018,1,15,11:00,UTC,,1022.4,81,,,-6.2,,50000,81.3,10.2,7.5
2018,1,15,12:00,UTC,,1021.9,80,,,-6.2,,50000,81.8,12.6,8.6
2018,1,15,13:00,UTC,,1021.4,80,,,-6.4,,50000,81.8,11.3,8.1
2018,1,15,14:00,UTC,,1021,80,,,-6.9,,40378,81.8,11.7,8.2
2018,1,15,15:00,UTC,,1019.9,80,,,-7.2,,50000,76.7,11.6,8.4
2018,1,15,16:00,UTC,,1019,77,,,-7.5,,50000,75.6,12.3,8.9
2018,1,15,17:00,UTC,,1018.2,75,,,-7.5,,50000,77.7,11.6,8.3
2018,1,15,18:00,UTC,,1018,79,,,-7.4,,49995,79.2,10.8,8.1
2018,1,15,19:00,UTC,,1017.1,76,,,-7.7,,27304,80.3,13.3,9.1
2018,1,15,20:00,UTC,,1016.2,81,,,-8,,32744,70.5,11,8.4
2018,1,15,21:00,UTC,,1016,76,,,-8.2,,50000,82.8,12.5,8.3
2018,1,15,22:00,UTC,,1015.2,78,,,-8.4,,46181,85.4,9.6,6.4
2018,1,15,23:00,UTC,,1014.6,81,,,-8.4,,35046,83.9,7.5,5
2018,1,16,00:00,UTC,,1013.6,81,,,-8.5,,29113,78.7,8.2,6
2018,1,16,01:00,UTC,,1013,80,,,-8.6,,15180,79.7,7.9,5.5
2018,1,16,02:00,UTC,,1012,80,,,-8.7,,18860,75.6,9.4,6.2
2018,1,16,03:00,UTC,,1011.2,82,,,-8.8,,13111,74.1,7.5,5.8
2018,1,16,04:00,UTC,,1010.1,80,,,-9.2,,15619,72.5,9.6,6.9
2018,1,16,05:00,UTC,,1009.2,79,,,-9.5,,18904,70,9.3,7.2
2018,1,16,06:00,UTC,,1008.4,80,,,-9.6,,26638,69.4,9.5,7.6
2018,1,16,07:00,UTC,,1008,82,,,-9.7,,12766,65.8,8.9,7.3
2018,1,16,08:00,UTC,,1007.9,80,,,-9.5,,17464,69.4,9.6,7
2018,1,16,09:00,UTC,,1007.7,80,,,-9.3,,14384,70.5,9,6.5
2018,1,16,10:00,UTC,,1007.1,80,,,-9.2,,13551,72,9.2,6.6
2018,1,16,11:00,UTC,,1006.6,78,,,-9.2,,22960,72.5,9.8,7
2018,1,16,12:00,UTC,,1005.8,78,,,-9.3,,29190,71,9,6.8
2018,1,16,13:00,UTC,,1005.2,77,,,-9.4,,28966,71.5,10.9,7.7
2018,1,16,14:00,UTC,,1005.1,77,,,-9.5,,38117,73.1,9.8,7.2
2018,1,16,15:00,UTC,,1004.4,79,,,-9.9,,39030,68.9,10.7,7.9
2018,1,16,16:00,UTC,,1004,80,,,-10.6,,42668,66.9,10.2,7.8
2018,1,16,17:00,UTC,,1004,82,,,-11.6,,50000,65.8,8.7,6.5
2018,1,16,18:00,UTC,,1003.7,82,,,-12,,50000,65.8,9.9,8
2018,1,16,19:00,UTC,,1003.7,83,,,-11.9,,50000,66.4,9.6,7.8
2018,1,16,20:00,UTC,,1003.7,82,,,-11.7,,50000,67.4,9.2,7.3
2018,1,16,21:00,UTC,,1004,80,,,-11.8,,50000,70,7.1,5.3
2018,1,16,22:00,UTC,,1004.1,78,,,-11.6,,50000,67.4,7.3,6.1
2018,1,16,23:00,UTC,,1004.4,74,,,-11.3,,50000,68.4,9,6.6
2018,1,17,00:00,UTC,,1004.4,73,,,-11.1,,50000,67.9,8.9,7.5
2018,1,17,01:00,UTC,,1004.3,73,,,-11.1,,50000,68.4,10,7.2
2018,1,17,02:00,UTC,,1004.5,70,,,-11,,50000,68.4,9.6,7.6
2018,1,17,03:00,UTC,,1004.5,71,,,-11.5,,50000,66.9,7.4,5.7
2018,1,17,04:00,UTC,,1004.5,72,,,-11.6,,50000,66.9,7.8,6.1
2018,1,17,05:00,UTC,,1004.6,74,,,-11.1,,50000,66.9,8.4,6.1
2018,1,17,06:00,UTC,,1004.8,80,,,-9.9,,50000,64.3,8.2,6.2
2018,1,17,07:00,UTC,,1004.8,84,,,-9.1,,50000,55.6,6,4.8
2018,1,17,08:00,UTC,,1005.1,83,,,-8,,50000,56.6,7.2,6
2018,1,17,09:00,UTC,,1005.3,81,,,-7,,21395,58.6,7.2,6
2018,1,17,10:00,UTC,,1004.9,80,,,-7.2,,50000,59.7,7.5,5.7
2018,1,17,11:00,UTC,,1004.5,79,,,-7.1,,50000,60.7,8,6.1
2018,1,17,12:00,UTC,,1004.5,79,,,-7.4,,50000,55.6,7.5,5.9
2018,1,17,13:00,UTC,,1004.7,79,,,-7.9,,50000,54,7.7,5.5
2018,1,17,14:00,UTC,,1004.6,81,,,-8.6,,14119,52.5,6.7,5.2
2018,1,17,15:00,UTC,,1004.4,85,,,-8.8,,12561,50.9,6.7,4.5
2018,1,17,16:00,UTC,,1004.3,85,,,-9.1,,13510,57.6,8,5.8
2018,1,17,17:00,UTC,,1004.4,86,,,-9.6,,9016,59.2,7.8,6.1
2018,1,17,18:00,UTC,,1004.4,84,,,-10.3,,50000,56.1,6.1,4.9
2018,1,17,19:00,UTC,,1004.7,86,,,-10.6,,50000,45.8,4.1,2.8
2018,1,17,20:00,UTC,,1004.7,86,,,-11.1,,50000,53,6.5,4.8
2018,1,17,21:00,UTC,,1004.8,87,,,-11.7,,50000,48.9,4.7,3.5
2018,1,17,22:00,UTC,,1004.8,87,,,-12.3,,50000,43.2,4.5,3.1
2018,1,17,23:00,UTC,,1004.5,86,,,-12.1,,50000,45.3,5.3,3.8
2018,1,18,00:00,UTC,,1004.2,84,,,-11.2,,50000,48.9,5.8,4.2
2018,1,18,01:00,UTC,,1003.9,85,,,-11.2,,50000,46.8,5.1,3.6
2018,1,18,02:00,UTC,,1003.6,85,,,-10.6,,46295,44.2,5.4,3.8
2018,1,18,03:00,UTC,,1003.4,87,,,-9.8,,15730,43.7,5.3,3.4
2018,1,18,04:00,UTC,,1002.9,86,,,-8.6,,12216,47.8,6,4.6
2018,1,18,05:00,UTC,,1002.6,87,,,-8.6,,17497,47.3,6,4.2
2018,1,18,06:00,UTC,,1002.5,87,,,-8.4,,43207,48.4,5.3,4
2018,1,18,07:00,UTC,,1002.6,89,,,-8.5,,540,50.4,5.2,3.5
2018,1,18,08:00,UTC,,1002.7,87,,,-7.5,,11409,58.6,7.2,5.7
2018,1,18,09:00,UTC,,1002.9,86,,,-7.3,,40686,53.5,7.6,4.8
2018,1,18,10:00,UTC,,1002.8,86,,,-6.9,,27678,53.5,5.7,4.6
2018,1,18,11:00,UTC,,1002.5,86,,,-6.4,,36643,53.5,6.1,4.8
2018,1,18,12:00,UTC,,1002.5,89,,,-6.3,,6800,51.4,6.2,4.6
2018,1,18,13:00,UTC,,1002.4,85,,,-6.3,,50000,53,7.2,4.7
2018,1,18,14:00,UTC,,1002.3,83,,,-6.2,,50000,50.9,5.5,4.2
2018,1,18,15:00,UTC,,1002,79,,,-6.5,,50000,51.4,5.5,4.1
2018,1,18,16:00,UTC,,1002,82,,,-6.2,,27999,44.2,5.7,3.6
2018,1,18,17:00,UTC,,1001.9,90,,,-6.2,,11269,37,4.1,2.6
2018,1,18,18:00,UTC,,1001.7,88,,,-6,,33044,32.4,5.1,3.4
2018,1,18,19:00,UTC,,1001.7,84,,,-6.5,,37733,42.7,5.5,3.3
2018,1,18,20:00,UTC,,1001.9,86,,,-7,,14719,36,4.8,3.2
2018,1,18,21:00,UTC,,1002,84,,,-7.4,,15298,45.8,4.7,3.5
2018,1,18,22:00,UTC,,1001.6,84,,,-7.8,,12451,45.3,6.1,3.4
2018,1,18,23:00,UTC,,1001.6,85,,,-8.2,,17997,40.6,4.5,2.8
2018,1,19,00:00,UTC,,1001.4,85,,,-8.5,,14626,39.6,3.7,2.7
2018,1,19,01:00,UTC,,1001.3,86,,,-8.7,,14781,40.6,4.2,2.9
2018,1,19,02:00,UTC,,1001.6,85,,,-8.9,,25263,43.2,3.4,2.5
2018,1,19,03:00,UTC,,1001.6,87,,,-9.1,,27366,52,3.3,2.4
2018,1,19,04:00,UTC,,1002,87,,,-9,,50000,49.9,3.5,2.6
2018,1,19,05:00,UTC,,1002.3,88,,,-9.7,,50000,58.1,3.7,2.7
2018,1,19,06:00,UTC,,1002.8,89,,,-9.6,,12039,57.1,2.8,2.1
2018,1,19,07:00,UTC,,1003.3,90,,,-10.7,,50000,60.7,2.6,1.9
2018,1,19,08:00,UTC,,1003.7,93,,,-12,,50000,62.8,2.9,2.5
2018,1,19,09:00,UTC,,1004.5,91,,,-12.3,,17077,65.3,4.2,3.2
2018,1,19,10:00,UTC,,1005,89,,,-13.5,,37582,62.8,3.3,3
2018,1,19,11:00,UTC,,1005.3,89,,,-13.4,,50000,54,2.3,2
2018,1,19,12:00,UTC,,1005.6,89,,,-13,,50000,52,2.5,2
2018,1,19,13:00,UTC,,1006,88,,,-12.7,,14655,45.3,3.1,2.1
2018,1,19,14:00,UTC,,1006.6,91,,,-14.1,,22697,57.6,3.6,3
2018,1,19,15:00,UTC,,1007.3,90,,,-14.6,,50000,60.7,4.1,3.4
2018,1,19,16:00,UTC,,1007.9,89,,,-12.6,,14538,64.3,4.8,3.6
2018,1,19,17:00,UTC,,1008,88,,,-12.6,,42765,66.9,4.1,3.5
2018,1,19,18:00,UTC,,1008.2,88,,,-13.1,,50000,63.3,3.9,3.4
2018,1,19,19:00,UTC,,1008.4,87,,,-12.5,,50000,63.3,4.5,3.7
2018,1,19,20:00,UTC,,1009.2,90,,,-14.3,,48645,61.2,4.2,3.8
2018,1,19,21:00,UTC,,1009.5,89,,,-12.7,,36242,62.2,4.2,3.3
2018,1,19,22:00,UTC,,1009.8,89,,,-12.2,,21524,63.3,3.3,2.6
2018,1,19,23:00,UTC,,1009.8,89,,,-10.7,,24070,60.2,4.4,3.4
2018,1,20,00:00,UTC,,1010.2,88,,,-10.4,,50000,52,3.5,2.7
2018,1,20,01:00,UTC,,1010.5,89,,,-10.9,,50000,56.6,1,0.3
2018,1,20,02:00,UTC,,1010.6,92,,,-11.6,,28259,28.8,1.5,0.9
2018,1,20,03:00,UTC,,1010.5,90,,,-12.9,,38163,172.9,0.8,0.5
2018,1,20,04:00,UTC,,1010.6,90,,,-11.5,,43790,41.7,1.6,0.9
2018,1,20,05:00,UTC,,1010.6,90,,,-11.2,,50000,43.2,2,1.2
2018,1,20,06:00,UTC,,1010.7,92,,,-13,,36619,184.7,0.6,0.3
2018,1,20,07:00,UTC,,1010.7,86,,,-17.3,,50000,5.1,1.1,1
2018,1,20,08:00,UTC,,1011,88,,,-17.5,,30596,183.7,0.9,0.7
2018,1,20,09:00,UTC,,1011.1,84,,,-18.2,,50000,16.5,1.4,1.1
2018,1,20,10:00,UTC,,1010.9,88,,,-14.2,,32509,2.1,1.2,0.6
2018,1,20,11:00,UTC,,1010.7,89,,,-14.6,,10995,151.8,1.2,1
2018,1,20,12:00,UTC,,1010.4,88,,,-15.1,,12665,185.2,1.7,1.1
2018,1,20,13:00,UTC,,1010.3,90,,,-13.2,,4377,162,2.1,1.4
2018,1,20,14:00,UTC,,1010.3,90,,,-12.5,,1484,157.9,1.7,1.3
2018,1,20,15:00,UTC,,1010.1,90,,,-12.1,,10086,156.4,1.7,1.3
2018,1,20,16:00,UTC,,1010.1,91,,,-11.4,,23127,174.9,1.5,0.9
2018,1,20,17:00,UTC,,1009.9,91,,,-10.8,,33209,170.8,1.4,1
2018,1,20,18:00,UTC,,1009.7,91,,,-10.3,,23841,166.7,1.1,0.8
2018,1,20,19:00,UTC,,1009.9,92,,,-10.1,,24510,151.8,1.2,1
2018,1,20,20:00,UTC,,1010,92,,,-10,,23638,146.1,1.5,1.3
2018,1,20,21:00,UTC,,1010.1,91,,,-10.7,,10517,142.5,1.9,1.6
2018,1,20,22:00,UTC,,1010.2,91,,,-10.6,,8005,154.8,1,0.9
2018,1,20,23:00,UTC,,1010.3,91,,,-10.4,,9514,2.6,0.4,0.3
2018,1,21,00:00,UTC,,1010.2,91,,,-10.4,,8738,49.9,0.9,0.7
2018,1,21,01:00,UTC,,1010.3,91,,,-10.4,,6871,41.2,0.5,0.3
2018,1,21,02:00,UTC,,1010.5,90,,,-12.6,,11433,76.1,0.9,0.6
2018,1,21,03:00,UTC,,1010.6,89,,,-13.5,,10873,52,1.4,1.3
2018,1,21,04:00,UTC,,1010.9,89,,,-13.6,,5380,50.4,2,1.4
2018,1,21,05:00,UTC,,1011.1,92,,,-9.9,,14020,49.9,3.3,2.5
2018,1,21,06:00,UTC,,1011.2,92,,,-9.8,,8837,48.9,3.2,2.3
2018,1,21,07:00,UTC,,1011.5,91,,,-10.1,,7835,47.8,3,2.1
2018,1,21,08:00,UTC,,1012,91,,,-10.4,,5662,47.3,3.2,2.3
2018,1,21,09:00,UTC,,1012.5,90,,,-11.3,,16518,47.8,4.2,2.7
2018,1,21,10:00,UTC,,1012.9,89,,,-11.9,,47219,48.9,3.2,2.3
2018,1,21,11:00,UTC,,1012.7,89,,,-12.1,,50000,48.9,3,2
2018,1,21,12:00,UTC,,1012.9,89,,,-12.2,,50000,44.8,3,2.1
2018,1,21,13:00,UTC,,1013.3,88,,,-13.5,,50000,50.9,2.4,1.5
2018,1,21,14:00,UTC,,1013.2,88,,,-13.3,,50000,40.1,3.8,2.5
2018,1,21,15:00,UTC,,1013.5,88,,,-14.1,,50000,47.8,2.9,2.1
2018,1,21,16:00,UTC,,1013.6,87,,,-14.6,,50000,46.8,3.8,2.5
2018,1,21,17:00,UTC,,1013.7,87,,,-15.2,,50000,47.8,2.7,2
2018,1,21,18:00,UTC,,1013.8,87,,,-16,,50000,45.3,2.8,2.1
2018,1,21,19:00,UTC,,1013.5,86,,,-17.1,,50000,42.2,2.4,1.7
2018,1,21,20:00,UTC,,1013.5,86,,,-17.7,,50000,33.4,2.1,1.3
2018,1,21,21:00,UTC,,1013.5,86,,,-16.4,,19385,36.5,2.8,1.8
2018,1,21,22:00,UTC,,1013.3,86,,,-16,,25756,32.4,2,1.3
2018,1,21,23:00,UTC,,1013.1,86,,,-15.6,,50000,44.2,3.3,2.1
2018,1,22,00:00,UTC,,1013.2,86,,,-15.2,,10005,43.7,2.8,1.9
2018,1,22,01:00,UTC,,1013.1,86,,,-15.1,,8848,43.2,3.2,2.3
2018,1,22,02:00,UTC,,1013.3,85,,,-15.2,,17869,46.8,4,2.8
2018,1,22,03:00,UTC,,1013.2,85,,,-15.4,,10005,45.3,3,2.1
2018,1,22,04:00,UTC,,1013.1,86,,,-15.5,,11177,39.6,3.7,2.2
2018,1,22,05:00,UTC,,1013.1,85,,,-15.8,,16855,42.7,3.9,2.5
2018,1,22,06:00,UTC,,1013.1,84,,,-16.4,,43255,44.2,4.7,2.9
2018,1,22,07:00,UTC,,1013.1,84,,,-17.5,,33917,44.8,4.9,2.9
2018,1,22,08:00,UTC,,1013.2,83,,,-18.9,,45901,35,3.8,2.2
2018,1,22,09:00,UTC,,1013.5,83,,,-19.9,,50000,35,2.3,1.4
2018,1,22,10:00,UTC,,1013.7,82,,,-20,,50000,33.4,3,2
2018,1,22,11:00,UTC,,1013.6,83,,,-19.7,,50000,35.5,2.3,1.5
2018,1,22,12:00,UTC,,1013.5,82,,,-19.9,,37271,24.7,1.7,0.9
2018,1,22,13:00,UTC,,1013.6,83,,,-21.2,,29904,15.4,1.2,1
2018,1,22,14:00,UTC,,1013.5,84,,,-22.5,,50000,172.9,0.8,0.6
2018,1,22,15:00,UTC,,1013.4,81,,,-25.2,,17961,185.2,2.1,1.4
2018,1,22,16:00,UTC,,1013.5,82,,,-23.4,,4495,177.5,2.3,1.4
2018,1,22,17:00,UTC,,1013.6,81,,,-24.4,,50000,156.4,1.7,1.5
2018,1,22,18:00,UTC,,1013.3,79,,,-26.8,,50000,179,2.1,1.6
2018,1,22,19:00,UTC,,1013.3,80,,,-25,,50000,162,1.7,1.4
2018,1,22,20:00,UTC,,1013.1,81,,,-24,,50000,154.3,2.6,2.3
2018,1,22,21:00,UTC,,1013.1,82,,,-22.1,,9961,161,2.3,1.5
2018,1,22,22:00,UTC,,1012.9,83,,,-20.9,,9856,153.8,2.7,2.2
2018,1,22,23:00,UTC,,1013,83,,,-20.1,,16367,164.1,3.2,2.1
2018,1,23,00:00,UTC,,1012.7,84,,,-19.4,,20938,165.7,4.3,2.9
2018,1,23,01:00,UTC,,1012.4,83,,,-19.8,,8456,166.7,4,2.7
2018,1,23,02:00,UTC,,1012.4,84,,,-20.9,,50000,164.6,2.5,1.8
2018,1,23,03:00,UTC,,1012.3,83,,,-21.2,,50000,142,2.9,2.3
2018,1,23,04:00,UTC,,1012.1,84,,,-20.9,,47727,155.9,2.2,1.9
2018,1,23,05:00,UTC,,1011.9,84,,,-20,,36475,137.9,2.7,2
2018,1,23,06:00,UTC,,1011.8,85,,,-18.7,,2679,165.1,2.3,1.6
2018,1,23,07:00,UTC,,1011.8,86,,,-17.2,,3329,165.7,2.3,1.8
2018,1,23,08:00,UTC,,1012.1,84,,,-17.4,,3378,171.8,4.2,3.1
2018,1,23,09:00,UTC,,1012.2,85,,,-17.3,,3620,150.7,3.1,2.5
2018,1,23,10:00,UTC,,1012.7,85,,,-16.9,,2414,146.6,1.5,1.3
2018,1,23,11:00,UTC,,1012.7,86,,,-15.5,,48578,137.9,6.2,4.5
2018,1,23,12:00,UTC,,1012.7,86,,,-15.4,,50000,136.8,4.6,3.5
2018,1,23,13:00,UTC,,1012.9,86,,,-15.9,,50000,127.1,2.9,2.1
2018,1,23,14:00,UTC,,1012.8,86,,,-16.9,,50000,107.5,2.8,2.3
2018,1,23,15:00,UTC,,1012.6,88,,,-17.4,,7801,74.6,2,1.1
2018,1,23,16:00,UTC,,1012.7,87,,,-16.4,,21031,93.1,3.6,2.6
2018,1,23,17:00,UTC,,1012.2,87,,,-15.5,,12646,86.9,3.9,2.8
2018,1,23,18:00,UTC,,1012,88,,,-14.6,,10876,86.9,4.3,3.2
2018,1,23,19:00,UTC,,1011.3,88,,,-13.7,,6028,68.9,3.3,2.2
2018,1,23,20:00,UTC,,1010.8,88,,,-12.9,,50000,74.6,4,3.1
2018,1,23,21:00,UTC,,1010.4,89,,,-12.4,,33306,67.9,3.9,3.4
2018,1,23,22:00,UTC,,1010.3,89,,,-11.8,,48679,73.6,4.7,3.8
2018,1,23,23:00,UTC,,1009.8,89,,,-11.3,,50000,68.9,4.6,3.9
2018,1,24,00:00,UTC,,1008.6,90,,,-10.4,,50000,64.3,5.9,4.9
2018,1,24,01:00,UTC,,1007.9,90,,,-9.9,,47753,63.3,5.4,4.3
2018,1,24,02:00,UTC,,1006.8,90,,,-9,,17825,64.8,6.5,5.4
2018,1,24,03:00,UTC,,1005.6,91,,,-7.9,,50000,67.9,7.3,5.8
2018,1,24,04:00,UTC,,1004.7,91,,,-7.4,,50000,70,7.9,6.2
2018,1,24,05:00,UTC,,1003.4,92,,,-7.2,,6950,66.9,7.9,6.6
2018,1,24,06:00,UTC,,1002.4,91,,,-6.6,,8204,66.9,9.5,6.9
2018,1,24,07:00,UTC,,1001.5,92,,,-5.8,,5324,68.4,9.1,6.8
2018,1,24,08:00,UTC,,1000.3,93,,,-5.6,,5880,65.3,7.7,6.3
2018,1,24,09:00,UTC,,999.5,93,,,-4.5,,5775,69.4,8.8,6.7
2018,1,24,10:00,UTC,,998.7,92,,,-3.9,,5184,68.9,9.4,6.9
2018,1,24,11:00,UTC,,997.7,93,,,-3.4,,4142,69.4,10.4,7.2
2018,1,24,12:00,UTC,,996.9,92,,,-3,,4140,73.6,10.7,7.1
2018,1,24,13:00,UTC,,996.5,92,,,-3.3,,3730,75.1,9.6,6.8
2018,1,24,14:00,UTC,,995.8,91,,,-3.8,,5365,76.1,10.8,7.2
2018,1,24,15:00,UTC,,995,89,,,-4.2,,7548,74.1,11.3,7.9
2018,1,24,16:00,UTC,,994.9,90,,,-4.6,,8620,75.1,9.4,7.1
2018,1,24,17:00,UTC,,994.2,87,,,-4.7,,45794,74.6,9.8,6.8
2018,1,24,18:00,UTC,,993.4,87,,,-4.7,,15843,74.6,9.4,6.8
2018,1,24,19:00,UTC,,992.9,87,,,-4.6,,50000,72,9.6,6.2
2018,1,24,20:00,UTC,,992.4,87,,,-4.4,,50000,72,8.5,6.1
2018,1,24,21:00,UTC,,991.7,88,,,-4.2,,48209,72.5,9.2,7.4
2018,1,24,22:00,UTC,,990.2,89,,,-3.9,,45537,72.5,10.3,7.5
2018,1,24,23:00,UTC,,988.5,92,,,-4,,6439,66.4,10.2,7.8
2018,1,25,00:00,UTC,,985.2,94,,,-3.7,,3528,62.8,10.9,8.7
2018,1,25,01:00,UTC,,982.9,95,,,-3,,3179,65.3,14.7,11
2018,1,25,02:00,UTC,,981,93,,,-1.6,,3860,70,13.2,10.4
2018,1,25,03:00,UTC,,979.4,96,,,-0.7,,4743,74.1,12.7,8.5
2018,1,25,04:00,UTC,,978.9,96,,,0.8,,22587,80.8,9,6.5
2018,1,25,05:00,UTC,,978.7,95,,,1.6,,15605,81.3,9.1,6.8
2018,1,25,06:00,UTC,,978.5,95,,,1.8,,50000,78.7,8.5,5.9
2018,1,25,07:00,UTC,,978.5,95,,,2,,27556,80.3,7.9,5.3
2018,1,25,08:00,UTC,,978.6,95,,,2.2,,50000,79.2,8,5.3
2018,1,25,09:00,UTC,,978.6,95,,,2.1,,33783,78.7,7.5,5.6
2018,1,25,10:00,UTC,,978.5,95,,,2.3,,13819,77.2,7.7,5.7
2018,1,25,11:00,UTC,,978,96,,,2.1,,22720,76.1,8.4,6.3
2018,1,25,12:00,UTC,,977.5,96,,,2.3,,17580,80.8,7.4,5.7
2018,1,25,13:00,UTC,,976.9,96,,,2,,49367,76.7,7.5,5.5
2018,1,25,14:00,UTC,,976.9,96,,,1.5,,34596,81.3,8.2,5.6
2018,1,25,15:00,UTC,,977,97,,,1.7,,13147,87.5,7,4.8
2018,1,25,16:00,UTC,,977.7,97,,,1.9,,8877,112.1,9.8,6.3
2018,1,25,17:00,UTC,,978.7,98,,,1.4,,7189,113.2,7.3,5.2
2018,1,25,18:00,UTC,,980,97,,,1.1,,10847,117.8,9,6.3
2018,1,25,19:00,UTC,,981.6,96,,,-0.1,,7636,129.6,10.8,6.9
2018,1,25,20:00,UTC,,983.5,94,,,-1.5,,11214,132.2,11.5,7.7
2018,1,25,21:00,UTC,,985.5,91,,,-2.5,,36015,133.2,10.6,7.1
2018,1,25,22:00,UTC,,987.4,93,,,-3.5,,7075,134.8,10.4,7.9
2018,1,25,23:00,UTC,,989.4,88,,,-3.9,,50000,136.3,11,8
2018,1,26,00:00,UTC,,991,88,,,-4.2,,50000,134.3,11.5,8.1
2018,1,26,01:00,UTC,,992.5,87,,,-4.5,,50000,135.8,8.2,6.1
2018,1,26,02:00,UTC,,994.1,83,,,-4.7,,50000,132.7,7.2,5.3
2018,1,26,03:00,UTC,,995.3,81,,,-5.5,,50000,142,5.8,4.7
2018,1,26,04:00,UTC,,996.7,87,,,-7.1,,50000,114.7,2.5,2
2018,1,26,05:00,UTC,,997.8,94,,,-9.1,,50000,121.9,1.2,0.7
2018,1,26,06:00,UTC,,998.5,94,,,-8,,50000,98.3,4.5,2.7
2018,1,26,07:00,UTC,,999.2,93,,,-8.1,,50000,93.6,2.8,2.4
2018,1,26,08:00,UTC,,1000.2,92,,,-9.3,,45662,61.7,2.6,2.3
2018,1,26,09:00,UTC,,1001,95,,,-6,,47403,89,4.1,3
2018,1,26,10:00,UTC,,1002.1,94,,,-3.1,,50000,103.9,4.5,3.3
2018,1,26,11:00,UTC,,1002.7,93,,,-2.3,,48414,104.4,4.8,3.7
2018,1,26,12:00,UTC,,1003.4,94,,,-1.5,,42823,104.9,5.4,4
2018,1,26,13:00,UTC,,1004.1,95,,,-2,,50000,106.5,3.5,2.6
2018,1,26,14:00,UTC,,1005.1,97,,,-2.6,,50000,105.5,2.5,1.9
2018,1,26,15:00,UTC,,1005.8,97,,,-3,,47464,101.9,4.7,2.9
2018,1,26,16:00,UTC,,1006.5,97,,,-3.3,,40071,96.7,6.1,2.7
2018,1,26,17:00,UTC,,1007,97,,,-4.6,,46727,92.6,3.8,2.6
2018,1,26,18:00,UTC,,1007.6,97,,,-4.8,,19265,90,3.9,2.9
2018,1,26,19:00,UTC,,1008.4,97,,,-4.2,,50000,88.5,3,2.4
2018,1,26,20:00,UTC,,1009,96,,,-3.6,,46642,84.4,2.3,1.8
2018,1,26,21:00,UTC,,1009.4,97,,,-2.6,,50000,93.1,3.1,1.9
2018,1,26,22:00,UTC,,1010.4,97,,,-2.4,,47019,80.3,2.9,2.1
2018,1,26,23:00,UTC,,1011.1,95,,,-1.2,,50000,107,3,2.2
2018,1,27,00:00,UTC,,1011.6,96,,,-1.3,,50000,104.9,3.1,2.2
2018,1,27,01:00,UTC,,1012.1,94,,,-1.3,,50000,102.4,3.7,2.8
2018,1,27,02:00,UTC,,1012.6,94,,,-1.3,,48026,113.7,2.7,1.8
2018,1,27,03:00,UTC,,1013,93,,,-1.6,,50000,144.6,1.8,1.2
2018,1,27,04:00,UTC,,1013.6,95,,,-1.7,,48764,169.3,1.3,0.9
2018,1,27,05:00,UTC,,1014.1,97,,,-2.1,,6025,6.2,1.6,1.1
2018,1,27,06:00,UTC,,1014.7,97,,,-2.3,,6013,81.8,0.6,0.3
2018,1,27,07:00,UTC,,1015,98,,,-2.7,,35076,148.2,1.1,0.7
2018,1,27,08:00,UTC,,1015.6,97,,,-2.2,,31543,85.9,3.3,1.4
2018,1,27,09:00,UTC,,1015.7,97,,,-2,,14211,77.2,1.3,0.9
2018,1,27,10:00,UTC,,1015.9,96,,,-2.2,,50000,20.1,2.8,1.7
2018,1,27,11:00,UTC,,1016,96,,,-2.3,,16262,13.9,0.8,0.5
2018,1,27,12:00,UTC,,1016.1,97,,,-2.2,,10424,8.7,1.4,1.1
2018,1,27,13:00,UTC,,1016.1,96,,,-2.4,,11724,17.5,1.8,1.2
2018,1,27,14:00,UTC,,1016.4,97,,,-2.4,,5790,24.2,1.9,0.8
2018,1,27,15:00,UTC,,1016.2,95,,,-2.4,,40116,9.3,1.1,0.8
2018,1,27,16:00,UTC,,1016.1,95,,,-2.5,,50000,183.7,2.2,1.6
2018,1,27,17:00,UTC,,1015.9,95,,,-2.6,,24992,56.6,1.2,0.7
2018,1,27,18:00,UTC,,1015.8,95,,,-2.6,,32437,6.7,0.8,0.6
2018,1,27,19:00,UTC,,1015.1,93,,,-2.4,,50000,36,2.5,1.4
2018,1,27,20:00,UTC,,1015,91,,,-2.3,,50000,37,2.4,1.7
2018,1,27,21:00,UTC,,1014.6,91,,,-2.6,,50000,39.1,3.7,2
2018,1,27,22:00,UTC,,1014.6,87,,,-2.8,,50000,34,1.9,1.2
2018,1,27,23:00,UTC,,1014.2,90,,,-3,,50000,64.8,2.2,1.6
2018,1,28,00:00,UTC,,1013.9,88,,,-3.2,,50000,38.6,2.8,2
2018,1,28,01:00,UTC,,1013.5,89,,,-3.4,,50000,41.7,2.3,1.1
2018,1,28,02:00,UTC,,1013.2,92,,,-3.6,,50000,43.2,1.4,1
2018,1,28,03:00,UTC,,1012.7,91,,,-4,,50000,15.9,2.8,1.3
2018,1,28,04:00,UTC,,1012.3,93,,,-4.3,,50000,27.8,3,1.8
2018,1,28,05:00,UTC,,1011.9,94,,,-4.6,,50000,173.4,2.5,1.8
2018,1,28,06:00,UTC,,1011.5,95,,,-4.8,,41645,157.9,1.6,1.4
2018,1,28,07:00,UTC,,1011.4,95,,,-4.8,,34928,174.4,1.6,1
2018,1,28,08:00,UTC,,1011.5,94,,,-4.8,,45099,167.2,1.9,1.2
2018,1,28,09:00,UTC,,1011.3,94,,,-4.4,,50000,169.8,1.8,1.1
2018,1,28,10:00,UTC,,1011,94,,,-4.3,,50000,1,3,2
2018,1,28,11:00,UTC,,1010.9,94,,,-4.5,,50000,10.8,2.9,1.9
2018,1,28,12:00,UTC,,1010.4,93,,,-4.4,,50000,14.9,2.2,1.5
2018,1,28,13:00,UTC,,1010.3,94,,,-5.1,,50000,12.9,1.7,1.2
2018,1,28,14:00,UTC,,1010,95,,,-4.9,,50000,8.2,2.1,1.5
2018,1,28,15:00,UTC,,1010.1,95,,,-4.9,,34550,181.1,2.1,1.1
2018,1,28,16:00,UTC,,1009.7,95,,,-4.9,,50000,183.1,3,1.9
2018,1,28,17:00,UTC,,1009.7,95,,,-4.7,,12802,10.3,2.3,1.6
2018,1,28,18:00,UTC,,1009.6,95,,,-4.5,,31714,8.2,2.8,2
2018,1,28,19:00,UTC,,1009.6,95,,,-4.6,,49321,9.3,2.2,1.6
2018,1,28,20:00,UTC,,1009.5,95,,,-4.5,,50000,13.4,2.3,1.9
2018,1,28,21:00,UTC,,1009.4,95,,,-4.2,,50000,10.8,1.8,1.2
2018,1,28,22:00,UTC,,1009.5,95,,,-3.8,,50000,18,2.3,1.5
2018,1,28,23:00,UTC,,1009.5,95,,,-3.5,,24404,9.3,2.2,1.6
2018,1,29,00:00,UTC,,1009.4,96,,,-3.2,,24800,18,2.1,1.5
2018,1,29,01:00,UTC,,1009.3,96,,,-2.9,,37695,16.5,1.6,1.2
2018,1,29,02:00,UTC,,1009.3,96,,,-2.6,,50000,35.5,2.1,1.3
2018,1,29,03:00,UTC,,1009,96,,,-2.3,,46166,46.8,3.2,2.2
2018,1,29,04:00,UTC,,1009,96,,,-2.5,,47096,42.7,2.6,1.8
2018,1,29,05:00,UTC,,1009,96,,,-2.8,,45579,41.2,2.9,2
2018,1,29,06:00,UTC,,1008.7,96,,,-3,,50000,46.8,3.8,2.5
2018,1,29,07:00,UTC,,1009,96,,,-2.8,,50000,46.8,2.9,1.9
2018,1,29,08:00,UTC,,1008.9,96,,,-2.9,,37536,46.3,3.1,2.2
2018,1,29,09:00,UTC,,1008.8,95,,,-2.9,,23079,46.8,3.3,2.2
2018,1,29,10:00,UTC,,1008.5,96,,,-2.7,,20358,46.3,3.3,2.1
2018,1,29,11:00,UTC,,1008.3,95,,,-2.6,,50000,46.3,3.3,2.3
2018,1,29,12:00,UTC,,1007.9,94,,,-2.4,,50000,44.2,2.4,1.6
2018,1,29,13:00,UTC,,1007.7,94,,,-2.7,,45634,42.7,3.9,2.4
2018,1,29,14:00,UTC,,1007.5,96,,,-4.7,,5828,35.5,2.3,1.3
2018,1,29,15:00,UTC,,1007.5,97,,,-4.7,,50000,48.9,3,1.2
2018,1,29,16:00,UTC,,1007.2,96,,,-5.6,,7082,28.8,2.3,1.1
2018,1,29,17:00,UTC,,1006.9,95,,,-7.4,,14447,30.9,2.1,1.4
2018,1,29,18:00,UTC,,1006.6,94,,,-8.2,,50000,29.3,2.8,1.7
2018,1,29,19:00,UTC,,1006.4,95,,,-6.8,,47377,26.2,3.3,1.6
2018,1,29,20:00,UTC,,1006.4,93,,,-8.3,,6662,21.1,1.1,0.7
2018,1,29,21:00,UTC,,1006.2,92,,,-10.5,,50000,3.6,1.9,1.4
2018,1,29,22:00,UTC,,1006,95,,,-6.2,,20519,16.5,2.8,1.9
2018,1,29,23:00,UTC,,1005.6,95,,,-5.9,,48655,21.1,3.3,2.3
2018,1,30,00:00,UTC,,1005.5,95,,,-5.6,,46421,24.7,3.5,2.6
2018,1,30,01:00,UTC,,1005.3,96,,,-5.5,,49316,21.1,3,2.3
2018,1,30,02:00,UTC,,1004.9,95,,,-5.4,,23970,22.1,3.5,2.5
2018,1,30,03:00,UTC,,1004.7,96,,,-5,,10345,29.3,3.4,2.2
2018,1,30,04:00,UTC,,1004.7,94,,,-5.2,,50000,26.8,3.4,2.4
2018,1,30,05:00,UTC,,1004.7,95,,,-5.7,,34873,15.9,3.4,2.3
2018,1,30,06:00,UTC,,1004.7,93,,,-5.4,,50000,15.4,3.3,2.4
2018,1,30,07:00,UTC,,1005,93,,,-5.5,,37673,17,3,2.1
2018,1,30,08:00,UTC,,1005.4,94,,,-5.6,,15170,19.5,2.3,1.7
2018,1,30,09:00,UTC,,1005.8,94,,,-5.4,,8417,24.7,2.3,1.5
2018,1,30,10:00,UTC,,1005.9,94,,,-5.1,,7011,25.7,2.5,1.5
2018,1,30,11:00,UTC,,1006,94,,,-5,,7876,14.4,2.2,1.4
2018,1,30,12:00,UTC,,1006,93,,,-5,,15620,13.4,2.3,1.6
2018,1,30,13:00,UTC,,1006.3,94,,,-5.2,,8927,17,2.7,1.9
2018,1,30,14:00,UTC,,1006.5,95,,,-6.3,,13325,21.1,1.8,1.4
2018,1,30,15:00,UTC,,1006.7,96,,,-6.8,,12832,19,1.6,1.3
2018,1,30,16:00,UTC,,1006.9,96,,,-5.8,,34706,15.9,2.5,1.3
2018,1,30,17:00,UTC,,1007.2,95,,,-5.8,,6306,27.3,2.4,1.8
2018,1,30,18:00,UTC,,1007.5,94,,,-5.6,,13613,47.8,1.6,1.1
2018,1,30,19:00,UTC,,1007.6,93,,,-6,,11954,44.2,2.1,1.5
2018,1,30,20:00,UTC,,1007.8,95,,,-8,,16044,60.2,0.6,0.4
2018,1,30,21:00,UTC,,1008.1,93,,,-10.4,,9808,39.1,0.9,0.7
2018,1,30,22:00,UTC,,1008.2,92,,,-10.1,,11570,27.3,0.9,0.7
2018,1,30,23:00,UTC,,1008.3,93,,,-8.6,,48601,49.4,1.4,1
2018,1,31,00:00,UTC,,1008.2,94,,,-7.7,,20821,143,1.3,0.6
2018,1,31,01:00,UTC,,1008.2,94,,,-7.5,,50000,146.1,1.3,0.9
2018,1,31,02:00,UTC,,1008.4,94,,,-6.9,,50000,72.5,2.8,1.8
2018,1,31,03:00,UTC,,1008.5,93,,,-7.4,,50000,118.8,2.1,1
2018,1,31,04:00,UTC,,1008.3,94,,,-7.9,,50000,22.6,0.9,0.6
2018,1,31,05:00,UTC,,1008.4,93,,,-8.5,,48278,104.4,1.6,0.7
2018,1,31,06:00,UTC,,1008.6,93,,,-8.4,,50000,148.2,0.8,0.4
2018,1,31,07:00,UTC,,1008.8,93,,,-8.2,,43512,25.2,0.8,0.5
2018,1,31,08:00,UTC,,1009.1,93,,,-7.6,,18825,55,1.1,0.9
2018,1,31,09:00,UTC,,1009.2,93,,,-7.5,,40005,63.3,2.3,2
2018,1,31,10:00,UTC,,1009.4,93,,,-6.9,,50000,76.1,1.9,1.5
2018,1,31,11:00,UTC,,1009.2,87,,,-6.4,,50000,97.2,3.3,2.3
2018,1,31,12:00,UTC,,1009.1,87,,,-6.6,,49282,97.2,4.1,1.9
2018,1,31,13:00,UTC,,1009.1,89,,,-6.9,,48146,25.2,2.5,1.7
2018,1,31,14:00,UTC,,1008.8,93,,,-7.9,,50000,17,0.8,0.6
2018,1,31,15:00,UTC,,1008.9,94,,,-9.8,,37683,52,2.2,2
2018,1,31,16:00,UTC,,1008.7,93,,,-11,,38400,67.9,1.9,1.5
2018,1,31,17:00,UTC,,1008.9,91,,,-12.3,,9543,68.4,2.1,1.1
2018,1,31,18:00,UTC,,1009,88,,,-16.3,,50000,38.1,2.2,1.3
2018,1,31,19:00,UTC,,1008.9,91,,,-12.1,,38400,47.3,2.1,1.5
2018,1,31,20:00,UTC,,1008.7,92,,,-10,,39838,39.1,3.8,2.3
2018,1,31,21:00,UTC,,1008.7,91,,,-10.9,,50000,47.8,4.1,2.8
2018,1,31,22:00,UTC,,1008.7,90,,,-13,,44645,54.5,3.3,2.5
2018,1,31,23:00,UTC,,1009.2,88,,,-15.3,,50000,60.7,3.4,2.6
2018,2,1,00:00,UTC,,1009.2,88,,,-15.1,,39490,50.9,4.5,3.2
2018,2,1,01:00,UTC,,1009.2,89,,,-14.3,,6385,49.9,4.3,3.1
2018,2,1,02:00,UTC,,1008.9,88,,,-15,,10407,51.4,3.4,2.6
2018,2,1,03:00,UTC,,1008.9,88,,,-14.3,,39225,47.8,3.4,2.4
2018,2,1,04:00,UTC,,1009.2,89,,,-14.7,,50000,48.9,3.7,2.7
2018,2,1,05:00,UTC,,1009.1,88,,,-15.1,,50000,43.7,4,2.4
2018,2,1,06:00,UTC,,1009.5,87,,,-15.5,,50000,42.2,5.6,3.7
2018,2,1,07:00,UTC,,1010.1,87,,,-16.5,,48681,42.2,3,1.7
2018,2,1,08:00,UTC,,1010.6,86,,,-16.6,,50000,41.7,3.7,2.4
2018,2,1,09:00,UTC,,1010.4,86,,,-16.3,,50000,34.5,3.9,2.6
2018,2,1,10:00,UTC,,1010.4,87,,,-15.5,,50000,37,4.4,2.7
2018,2,1,11:00,UTC,,1010.2,87,,,-14.9,,50000,33.4,5.2,3
2018,2,1,12:00,UTC,,1010,87,,,-14.5,,49988,37.6,4.9,3.2
2018,2,1,13:00,UTC,,1010.1,87,,,-14.5,,50000,42.2,4.6,2.9
2018,2,1,14:00,UTC,,1010.2,87,,,-15.5,,50000,29.8,3.7,2.3
2018,2,1,15:00,UTC,,1010.2,87,,,-15.5,,50000,31.4,5.2,3.2
2018,2,1,16:00,UTC,,1010.3,87,,,-15.6,,50000,31.4,4.1,2.8
2018,2,1,17:00,UTC,,1010.6,87,,,-15.2,,50000,34.5,5.2,3
2018,2,1,18:00,UTC,,1010.6,87,,,-16.2,,50000,27.3,4,3
2018,2,1,19:00,UTC,,1010.8,87,,,-16.5,,50000,25.7,4.2,3.1
2018,2,1,20:00,UTC,,1010.7,86,,,-16.4,,50000,26.2,5.1,3.5
2018,2,1,21:00,UTC,,1010.5,86,,,-16.1,,50000,27.3,5.4,3.7
2018,2,1,22:00,UTC,,1010.7,86,,,-15.8,,50000,25.7,5.1,3.3
2018,2,1,23:00,UTC,,1010.8,86,,,-16.2,,50000,21.6,3.5,2.6
2018,2,2,00:00,UTC,,1010.9,86,,,-15.4,,50000,24.2,4.1,2.7
2018,2,2,01:00,UTC,,1010.7,85,,,-15.1,,50000,29.8,7.5,4.8
2018,2,2,02:00,UTC,,1010.4,85,,,-15,,50000,25.7,7.6,4.9
2018,2,2,03:00,UTC,,1010.4,84,,,-15,,50000,28.3,6.7,4.6
2018,2,2,04:00,UTC,,1010.5,85,,,-15.1,,50000,28.3,6.2,3.6
2018,2,2,05:00,UTC,,1010.4,84,,,-14.6,,50000,30.4,6.9,4.7
2018,2,2,06:00,UTC,,1010.7,84,,,-14.4,,50000,24.7,6.4,4.6
2018,2,2,07:00,UTC,,1010.7,84,,,-14.5,,50000,23.1,6.2,4.3
2018,2,2,08:00,UTC,,1010.9,84,,,-14,,50000,22.1,6.9,5.3
2018,2,2,09:00,UTC,,1011.1,84,,,-13.5,,50000,21.1,6.2,4.1
2018,2,2,10:00,UTC,,1011.1,84,,,-13.2,,50000,20.1,5.4,3.7
2018,2,2,11:00,UTC,,1011,82,,,-12.4,,50000,25.7,6.7,4.8
2018,2,2,12:00,UTC,,1011,83,,,-11.9,,26388,18,7.4,3.7
2018,2,2,13:00,UTC,,1011.2,83,,,-12.2,,50000,23.1,6.9,4.8
2018,2,2,14:00,UTC,,1011.6,84,,,-12.2,,50000,23.1,6.1,4.7
2018,2,2,15:00,UTC,,1011.9,85,,,-12.1,,50000,23.7,5,3.5
2018,2,2,16:00,UTC,,1012.1,85,,,-12.1,,50000,22.1,5.6,3.8
2018,2,2,17:00,UTC,,1012.5,85,,,-13,,50000,15.4,5,3.6
2018,2,2,18:00,UTC,,1013.1,86,,,-14.4,,50000,17,4.8,3.1
2018,2,2,19:00,UTC,,1013.3,87,,,-16.7,,50000,8.7,3.5,2.6
2018,2,2,20:00,UTC,,1013.8,87,,,-16,,50000,10.3,4.3,3.3
2018,2,2,21:00,UTC,,1014.1,87,,,-16.3,,48038,13.4,4,3.2
2018,2,2,22:00,UTC,,1014.1,88,,,-16.9,,50000,16.5,2.7,2.1
2018,2,2,23:00,UTC,,1014.3,88,,,-15.9,,50000,12.3,4.4,3
2018,2,3,00:00,UTC,,1014.6,87,,,-15.9,,50000,12.9,4.1,3.1
2018,2,3,01:00,UTC,,1014.6,87,,,-17.1,,50000,2.1,2.7,1.5
2018,2,3,02:00,UTC,,1014.8,86,,,-18,,50000,177,1.4,0.9
2018,2,3,03:00,UTC,,1015,87,,,-17,,50000,11.8,4.6,2.5
2018,2,3,04:00,UTC,,1015,87,,,-16.8,,50000,11.3,4.1,2.8
2018,2,3,05:00,UTC,,1015.6,87,,,-16.1,,50000,12.3,4,2.8
2018,2,3,06:00,UTC,,1016.2,87,,,-16.5,,50000,12.9,4,2.6
2018,2,3,07:00,UTC,,1016.8,87,,,-17.5,,44024,12.3,2.1,1.2
2018,2,3,08:00,UTC,,1017.3,88,,,-17.2,,46982,182.6,2.1,1.1
2018,2,3,09:00,UTC,,1017.5,87,,,-14.9,,38804,29.8,2,1.3
2018,2,3,10:00,UTC,,1017.8,88,,,-14.4,,45525,171.8,0.9,0.5
2018,2,3,11:00,UTC,,1018.2,88,,,-13.3,,47415,180.1,2.6,1.8
2018,2,3,12:00,UTC,,1018.7,87,,,-12.7,,50000,182.1,3,1.9
2018,2,3,13:00,UTC,,1019.1,87,,,-12.7,,50000,178,2,1.3
2018,2,3,14:00,UTC,,1019.4,88,,,-13.7,,50000,171.3,3.7,2.4
2018,2,3,15:00,UTC,,1019.8,89,,,-15.7,,50000,167.7,1.8,1
2018,2,3,16:00,UTC,,1020.3,89,,,-15.5,,50000,175.9,2.7,1.6
2018,2,3,17:00,UTC,,1021,88,,,-15.5,,50000,181.6,2.5,1.9
2018,2,3,18:00,UTC,,1021.6,88,,,-15.8,,50000,178,2.9,2.1
2018,2,3,19:00,UTC,,1022.4,88,,,-17.2,,16913,174.9,2.7,1.9
2018,2,3,20:00,UTC,,1022.9,86,,,-18.3,,50000,174.4,1.9,1.3
2018,2,3,21:00,UTC,,1023.1,86,,,-17.9,,50000,179.5,3.1,2.1
2018,2,3,22:00,UTC,,1023.6,84,,,-19.4,,50000,1.5,1.5,0.9
2018,2,3,23:00,UTC,,1024.5,86,,,-19.3,,24892,179,2.2,1.1
2018,2,4,00:00,UTC,,1025.1,83,,,-21.1,,50000,174.4,2.7,1.9
2018,2,4,01:00,UTC,,1025.3,85,,,-19.7,,19584,172.9,2,1.4
2018,2,4,02:00,UTC,,1025.5,83,,,-20.7,,50000,179,3,1.5
2018,2,4,03:00,UTC,,1026.1,83,,,-21.3,,47827,163.6,3,2.5
2018,2,4,04:00,UTC,,1026.7,84,,,-19.9,,50000,173.4,2.8,1.9
2018,2,4,05:00,UTC,,1026.9,84,,,-19.9,,50000,178,2.9,1.9
2018,2,4,06:00,UTC,,1027.2,85,,,-18.9,,50000,171.3,3.3,2.4
2018,2,4,07:00,UTC,,1027.8,84,,,-19.2,,50000,170.8,2.9,1.9
2018,2,4,08:00,UTC,,1028,85,,,-18.6,,50000,170.8,3.3,2.4
2018,2,4,09:00,UTC,,1028.7,85,,,-18.1,,47659,173.9,4.2,2.9
2018,2,4,10:00,UTC,,1028.9,85,,,-17.3,,50000,169.8,3,1.4
2018,2,4,11:00,UTC,,1028.8,84,,,-18.4,,50000,151.8,3.4,2.8
2018,2,4,12:00,UTC,,1029,85,,,-17.9,,50000,155.9,3.1,2.1
2018,2,4,13:00,UTC,,1029.3,85,,,-17.4,,50000,177,1.4,1
2018,2,4,14:00,UTC,,1029.6,85,,,-18.9,,50000,150.2,2.1,1.9
2018,2,4,15:00,UTC,,1029.9,84,,,-19.5,,50000,162,1.6,1.3
2018,2,4,16:00,UTC,,1029.8,84,,,-20,,50000,150.7,1.9,1.6
2018,2,4,17:00,UTC,,1029.9,84,,,-20.2,,50000,153.8,1.6,1.2
2018,2,4,18:00,UTC,,1030.2,82,,,-22.7,,50000,136.8,1.5,0.9
2018,2,4,19:00,UTC,,1030.2,82,,,-23.1,,38221,133.2,0.8,0.6
2018,2,4,20:00,UTC,,1030.2,80,,,-23.9,,50000,151.8,1.4,0.8
2018,2,4,21:00,UTC,,1030.1,82,,,-23.4,,50000,75.6,1.3,0.6
2018,2,4,22:00,UTC,,1030,81,,,-24.5,,50000,128.1,1.1,0.7
2018,2,4,23:00,UTC,,1030.6,80,,,-24.8,,50000,141.5,2.4,1.8
2018,2,5,00:00,UTC,,1030.4,79,,,-25.1,,12979,153.8,1.4,0.9
2018,2,5,01:00,UTC,,1030.3,83,,,-22.5,,3405,65.3,1.9,1.5
2018,2,5,02:00,UTC,,1030.3,82,,,-22.1,,2268,71.5,2.1,1.8
2018,2,5,03:00,UTC,,1030.7,84,,,-20.9,,807,79.2,0.9,0.7
2018,2,5,04:00,UTC,,1030.9,83,,,-20.8,,916,62.8,3.9,3.5
2018,2,5,05:00,UTC,,1030.6,83,,,-20.6,,719,61.2,3.4,3.1
2018,2,5,06:00,UTC,,1031,84,,,-20.1,,14012,67.9,3.7,3.3
2018,2,5,07:00,UTC,,1030.9,84,,,-19.7,,528,57.1,0.9,0.7
2018,2,5,08:00,UTC,,1031.3,83,,,-20.4,,1008,60.2,3.3,2.9
2018,2,5,09:00,UTC,,1031.5,83,,,-20.2,,979,62.2,3.4,3
2018,2,5,10:00,UTC,,1031.3,84,,,-19,,11865,66.4,2.4,2
2018,2,5,11:00,UTC,,1030.8,84,,,-18.9,,14943,64.8,1.9,1.5
2018,2,5,12:00,UTC,,1031,84,,,-18.3,,41855,60.7,2.7,2.3
2018,2,5,13:00,UTC,,1030.7,85,,,-17.8,,8649,45.8,1,0.7
2018,2,5,14:00,UTC,,1030.6,84,,,-19,,50000,70.5,1.1,0.8
2018,2,5,15:00,UTC,,1030.5,83,,,-20.4,,21896,75.6,1.1,0.9
2018,2,5,16:00,UTC,,1030.4,82,,,-22.2,,50000,47.8,1.5,1.1
2018,2,5,17:00,UTC,,1030.3,82,,,-22.6,,50000,59.2,2.4,2.1
2018,2,5,18:00,UTC,,1029.8,80,,,-24.4,,50000,6.2,1.1,1
2018,2,5,19:00,UTC,,1029.8,81,,,-23.9,,50000,162,0.8,0.6
2018,2,5,20:00,UTC,,1029.5,81,,,-24.6,,2102,181.1,2.8,1.9
2018,2,5,21:00,UTC,,1029,81,,,-24.3,,49522,15.9,2.1,1.5
2018,2,5,22:00,UTC,,1028.8,80,,,-24.4,,50000,14.9,1.7,1.2
2018,2,5,23:00,UTC,,1028,80,,,-24,,42547,184.2,2.8,1.9
2018,2,6,00:00,UTC,,1027.1,80,,,-22.6,,28305,7.2,2.2,1.5
2018,2,6,01:00,UTC,,1026.6,81,,,-22,,4517,183.1,1.9,1.2
2018,2,6,02:00,UTC,,1025.8,81,,,-22.9,,3662,172.9,1.6,0.9
2018,2,6,03:00,UTC,,1024.9,83,,,-21,,50000,180.6,2.1,1.4
2018,2,6,04:00,UTC,,1024.3,81,,,-24.2,,50000,1.5,2.9,2.1
2018,2,6,05:00,UTC,,1024.1,82,,,-23.1,,50000,178,1.8,1
2018,2,6,06:00,UTC,,1022.6,84,,,-19.9,,50000,11.8,3,1.6
2018,2,6,07:00,UTC,,1021.9,86,,,-17.4,,50000,17,3.1,1.5
2018,2,6,08:00,UTC,,1020.6,87,,,-15.3,,49919,24.7,6.3,3.8
2018,2,6,09:00,UTC,,1019.6,88,,,-14.3,,50000,24.2,7,4.2
2018,2,6,10:00,UTC,,1018.5,88,,,-13.7,,47805,33.4,5.1,3.2
2018,2,6,11:00,UTC,,1017.5,89,,,-12.7,,42584,35.5,5.8,3.6
2018,2,6,12:00,UTC,,1016.8,89,,,-12,,4590,37,5.3,3.5
2018,2,6,13:00,UTC,,1016.3,89,,,-11.7,,14933,30.4,4.3,2.7
2018,2,6,14:00,UTC,,1015.6,90,,,-11.4,,13772,30.4,4,2.4
2018,2,6,15:00,UTC,,1014.8,90,,,-11.1,,50000,24.7,3.9,2.4
2018,2,6,16:00,UTC,,1014.3,90,,,-10.6,,17642,29.8,4.3,2.5
2018,2,6,17:00,UTC,,1014.2,91,,,-10.2,,9822,25.2,3.8,2.4
2018,2,6,18:00,UTC,,1013.7,91,,,-10,,6233,32.4,4.4,2.5
2018,2,6,19:00,UTC,,1013.4,92,,,-9.6,,5292,39.1,4.8,2.7
2018,2,6,20:00,UTC,,1013.3,92,,,-9.3,,6610,48.4,4.6,3.2
2018,2,6,21:00,UTC,,1013.3,92,,,-9.1,,8459,64.3,7.2,5.6
2018,2,6,22:00,UTC,,1013.4,92,,,-9.4,,8219,64.3,6.8,5.5
2018,2,6,23:00,UTC,,1013.4,91,,,-10.3,,50000,63.3,6.8,5.3
2018,2,7,00:00,UTC,,1013.2,91,,,-10.3,,49037,64.8,7.6,6.3
2018,2,7,01:00,UTC,,1013.3,88,,,-13.7,,50000,62.8,5.7,4.3
2018,2,7,02:00,UTC,,1013.3,88,,,-14.7,,50000,61.7,5.1,4.4
2018,2,7,03:00,UTC,,1013.2,87,,,-15.4,,50000,60.2,4,2.9
2018,2,7,04:00,UTC,,1012.9,86,,,-16.2,,50000,57.1,4.6,3.4
2018,2,7,05:00,UTC,,1012.4,88,,,-16.4,,31567,58.1,5.3,3.6
2018,2,7,06:00,UTC,,1012.2,86,,,-16.7,,34445,55.6,4.9,3.6
2018,2,7,07:00,UTC,,1012,88,,,-14.9,,50000,53,5,3.8
2018,2,7,08:00,UTC,,1011.6,86,,,-15.7,,50000,58.1,5.1,4
2018,2,7,09:00,UTC,,1011.4,88,,,-14.4,,25010,62.8,6.4,5.3
2018,2,7,10:00,UTC,,1011.1,87,,,-14.1,,18706,62.8,5.8,4.7
2018,2,7,11:00,UTC,,1010.7,87,,,-13.6,,37427,65.3,5.3,4.3
2018,2,7,12:00,UTC,,1010.3,87,,,-12.9,,45624,69.4,5.8,4.4
2018,2,7,13:00,UTC,,1010.1,87,,,-13.6,,28290,67.9,5.5,4.5
2018,2,7,14:00,UTC,,1010.1,87,,,-13.6,,13673,64.8,4.9,3.8
2018,2,7,15:00,UTC,,1010,88,,,-12.9,,8822,64.8,6.1,4.7
2018,2,7,16:00,UTC,,1009.9,87,,,-12.9,,8808,68.4,5.1,4.3
2018,2,7,17:00,UTC,,1009.8,87,,,-13.3,,11872,68.4,4.6,3.7
2018,2,7,18:00,UTC,,1009.7,88,,,-13.5,,9463,68.4,4.1,3.4
2018,2,7,19:00,UTC,,1009.9,88,,,-14.3,,11243,72.5,3.6,3.1
2018,2,7,20:00,UTC,,1009.8,88,,,-14.5,,30094,79.2,3.4,2.8
2018,2,7,21:00,UTC,,1010.3,89,,,-15,,50000,79.2,3.5,2.6
2018,2,7,22:00,UTC,,1010.6,88,,,-17.3,,7229,71.5,1.5,1
2018,2,7,23:00,UTC,,1010.7,87,,,-17.8,,6013,64.3,2.6,2
2018,2,8,00:00,UTC,,1010.9,87,,,-17.4,,10993,64.3,2.1,1.9
2018,2,8,01:00,UTC,,1011.1,87,,,-18.6,,29514,65.8,2.9,2.6
2018,2,8,02:00,UTC,,1011.1,85,,,-19.9,,50000,75.6,3.2,2.5
2018,2,8,03:00,UTC,,1011.4,87,,,-17,,17201,87.5,4.4,3.4
2018,2,8,04:00,UTC,,1011.4,87,,,-16.2,,11035,80.8,3.9,3.1
2018,2,8,05:00,UTC,,1011.8,87,,,-15.9,,48753,81.3,3.7,2.8
2018,2,8,06:00,UTC,,1012.1,86,,,-16.9,,6538,75.6,2.6,1.7
2018,2,8,07:00,UTC,,1012.2,87,,,-17.4,,35191,71,4.9,3.4
2018,2,8,08:00,UTC,,1012.6,87,,,-16,,36104,70.5,4.2,3.4
2018,2,8,09:00,UTC,,1012.9,88,,,-14.5,,15144,71,4.6,3.3
2018,2,8,10:00,UTC,,1013.1,89,,,-12.2,,33008,77.2,5,3.7
2018,2,8,11:00,UTC,,1013.1,90,,,-11.1,,50000,76.1,5.7,4.1
2018,2,8,12:00,UTC,,1013.3,90,,,-10.4,,47826,76.7,4.5,3.4
2018,2,8,13:00,UTC,,1013.5,91,,,-9.7,,50000,76.7,5.6,4.3
2018,2,8,14:00,UTC,,1013.6,91,,,-9.3,,50000,74.1,6.4,4.6
2018,2,8,15:00,UTC,,1013.8,93,,,-8.6,,48063,76.7,6.2,5
2018,2,8,16:00,UTC,,1013.9,93,,,-7.6,,50000,78.7,6.7,4.8
2018,2,8,17:00,UTC,,1014,92,,,-6.7,,50000,78.2,7.5,5.5
2018,2,8,18:00,UTC,,1014.4,91,,,-5.9,,43977,77.7,6.4,4.7
2018,2,8,19:00,UTC,,1014.4,92,,,-5.1,,37061,78.7,8.3,5.7
2018,2,8,20:00,UTC,,1014.6,93,,,-5,,21243,76.7,8.2,5.8
2018,2,8,21:00,UTC,,1015,93,,,-4.3,,31002,78.7,6.1,4.7
2018,2,8,22:00,UTC,,1015.6,93,,,-3.8,,48363,79.7,4.9,3.7
2018,2,8,23:00,UTC,,1015.9,92,,,-3.8,,50000,80.8,7.2,4.9
2018,2,9,00:00,UTC,,1016.2,92,,,-4.2,,50000,81.3,6.2,4.5
2018,2,9,01:00,UTC,,1016.5,90,,,-3.4,,50000,83.3,6.8,5
2018,2,9,02:00,UTC,,1016.7,87,,,-3.2,,50000,85.4,9.5,5.8
2018,2,9,03:00,UTC,,1017,87,,,-3.4,,50000,83.3,6.4,4.7
2018,2,9,04:00,UTC,,1016.9,87,,,-3.6,,50000,78.7,7.6,5.3
2018,2,9,05:00,UTC,,1017,88,,,-3.8,,50000,78.7,8.5,6.2
2018,2,9,06:00,UTC,,1017.5,88,,,-4,,50000,77.2,7.4,5.5
2018,2,9,07:00,UTC,,1017.8,88,,,-4.1,,50000,77.2,7.4,5.3
2018,2,9,08:00,UTC,,1018,87,,,-4.1,,50000,73.6,7.6,5.8
2018,2,9,09:00,UTC,,1018,86,,,-4.1,,50000,77.7,10,6.9
2018,2,9,10:00,UTC,,1018.4,86,,,-4.1,,46160,78.7,9.4,6.8
2018,2,9,11:00,UTC,,1018.2,86,,,-4.3,,50000,74.6,8.9,6.8
2018,2,9,12:00,UTC,,1018,86,,,-4.7,,50000,74.6,10.7,7.9
2018,2,9,13:00,UTC,,1018,86,,,-4.8,,45282,73.6,8,6.3
2018,2,9,14:00,UTC,,1017.8,86,,,-4.9,,45465,73.6,10.1,7.4
2018,2,9,15:00,UTC,,1018,86,,,-5.4,,50000,75.6,8.2,6.5
2018,2,9,16:00,UTC,,1017.9,86,,,-5.7,,50000,75.1,8.7,6.7
2018,2,9,17:00,UTC,,1018,86,,,-5.7,,50000,75.6,8.3,6.6
2018,2,9,18:00,UTC,,1017.9,87,,,-5.8,,50000,74.1,7.9,6.2
2018,2,9,19:00,UTC,,1018.3,87,,,-5.9,,50000,78.7,8.6,6.1
2018,2,9,20:00,UTC,,1018.1,86,,,-6.1,,50000,76.7,10.7,6.9
2018,2,9,21:00,UTC,,1018.2,87,,,-6.3,,50000,80.8,7.9,5.9
2018,2,9,22:00,UTC,,1018.3,88,,,-6.2,,50000,77.2,8.3,6.4
2018,2,9,23:00,UTC,,1018.2,88,,,-6.1,,44865,80.8,8.9,6.5
2018,2,10,00:00,UTC,,1018.2,87,,,-6,,46684,76.7,8.1,6
2018,2,10,01:00,UTC,,1018.1,88,,,-6,,47067,73.1,6.8,5.2
2018,2,10,02:00,UTC,,1018.1,88,,,-5.9,,41277,73.6,6.8,5.5
2018,2,10,03:00,UTC,,1017.9,88,,,-6,,50000,75.6,7.8,5.7
2018,2,10,04:00,UTC,,1017.8,88,,,-6.5,,50000,79.7,7.1,4.7
2018,2,10,05:00,UTC,,1017.8,89,,,-6.8,,50000,75.1,6.3,4.7
2018,2,10,06:00,UTC,,1017.7,90,,,-7.6,,50000,72.5,6.5,5.1
2018,2,10,07:00,UTC,,1017.6,89,,,-6.6,,48559,79.2,6.8,5.5
2018,2,10,08:00,UTC,,1017.7,90,,,-6,,44734,80.8,8.4,6.3
2018,2,10,09:00,UTC,,1017.8,90,,,-5.4,,43639,82.8,9.1,6.6
2018,2,10,10:00,UTC,,1017.6,87,,,-5,,50000,73.6,8,6
2018,2,10,11:00,UTC,,1017.3,88,,,-4.7,,7484,76.1,7.1,5.4
2018,2,10,12:00,UTC,,1017.3,88,,,-4.2,,50000,77.2,6.7,4.8
2018,2,10,13:00,UTC,,1017.3,89,,,-3.9,,49036,77.7,6.3,4.9
2018,2,10,14:00,UTC,,1017.2,90,,,-3.6,,42568,78.7,6.3,4.4
2018,2,10,15:00,UTC,,1017,90,,,-4.5,,49081,76.1,6.3,4.9
2018,2,10,16:00,UTC,,1017.1,90,,,-5.2,,47240,76.1,7.4,5.6
2018,2,10,17:00,UTC,,1016.8,93,,,-6.1,,31879,77.2,7,5.5
2018,2,10,18:00,UTC,,1016.6,95,,,-6.1,,18689,76.1,6.9,5.3
2018,2,10,19:00,UTC,,1016.5,93,,,-6.1,,25301,76.7,6.8,5.2
2018,2,10,20:00,UTC,,1016.5,93,,,-6.5,,29630,73.1,6.5,5.3
2018,2,10,21:00,UTC,,1016.5,94,,,-7.1,,21609,73.6,7.1,5.3
2018,2,10,22:00,UTC,,1016.1,95,,,-7.5,,9892,71.5,7.5,5.8
2018,2,10,23:00,UTC,,1016.3,94,,,-7.8,,9844,72.5,7.2,5.8
2018,2,11,00:00,UTC,,1016.3,94,,,-8,,20290,77.2,7.1,5.3
2018,2,11,01:00,UTC,,1016,94,,,-8.2,,22123,71,6.1,4.6
2018,2,11,02:00,UTC,,1015.8,93,,,-8.5,,22900,68.9,5.8,4.6
2018,2,11,03:00,UTC,,1015.5,93,,,-8.5,,44135,66.9,5.5,4.3
2018,2,11,04:00,UTC,,1014.9,93,,,-8.9,,31205,58.1,6.4,4.8
2018,2,11,05:00,UTC,,1014.7,93,,,-9.1,,28544,65.3,8.3,6.1
2018,2,11,06:00,UTC,,1014.5,92,,,-9.5,,43955,72.5,8.1,6.5
2018,2,11,07:00,UTC,,1014.5,92,,,-9.6,,50000,77.7,8.1,5.5
2018,2,11,08:00,UTC,,1014.6,93,,,-9.1,,50000,75.1,6.5,4.8
2018,2,11,09:00,UTC,,1014.3,92,,,-9.1,,15009,63.8,6.8,5.1
2018,2,11,10:00,UTC,,1013.9,93,,,-8.5,,30744,64.3,5.8,4.3
2018,2,11,11:00,UTC,,1013.9,93,,,-8.2,,8037,75.1,5.7,4.2
2018,2,11,12:00,UTC,,1013.8,90,,,-7.9,,13991,74.6,3.5,2.7
2018,2,11,13:00,UTC,,1013.4,85,,,-8.3,,48647,60.7,5.5,4.7
2018,2,11,14:00,UTC,,1013.1,83,,,-7.5,,30968,66.4,6,4.7
2018,2,11,15:00,UTC,,1012.9,85,,,-7.8,,22864,57.6,6.1,4.7
2018,2,11,16:00,UTC,,1012.6,86,,,-8,,44713,61.7,5,4
2018,2,11,17:00,UTC,,1012.5,86,,,-8.3,,50000,61.7,6.9,5.4
2018,2,11,18:00,UTC,,1012.4,86,,,-8.4,,50000,62.8,6.1,5.1
2018,2,11,19:00,UTC,,1012.1,87,,,-8.4,,50000,58.1,5.3,4.3
2018,2,11,20:00,UTC,,1011.9,87,,,-8.3,,50000,57.1,5.2,4.3
2018,2,11,21:00,UTC,,1012,87,,,-8.2,,50000,58.1,5.6,4.5
2018,2,11,22:00,UTC,,1011.8,87,,,-8.3,,50000,59.2,5.1,4.4
2018,2,11,23:00,UTC,,1011.6,87,,,-8.3,,50000,54,5,3.9
2018,2,12,00:00,UTC,,1011.2,87,,,-8.1,,49169,54,5,3.9
2018,2,12,01:00,UTC,,1010.9,88,,,-7.9,,44920,55,5.4,4.2
2018,2,12,02:00,UTC,,1010.6,88,,,-7.6,,50000,52.5,4,3
2018,2,12,03:00,UTC,,1010.3,89,,,-7.2,,7976,49.4,4.8,3
2018,2,12,04:00,UTC,,1009.9,89,,,-7,,33756,54,5,3.8
2018,2,12,05:00,UTC,,1009.7,89,,,-6.6,,25721,52,4.3,3.2
2018,2,12,06:00,UTC,,1009.4,89,,,-6.1,,14767,54,5.1,4.1
2018,2,12,07:00,UTC,,1009.4,90,,,-6,,7225,53,5,3.6
2018,2,12,08:00,UTC,,1009.5,91,,,-5.9,,4847,54.5,5.8,4.1
2018,2,12,09:00,UTC,,1009.3,91,,,-5.7,,5255,56.6,5.5,4.5
2018,2,12,10:00,UTC,,1009.1,91,,,-5.5,,4202,60.2,5.4,4.5
2018,2,12,11:00,UTC,,1008.8,91,,,-5.1,,5355,62.2,6.6,5
2018,2,12,12:00,UTC,,1008.8,90,,,-4.7,,7007,66.9,6.9,5.3
2018,2,12,13:00,UTC,,1008.8,90,,,-4.4,,6159,65.8,6.1,4.8
2018,2,12,14:00,UTC,,1008.7,88,,,-4.1,,22135,64.3,5.9,4.8
2018,2,12,15:00,UTC,,1008.8,89,,,-4.6,,8923,68.4,4.5,3.8
2018,2,12,16:00,UTC,,1008.9,91,,,-4.8,,28032,66.9,5.9,4.5
2018,2,12,17:00,UTC,,1008.8,88,,,-4.4,,42540,65.3,6.6,5.1
2018,2,12,18:00,UTC,,1009,87,,,-4.2,,48919,65.3,6.9,5.6
2018,2,12,19:00,UTC,,1009.3,88,,,-4.3,,46578,64.3,7.2,5.9
2018,2,12,20:00,UTC,,1009.3,87,,,-4.1,,49561,63.8,6.9,5.6
2018,2,12,21:00,UTC,,1009.3,86,,,-3.9,,50000,62.8,6,5
2018,2,12,22:00,UTC,,1009.4,84,,,-4,,50000,65.8,6.2,4.5
2018,2,12,23:00,UTC,,1009.2,88,,,-4.7,,28013,65.3,6.5,4.9
2018,2,13,00:00,UTC,,1009.2,89,,,-4.7,,43888,64.8,6.5,5
2018,2,13,01:00,UTC,,1009.3,89,,,-4.4,,29908,65.8,7,5.6
2018,2,13,02:00,UTC,,1009.3,91,,,-4.3,,12159,66.4,6,4.9
2018,2,13,03:00,UTC,,1009.4,91,,,-4.7,,14597,66.4,5.5,4.6
2018,2,13,04:00,UTC,,1009.6,92,,,-4.3,,9163,67.4,6.4,4.6
2018,2,13,05:00,UTC,,1009.6,93,,,-4.5,,20248,66.9,5.8,4.5
2018,2,13,06:00,UTC,,1009.8,92,,,-3.7,,6160,69.4,6.3,5
2018,2,13,07:00,UTC,,1010.1,92,,,-4.3,,19071,67.4,6.4,4.6
2018,2,13,08:00,UTC,,1010.6,90,,,-3.4,,48551,70.5,6.2,4.8
2018,2,13,09:00,UTC,,1010.8,88,,,-2.7,,39609,72.5,6.1,4.9
2018,2,13,10:00,UTC,,1010.9,87,,,-2.1,,28357,71.5,7,5.5
2018,2,13,11:00,UTC,,1011.1,85,,,-1.6,,50000,73.6,7.1,5.5
2018,2,13,12:00,UTC,,1011.4,85,,,-1.7,,40291,72,7.1,5.4
2018,2,13,13:00,UTC,,1011.7,84,,,-1.5,,50000,72,7.7,6.2
2018,2,13,14:00,UTC,,1011.5,84,,,-1.4,,49069,65.3,8.9,6.8
2018,2,13,15:00,UTC,,1011.9,84,,,-1.3,,50000,68.4,9.6,7
2018,2,13,16:00,UTC,,1012.1,83,,,-1.2,,50000,71,9.8,6.8
2018,2,13,17:00,UTC,,1012.7,84,,,-0.9,,50000,78.7,7.8,5.6
2018,2,13,18:00,UTC,,1012.9,83,,,-0.7,,50000,74.1,8.1,6.1
2018,2,13,19:00,UTC,,1013.2,83,,,-0.7,,49386,71.5,8.1,5.4
2018,2,13,20:00,UTC,,1013.3,83,,,-0.6,,47145,72.5,9.4,6.6
2018,2,13,21:00,UTC,,1013.5,84,,,-0.6,,50000,72,9,6.5
2018,2,13,22:00,UTC,,1013.8,85,,,-0.5,,50000,76.1,8.3,6
2018,2,13,23:00,UTC,,1013.9,84,,,-0.3,,48647,73.6,8.9,6.4
2018,2,14,00:00,UTC,,1014.2,85,,,-0.2,,42980,75.1,8.1,5.9
2018,2,14,01:00,UTC,,1014.6,84,,,0,,46472,79.2,9.4,5.9
2018,2,14,02:00,UTC,,1014.7,84,,,0,,46354,77.2,7.9,5.9
2018,2,14,03:00,UTC,,1015,85,,,0,,45765,74.6,7.4,5.4
2018,2,14,04:00,UTC,,1015.3,85,,,-0.1,,47919,79.7,7.4,5.2
2018,2,14,05:00,UTC,,1015.5,86,,,-0.1,,41276,77.7,8.2,5.3
2018,2,14,06:00,UTC,,1016,89,,,-0.2,,14899,79.2,7,5.1
2018,2,14,07:00,UTC,,1016.4,89,,,-0.2,,27138,76.7,6.7,4.9
2018,2,14,08:00,UTC,,1017.1,88,,,0,,15401,81.8,6,4.2
2018,2,14,09:00,UTC,,1017.6,89,,,0.2,,17500,84.9,6.1,4.3
2018,2,14,10:00,UTC,,1017.9,87,,,0.6,,46317,88,6.8,4.3
2018,2,14,11:00,UTC,,1018.1,86,,,0.8,,40273,85.4,6.7,4.2
2018,2,14,12:00,UTC,,1018.3,84,,,1.1,,50000,86.9,6.6,4.1
2018,2,14,13:00,UTC,,1018.5,82,,,1.1,,50000,83.9,5.3,3.8
2018,2,14,14:00,UTC,,1019.2,86,,,0.7,,48679,92.6,4.9,3.4
2018,2,14,15:00,UTC,,1019.5,84,,,0.6,,50000,89,4.5,3.4
2018,2,14,16:00,UTC,,1019.8,79,,,0.5,,50000,93.6,4.8,3.7
2018,2,14,17:00,UTC,,1020.1,80,,,0.2,,50000,91.6,6,3.8
2018,2,14,18:00,UTC,,1020.4,77,,,0,,50000,93.6,8.1,4.8
2018,2,14,19:00,UTC,,1020.7,76,,,0.1,,50000,99.8,9.2,5.9
2018,2,14,20:00,UTC,,1020.4,77,,,0,,50000,89.5,8.4,5.5
2018,2,14,21:00,UTC,,1020.3,77,,,-0.1,,50000,83.9,7.1,5.3
2018,2,14,22:00,UTC,,1020.4,77,,,-0.1,,50000,87.5,8.1,5.1
2018,2,14,23:00,UTC,,1020.5,78,,,0,,50000,90,6.9,4.7
2018,2,15,00:00,UTC,,1020.5,78,,,0.1,,50000,90,8.3,5.4
2018,2,15,01:00,UTC,,1020.7,78,,,0.2,,50000,93.1,6.5,5
2018,2,15,02:00,UTC,,1020.7,74,,,0.4,,50000,96.7,8.2,5.2
2018,2,15,03:00,UTC,,1020.8,71,,,0.5,,50000,100.3,8.5,5.3
2018,2,15,04:00,UTC,,1020.9,73,,,0.4,,50000,99.3,6.5,4.9
2018,2,15,05:00,UTC,,1021.1,73,,,0.2,,50000,98.8,7.8,5
2018,2,15,06:00,UTC,,1021.4,70,,,0.3,,50000,100.8,8.3,5.1
2018,2,15,07:00,UTC,,1021.6,68,,,0.4,,50000,97.7,8.7,5.1
2018,2,15,08:00,UTC,,1021.9,67,,,0.6,,50000,103.4,8.9,5.4
2018,2,15,09:00,UTC,,1021.9,67,,,0.7,,50000,105.5,6.9,4.5
2018,2,15,10:00,UTC,,1022.1,69,,,0.8,,50000,107.5,6.5,4.5
2018,2,15,11:00,UTC,,1022.2,69,,,1,,49765,110.6,7.7,4.6
2018,2,15,12:00,UTC,,1022,68,,,1.1,,50000,109.6,6.8,4.2
2018,2,15,13:00,UTC,,1022,68,,,1.2,,50000,112.7,7.4,4.5
2018,2,15,14:00,UTC,,1022,69,,,0.7,,50000,107,6.5,4.6
2018,2,15,15:00,UTC,,1022,72,,,-0.1,,50000,98.3,6,3.4
2018,2,15,16:00,UTC,,1022.1,74,,,-0.9,,50000,92.1,5.3,3.3
2018,2,15,17:00,UTC,,1022,76,,,-1.4,,50000,90,5.6,3.8
2018,2,15,18:00,UTC,,1022.1,75,,,-1.6,,50000,92.1,5.7,4
2018,2,15,19:00,UTC,,1022,78,,,-1.4,,50000,92.1,6.5,5
2018,2,15,20:00,UTC,,1022,81,,,-2.5,,50000,86.9,5.8,4.3
2018,2,15,21:00,UTC,,1022.2,84,,,-2.8,,48854,86.4,6.1,4.2
2018,2,15,22:00,UTC,,1022.2,85,,,-2.8,,50000,91.6,5.4,4
2018,2,15,23:00,UTC,,1022.2,85,,,-2.9,,49577,89,5.5,3.7
2018,2,16,00:00,UTC,,1022.2,86,,,-3,,49913,87.5,4.5,3.4
2018,2,16,01:00,UTC,,1022.1,86,,,-3.2,,50000,81.8,4.1,3.1
2018,2,16,02:00,UTC,,1022,87,,,-3.4,,50000,82.3,4,3
2018,2,16,03:00,UTC,,1021.9,85,,,-3.3,,50000,87.5,4.6,3.5
2018,2,16,04:00,UTC,,1021.8,86,,,-3.5,,50000,83.9,3.4,2.4
2018,2,16,05:00,UTC,,1021.6,87,,,-3.9,,50000,75.6,4.6,2.9
2018,2,16,06:00,UTC,,1021.3,88,,,-5,,50000,76.1,5.6,3.5
2018,2,16,07:00,UTC,,1021.4,92,,,-6.2,,31749,76.1,7.6,4.8
2018,2,16,08:00,UTC,,1021.6,94,,,-6.5,,30800,76.1,6.1,4.5
2018,2,16,09:00,UTC,,1021.7,93,,,-6.6,,38515,84.9,6.3,4.3
2018,2,16,10:00,UTC,,1021.7,89,,,-6.8,,28215,64.8,6.7,5.3
2018,2,16,11:00,UTC,,1022,88,,,-7.4,,28366,74.1,5.4,3.9
2018,2,16,12:00,UTC,,1021.9,82,,,-8,,28188,77.2,5.2,3.6
2018,2,16,13:00,UTC,,1021.8,83,,,-7.7,,9985,62.2,4.1,3.1
2018,2,16,14:00,UTC,,1021.7,80,,,-7.9,,37018,63.8,5.3,3.8
2018,2,16,15:00,UTC,,1021.6,81,,,-9.1,,44662,68.4,3.7,3.2
2018,2,16,16:00,UTC,,1021.6,86,,,-10.3,,30541,66.9,2.7,2.1
2018,2,16,17:00,UTC,,1021.7,91,,,-11.1,,19291,60.2,2.5,1.9
2018,2,16,18:00,UTC,,1021.8,90,,,-11.6,,18196,68.9,4.3,3
2018,2,16,19:00,UTC,,1021.9,91,,,-12.5,,15649,69.4,3.2,2.8
2018,2,16,20:00,UTC,,1022.1,91,,,-14.1,,14488,68.4,2.5,2
2018,2,16,21:00,UTC,,1022.1,91,,,-14.6,,16974,69.4,1.8,1.3
2018,2,16,22:00,UTC,,1022.1,90,,,-15.1,,17483,67.9,2.1,1.9
2018,2,16,23:00,UTC,,1022.4,89,,,-15.5,,18542,65.8,2.5,2.3
2018,2,17,00:00,UTC,,1022.4,88,,,-16.2,,21768,64.8,2.7,2.4
2018,2,17,01:00,UTC,,1022.4,89,,,-16.3,,23699,62.8,2.9,2.5
2018,2,17,02:00,UTC,,1022.6,87,,,-16.6,,17402,68.4,2.9,2.4
2018,2,17,03:00,UTC,,1022.7,88,,,-16.7,,20874,62.2,3.1,2.9
2018,2,17,04:00,UTC,,1022.7,88,,,-19.1,,23430,46.3,1.7,1.2
2018,2,17,05:00,UTC,,1022.9,88,,,-16.2,,2791,63.3,2.3,1.8
2018,2,17,06:00,UTC,,1022.8,90,,,-15.2,,2198,65.3,2.1,1.6
2018,2,17,07:00,UTC,,1022.9,89,,,-14.7,,862,69.4,2.1,1.8
2018,2,17,08:00,UTC,,1022.9,88,,,-14.6,,2016,70,2.5,2.1
2018,2,17,09:00,UTC,,1023.1,88,,,-13.8,,13062,58.6,2.2,1.5
2018,2,17,10:00,UTC,,1023,89,,,-12.1,,2645,64.8,1.7,1.4
2018,2,17,11:00,UTC,,1023.1,90,,,-10.9,,15318,66.9,2,1.5
2018,2,17,12:00,UTC,,1023.1,90,,,-10.3,,17614,73.6,1.5,1
2018,2,17,13:00,UTC,,1023,90,,,-10.4,,11630,150.7,0.6,0.3
2018,2,17,14:00,UTC,,1023,91,,,-11,,11421,79.2,0.4,0.2
2018,2,17,15:00,UTC,,1023,91,,,-13.2,,14081,166.2,1.2,0.9
2018,2,17,16:00,UTC,,1023.3,88,,,-15,,12766,151.2,0.9,0.7
2018,2,17,17:00,UTC,,1023.4,86,,,-17.2,,9291,97.2,0.4,0.2
2018,2,17,18:00,UTC,,1023.5,87,,,-17.3,,13115,65.3,0.8,0.5
2018,2,17,19:00,UTC,,1023.7,85,,,-18.6,,11094,12.3,0.7,0.4
2018,2,17,20:00,UTC,,1023.8,86,,,-19.1,,5398,20.6,1.1,0.7
2018,2,17,21:00,UTC,,1023.9,85,,,-18.3,,7471,61.7,1.2,0.8
2018,2,17,22:00,UTC,,1024,86,,,-16.8,,8122,167.2,1,0.7
2018,2,17,23:00,UTC,,1024.1,87,,,-15.5,,7874,180.6,1.2,0.9
2018,2,18,00:00,UTC,,1024,88,,,-14.3,,2198,123.5,0.6,0.3
2018,2,18,01:00,UTC,,1024.1,88,,,-14.7,,2256,14.4,0.3,0.1
2018,2,18,02:00,UTC,,1024.1,87,,,-15.2,,5710,3.6,1.1,0.7
2018,2,18,03:00,UTC,,1024.1,85,,,-18,,12792,83.9,1.1,0.6
2018,2,18,04:00,UTC,,1024.1,84,,,-19.3,,13910,115.7,1,0.5
2018,2,18,05:00,UTC,,1024,84,,,-20.3,,1184,20.1,0.8,0.6
2018,2,18,06:00,UTC,,1024,85,,,-19,,2070,151.8,0.6,0.3
2018,2,18,07:00,UTC,,1024.2,84,,,-19.7,,9346,102.9,1.3,1
2018,2,18,08:00,UTC,,1024.1,85,,,-18.3,,5296,56.1,1.3,0.6
2018,2,18,09:00,UTC,,1024.2,85,,,-18,,12290,68.9,2.2,1.7
2018,2,18,10:00,UTC,,1024.2,86,,,-16.8,,14472,74.1,0.9,0.6
2018,2,18,11:00,UTC,,1024.4,87,,,-15.1,,6452,77.2,1.1,0.8
2018,2,18,12:00,UTC,,1024.3,87,,,-15.2,,6105,68.4,1.2,0.8
2018,2,18,13:00,UTC,,1024.3,88,,,-14,,10988,82.8,1.2,0.8
2018,2,18,14:00,UTC,,1024.3,87,,,-14.6,,3276,138.9,1.2,0.8
2018,2,18,15:00,UTC,,1024.4,87,,,-16.7,,12755,21.6,1.2,0.9
2018,2,18,16:00,UTC,,1024.4,86,,,-17.3,,19208,66.9,1.1,0.9
2018,2,18,17:00,UTC,,1024.6,85,,,-18.5,,16135,44.8,0.5,0.1
2018,2,18,18:00,UTC,,1024.6,84,,,-20.5,,19009,151.8,0.5,0.3
2018,2,18,19:00,UTC,,1024.6,84,,,-20.9,,18417,130.7,0.4,0.2
2018,2,18,20:00,UTC,,1024.8,81,,,-23.6,,26351,17,0.7,0.4
2018,2,18,21:00,UTC,,1025.3,81,,,-23.3,,28833,165.1,0.8,0.5
2018,2,18,22:00,UTC,,1025.3,83,,,-22.2,,20055,71,0.9,0.6
2018,2,18,23:00,UTC,,1025.6,82,,,-22.1,,671,169.8,0.6,0.3
2018,2,19,00:00,UTC,,1025.6,83,,,-20.6,,5523,60.2,1.2,0.9
2018,2,19,01:00,UTC,,1025.9,83,,,-21.4,,7881,163.1,1.1,0.6
2018,2,19,02:00,UTC,,1026.2,85,,,-19.3,,782,154.8,0.7,0.5
2018,2,19,03:00,UTC,,1026,85,,,-17.8,,4095,95.7,1,0.6
2018,2,19,04:00,UTC,,1026,85,,,-18.8,,3604,122.4,0.8,0.5
2018,2,19,05:00,UTC,,1026.4,85,,,-19.7,,1318,169.3,1.8,0.9
2018,2,19,06:00,UTC,,1026.8,84,,,-20.1,,8062,156.9,1.1,0.6
2018,2,19,07:00,UTC,,1027,83,,,-21.3,,5825,143,1,0.7
2018,2,19,08:00,UTC,,1027.5,84,,,-19.7,,4809,176.5,1.3,0.8
2018,2,19,09:00,UTC,,1027.7,85,,,-17.6,,1955,145.1,1.7,1.3
2018,2,19,10:00,UTC,,1028.1,86,,,-15.6,,25337,174.4,1.4,1
2018,2,19,11:00,UTC,,1028.2,86,,,-15,,39838,176.5,3.3,2.3
2018,2,19,12:00,UTC,,1028.4,87,,,-14.7,,48396,175.4,3.7,2.7
2018,2,19,13:00,UTC,,1028.6,87,,,-15.4,,50000,169.3,2.7,1.8
2018,2,19,14:00,UTC,,1028.8,87,,,-15.1,,50000,167.2,2.7,1.8
2018,2,19,15:00,UTC,,1028.9,86,,,-16.1,,50000,168.2,1.8,0.9
2018,2,19,16:00,UTC,,1029,85,,,-18.8,,46336,143.5,1.6,1.4
2018,2,19,17:00,UTC,,1029.1,84,,,-19.5,,50000,159,2.5,1.8
2018,2,19,18:00,UTC,,1029.2,83,,,-21.6,,23151,152.8,1.3,1.1
2018,2,19,19:00,UTC,,1029,82,,,-22.4,,50000,172.9,1.9,1
2018,2,19,20:00,UTC,,1029,82,,,-23.2,,50000,172.9,1.8,1.1
2018,2,19,21:00,UTC,,1029.1,83,,,-22.4,,50000,151.8,1.3,1.1
2018,2,19,22:00,UTC,,1029.2,80,,,-25.1,,50000,10.8,0.8,0.3
2018,2,19,23:00,UTC,,1029.2,81,,,-23.8,,50000,113.2,1,0.3
2018,2,20,00:00,UTC,,1029.2,80,,,-24.4,,50000,138.9,1.2,1
2018,2,20,01:00,UTC,,1029.2,80,,,-24.9,,50000,93.1,1.2,0.7
2018,2,20,02:00,UTC,,1029,80,,,-24.4,,19613,106.5,0.7,0.5
2018,2,20,03:00,UTC,,1028.9,80,,,-25.1,,50000,117.3,0.5,0.3
2018,2,20,04:00,UTC,,1028.8,80,,,-24.6,,27611,70.5,1.3,0.7
2018,2,20,05:00,UTC,,1028.5,80,,,-24.8,,16201,112.7,0.4,0.3
2018,2,20,06:00,UTC,,1028.5,80,,,-25,,46257,159.5,0.7,0.5
2018,2,20,07:00,UTC,,1028.6,81,,,-23.3,,1226,66.9,1.2,0.8
2018,2,20,08:00,UTC,,1028.8,82,,,-21.4,,948,159,0.9,0.7
2018,2,20,09:00,UTC,,1029,83,,,-19.5,,3784,88.5,0.8,0.5
2018,2,20,10:00,UTC,,1029,84,,,-18,,18377,79.7,0.8,0.4
2018,2,20,11:00,UTC,,1028.9,85,,,-16.6,,5816,77.2,1.4,0.9
2018,2,20,12:00,UTC,,1028.8,84,,,-17,,29466,79.2,1.3,0.8
2018,2,20,13:00,UTC,,1028.6,85,,,-17,,43996,9.8,0.6,0.2
2018,2,20,14:00,UTC,,1028.4,85,,,-17.1,,50000,127.6,0.8,0.6
2018,2,20,15:00,UTC,,1028.4,85,,,-18.7,,42725,167.2,1.6,1.3
2018,2,20,16:00,UTC,,1028.1,85,,,-19.1,,13438,180.6,0.8,0.5
2018,2,20,17:00,UTC,,1028.1,83,,,-21.4,,50000,181.1,1.2,0.8
2018,2,20,18:00,UTC,,1027.9,84,,,-18.9,,1179,98.3,0.8,0.5
2018,2,20,19:00,UTC,,1027.8,84,,,-18.6,,13278,107,1.6,1
2018,2,20,20:00,UTC,,1027.6,85,,,-17.8,,1996,81.8,1.3,0.9
2018,2,20,21:00,UTC,,1027.5,86,,,-17,,25048,98.3,1.5,0.9
2018,2,20,22:00,UTC,,1027.3,86,,,-16.5,,50000,102.9,1.3,0.8
2018,2,20,23:00,UTC,,1027.3,87,,,-16,,49835,103.4,3.3,0.8
2018,2,21,00:00,UTC,,1027.2,87,,,-15.6,,49952,114.2,1.2,0.5
2018,2,21,01:00,UTC,,1026.9,87,,,-15,,50000,125,1.4,0.8
2018,2,21,02:00,UTC,,1026.7,87,,,-15,,50000,123,0.9,0.7
2018,2,21,03:00,UTC,,1026.6,88,,,-14.3,,50000,128.1,2,1.3
2018,2,21,04:00,UTC,,1026.2,88,,,-14.3,,50000,107,3,1.9
2018,2,21,05:00,UTC,,1025.9,88,,,-14.6,,50000,117.3,1.9,1.4
2018,2,21,06:00,UTC,,1025.8,87,,,-16.8,,42639,141,2.2,1.8
2018,2,21,07:00,UTC,,1026.2,85,,,-18.1,,50000,139.4,2.3,1.9
2018,2,21,08:00,UTC,,1026.4,86,,,-15.9,,50000,143,1.8,1.4
2018,2,21,09:00,UTC,,1026.3,87,,,-14.2,,47226,138.4,1.8,1.5
2018,2,21,10:00,UTC,,1026.5,87,,,-14.2,,44453,144,2.5,2.1
2018,2,21,11:00,UTC,,1026.5,88,,,-13.6,,50000,143.5,3.8,2.6
2018,2,21,12:00,UTC,,1026.5,88,,,-12.9,,50000,148.7,3.8,3.2
2018,2,21,13:00,UTC,,1026.4,88,,,-13.1,,46843,145.1,5.4,4.3
2018,2,21,14:00,UTC,,1026.3,87,,,-12.8,,50000,134.8,6,4.9
2018,2,21,15:00,UTC,,1026.3,88,,,-13.4,,50000,137.9,5.8,4.5
2018,2,21,16:00,UTC,,1026.1,89,,,-14.9,,50000,126,3.5,2.9
2018,2,21,17:00,UTC,,1026.3,87,,,-16.9,,50000,125.5,2.5,2.2
2018,2,21,18:00,UTC,,1026.2,88,,,-14.7,,50000,125,4.7,3.5
2018,2,21,19:00,UTC,,1026.2,88,,,-14.7,,50000,125.5,4.6,3.8
2018,2,21,20:00,UTC,,1026.1,88,,,-14.4,,50000,126,4.4,3.2
2018,2,21,21:00,UTC,,1026.1,89,,,-13.5,,50000,128.1,5.9,4.3
2018,2,21,22:00,UTC,,1026.4,89,,,-13.7,,50000,131.2,4.5,3.3
2018,2,21,23:00,UTC,,1026.3,88,,,-14.5,,50000,128.6,3.3,2.6
2018,2,22,00:00,UTC,,1026.1,88,,,-14.4,,50000,130.2,4.6,3.2
2018,2,22,01:00,UTC,,1026,88,,,-14.6,,50000,130.2,3.4,2.6
2018,2,22,02:00,UTC,,1025.9,88,,,-14.6,,50000,129.6,3.7,2.4
2018,2,22,03:00,UTC,,1025.9,88,,,-14.4,,42503,136.3,4.7,3
2018,2,22,04:00,UTC,,1026.1,86,,,-16.7,,50000,141,3,2
2018,2,22,05:00,UTC,,1025.9,87,,,-15.3,,50000,136.8,5.2,4.1
2018,2,22,06:00,UTC,,1026,86,,,-16.3,,49644,128.6,3.3,2.4
2018,2,22,07:00,UTC,,1026.2,87,,,-16,,32989,131.2,2,1.6
2018,2,22,08:00,UTC,,1025.8,88,,,-14.7,,50000,122.4,3.2,2.1
2018,2,22,09:00,UTC,,1026.2,88,,,-13.6,,50000,139.9,5.6,4.1
2018,2,22,10:00,UTC,,1026.2,88,,,-13.4,,50000,138.9,5.2,4
2018,2,22,11:00,UTC,,1026.1,88,,,-13.3,,50000,138.4,5.1,3.4
2018,2,22,12:00,UTC,,1026.2,88,,,-13.2,,48144,137.9,4,2.9
2018,2,22,13:00,UTC,,1025.8,88,,,-13.2,,50000,137.9,4.4,3.1
2018,2,22,14:00,UTC,,1025.6,88,,,-13.9,,50000,138.4,4.4,3.1
2018,2,22,15:00,UTC,,1025.4,87,,,-15.1,,50000,139.4,3.8,2.9
2018,2,22,16:00,UTC,,1025.4,87,,,-16.7,,50000,130.7,2.4,2.1
2018,2,22,17:00,UTC,,1025.4,85,,,-18.5,,50000,126.6,1.7,1.2
2018,2,22,18:00,UTC,,1025.6,81,,,-22,,50000,157.4,2,1.6
2018,2,22,19:00,UTC,,1025.6,85,,,-17.8,,50000,150.7,1.6,1.1
2018,2,22,20:00,UTC,,1025.9,86,,,-16.3,,50000,142,0.8,0.5
2018,2,22,21:00,UTC,,1026,86,,,-16.6,,8255,72.5,1.7,1.3
2018,2,22,22:00,UTC,,1026.1,87,,,-16,,40116,81.3,1.1,0.8
2018,2,22,23:00,UTC,,1026.5,87,,,-15.8,,50000,70,0.9,0.6
2018,2,23,00:00,UTC,,1026.9,87,,,-15.5,,50000,38.6,1.2,0.7
2018,2,23,01:00,UTC,,1027.3,87,,,-15.1,,31896,42.7,1.7,1.3
2018,2,23,02:00,UTC,,1027.9,87,,,-14.9,,10610,41.7,2.4,1.5
2018,2,23,03:00,UTC,,1028.4,87,,,-14.7,,29314,35,2.5,1.5
2018,2,23,04:00,UTC,,1029,87,,,-15,,14743,40.6,4,2.5
2018,2,23,05:00,UTC,,1029.5,87,,,-15.3,,30422,45.8,4.2,2.9
2018,2,23,06:00,UTC,,1030.3,86,,,-16.1,,50000,43.2,4.2,2.6
2018,2,23,07:00,UTC,,1031.2,85,,,-16.7,,50000,38.6,4.4,2.8
2018,2,23,08:00,UTC,,1032,84,,,-16.3,,50000,32.9,3,2.1
2018,2,23,09:00,UTC,,1032.6,83,,,-14.9,,39257,36.5,3.1,2
2018,2,23,10:00,UTC,,1033.2,80,,,-13.9,,50000,27.3,2.5,1.5
2018,2,23,11:00,UTC,,1033.6,79,,,-12.8,,44527,20.1,2.9,2.1
2018,2,23,12:00,UTC,,1034,77,,,-11.3,,50000,21.1,2.3,1.5
2018,2,23,13:00,UTC,,1034,75,,,-10.5,,48492,24.2,2.3,1.6
2018,2,23,14:00,UTC,,1034.4,76,,,-11.4,,50000,15.9,3.3,2
2018,2,23,15:00,UTC,,1035,78,,,-13,,50000,22.1,3.7,2.7
2018,2,23,16:00,UTC,,1035.6,85,,,-16.1,,50000,14.4,2,1.6
2018,2,23,17:00,UTC,,1035.8,90,,,-17.7,,50000,8.7,2.1,1.7
2018,2,23,18:00,UTC,,1036.1,86,,,-18.8,,50000,15.4,1.7,1.3
2018,2,23,19:00,UTC,,1036.5,87,,,-18.5,,50000,9.3,2.4,1.9
2018,2,23,20:00,UTC,,1036.9,86,,,-17.8,,50000,18.5,1.5,1.1
2018,2,23,21:00,UTC,,1037.4,86,,,-20.3,,50000,184.2,1.2,0.9
2018,2,23,22:00,UTC,,1038.1,81,,,-24.1,,47255,9.3,2,1.6
2018,2,23,23:00,UTC,,1038.5,83,,,-23.4,,50000,184.2,1.1,0.7
2018,2,24,00:00,UTC,,1039,80,,,-25.2,,50000,185.2,1.2,0.7
2018,2,24,01:00,UTC,,1039.1,80,,,-25.6,,50000,19.5,0.7,0.3
2018,2,24,02:00,UTC,,1039.4,79,,,-25.5,,50000,137.4,1,0.9
2018,2,24,03:00,UTC,,1039.5,80,,,-26.3,,50000,151.2,1.4,1
2018,2,24,04:00,UTC,,1039.8,78,,,-27.5,,50000,165.7,1.6,1.2
2018,2,24,05:00,UTC,,1040.2,78,,,-27.2,,50000,155.9,2,1.7
2018,2,24,06:00,UTC,,1040.9,79,,,-27.1,,50000,184.2,2.2,1.7
2018,2,24,07:00,UTC,,1041.2,80,,,-23.8,,48680,181.1,1.6,1.2
2018,2,24,08:00,UTC,,1041.6,81,,,-21.6,,50000,2.1,1.3,0.9
2018,2,24,09:00,UTC,,1042.1,83,,,-18,,43409,180.6,0.9,0.5
2018,2,24,10:00,UTC,,1041.9,84,,,-16.8,,50000,162.6,1.1,0.8
2018,2,24,11:00,UTC,,1041.8,80,,,-16.3,,42630,180.6,3,1.8
2018,2,24,12:00,UTC,,1041.7,73,,,-15.2,,41741,171.8,2.8,2.1
2018,2,24,13:00,UTC,,1041.6,73,,,-15.3,,50000,174.4,3.5,2.6
2018,2,24,14:00,UTC,,1041.8,76,,,-17,,50000,1.5,2.6,1.7
2018,2,24,15:00,UTC,,1041.9,80,,,-17.7,,50000,173.9,3.8,2.4
2018,2,24,16:00,UTC,,1042,84,,,-18.8,,50000,173.4,3.1,2.2
2018,2,24,17:00,UTC,,1041.8,86,,,-18.8,,50000,178.5,2.2,1.5
2018,2,24,18:00,UTC,,1042,87,,,-16.6,,50000,181.1,3.1,1.8
2018,2,24,19:00,UTC,,1042.2,88,,,-17.4,,50000,3.1,1.9,1.4
2018,2,24,20:00,UTC,,1042.5,89,,,-17.5,,50000,167.7,1.9,1.1
2018,2,24,21:00,UTC,,1042.7,85,,,-19.2,,50000,174.4,2.1,1.5
2018,2,24,22:00,UTC,,1042.3,86,,,-16.9,,50000,173.4,3.8,2.6
2018,2,24,23:00,UTC,,1042.8,86,,,-16.6,,50000,178,3,1.8
2018,2,25,00:00,UTC,,1042.6,86,,,-16.5,,50000,168.2,3.5,2.1
2018,2,25,01:00,UTC,,1042.3,86,,,-16,,50000,171.8,3,2
2018,2,25,02:00,UTC,,1042.2,86,,,-16,,50000,168.2,3.9,2.5
2018,2,25,03:00,UTC,,1042.1,85,,,-15.8,,50000,175.9,4.3,2.7
2018,2,25,04:00,UTC,,1041.9,85,,,-15.9,,50000,170.8,3.6,2.3
2018,2,25,05:00,UTC,,1041.6,85,,,-15.7,,50000,169.3,4.9,2.9
2018,2,25,06:00,UTC,,1041.2,84,,,-15.1,,50000,169.3,5.1,3.2
2018,2,25,07:00,UTC,,1041,84,,,-14.5,,50000,168.2,6.5,4.4
2018,2,25,08:00,UTC,,1041.1,84,,,-13.7,,50000,171.8,5.4,3.4
2018,2,25,09:00,UTC,,1040.5,82,,,-12.7,,50000,171.8,5.4,3.7
2018,2,25,10:00,UTC,,1040.5,81,,,-12,,49929,165.1,5.8,4
2018,2,25,11:00,UTC,,1040.1,81,,,-10.8,,50000,167.2,4.5,3
2018,2,25,12:00,UTC,,1039.6,81,,,-9.4,,50000,164.1,4.7,3.2
2018,2,25,13:00,UTC,,1039.1,80,,,-8.8,,50000,169.8,4.9,3.5
2018,2,25,14:00,UTC,,1038.8,80,,,-9.2,,50000,170.3,6.1,4.4
2018,2,25,15:00,UTC,,1038.6,80,,,-9.6,,50000,171.8,5.9,4.2
2018,2,25,16:00,UTC,,1038.2,80,,,-10.5,,50000,172.3,6.1,4.5
2018,2,25,17:00,UTC,,1037.8,82,,,-10.2,,50000,172.9,4.6,2.9
2018,2,25,18:00,UTC,,1037.7,83,,,-10.1,,50000,173.4,5.2,3.7
2018,2,25,19:00,UTC,,1037.5,85,,,-10.2,,50000,172.9,5.4,3.2
2018,2,25,20:00,UTC,,1037.4,86,,,-9.8,,50000,172.9,5.3,3.5
2018,2,25,21:00,UTC,,1037.3,86,,,-9.2,,48423,175.9,5,2.9
2018,2,25,22:00,UTC,,1037.2,87,,,-8.9,,50000,173.4,4.3,3
2018,2,25,23:00,UTC,,1037.1,87,,,-8.6,,39529,176.5,4.5,3.1
2018,2,26,00:00,UTC,,1037,87,,,-8.2,,50000,181.1,4.3,2.9
2018,2,26,01:00,UTC,,1037,87,,,-7.6,,50000,2.1,4.2,2.9
2018,2,26,02:00,UTC,,1037,87,,,-7.7,,50000,1.5,2.8,1.9
2018,2,26,03:00,UTC,,1037.4,88,,,-7,,13572,19.5,3.8,2.6
2018,2,26,04:00,UTC,,1037.8,88,,,-7.6,,45552,26.2,4.6,3.1
2018,2,26,05:00,UTC,,1038.1,90,,,-9.3,,50000,7.2,2.6,1.9
2018,2,26,06:00,UTC,,1038.6,92,,,-11.9,,6018,9.8,2.5,1.9
2018,2,26,07:00,UTC,,1039.1,90,,,-9.9,,50000,3.1,3.9,2.3
2018,2,26,08:00,UTC,,1039.3,86,,,-8.6,,15635,6.2,5.1,2.9
2018,2,26,09:00,UTC,,1039.5,83,,,-7.5,,42349,13.9,4.1,2.9
2018,2,26,10:00,UTC,,1039.5,76,,,-7.5,,50000,8.7,5.5,3.8
2018,2,26,11:00,UTC,,1039.5,69,,,-6.4,,46806,20.1,5.9,3.9
2018,2,26,12:00,UTC,,1039.5,59,,,-6.2,,41704,24.2,9.1,5.5
2018,2,26,13:00,UTC,,1039.7,63,,,-6.7,,47225,28.8,7.1,4.8
2018,2,26,14:00,UTC,,1040,68,,,-7,,50000,24.2,7.1,4.5
2018,2,26,15:00,UTC,,1040.3,60,,,-7.7,,50000,27.8,6.9,4.5
2018,2,26,16:00,UTC,,1040.9,61,,,-8.1,,50000,21.6,6.6,4.6
2018,2,26,17:00,UTC,,1041.6,61,,,-8.2,,50000,31.4,6.9,4.4
2018,2,26,18:00,UTC,,1042.2,63,,,-9.7,,50000,26.2,4.4,2.8
2018,2,26,19:00,UTC,,1042.6,70,,,-11.3,,50000,22.1,2.6,2
2018,2,26,20:00,UTC,,1043.4,67,,,-9.9,,50000,29.8,5.7,3.7
2018,2,26,21:00,UTC,,1044.6,64,,,-10.9,,50000,40.6,7.9,5.2
2018,2,26,22:00,UTC,,1046,67,,,-12.6,,48649,42.2,6.9,4.5
2018,2,26,23:00,UTC,,1046.6,67,,,-13.6,,50000,42.2,5.4,3.5
2018,2,27,00:00,UTC,,1047.3,68,,,-14.8,,50000,46.8,4.3,3
2018,2,27,01:00,UTC,,1048.5,69,,,-15.6,,47038,38.6,4.4,2.8
2018,2,27,02:00,UTC,,1049.3,75,,,-17,,50000,34.5,2.7,1.8
2018,2,27,03:00,UTC,,1049.8,82,,,-18.3,,50000,30.9,3.1,2.1
2018,2,27,04:00,UTC,,1049.9,86,,,-20.6,,50000,24.7,3.3,2.4
2018,2,27,05:00,UTC,,1050.6,82,,,-19.5,,46356,24.7,3.1,2.2
2018,2,27,06:00,UTC,,1050.8,81,,,-19.1,,37650,36.5,3.7,2.2
2018,2,27,07:00,UTC,,1051.6,76,,,-17.9,,50000,35,3,1.5
2018,2,27,08:00,UTC,,1052.4,75,,,-17.9,,36057,25.7,3.6,2.3
2018,2,27,09:00,UTC,,1052.6,69,,,-16.4,,35966,41.2,5.1,3
2018,2,27,10:00,UTC,,1052.8,64,,,-15.5,,27941,30.9,3.3,1.9
2018,2,27,11:00,UTC,,1053.1,61,,,-14.8,,36254,38.6,3.5,1.9
2018,2,27,12:00,UTC,,1052.8,61,,,-14.3,,36479,19.5,2.5,1.7
2018,2,27,13:00,UTC,,1052.2,60,,,-14.2,,31401,46.8,2.1,1.5
2018,2,27,14:00,UTC,,1052.5,61,,,-14.5,,37400,181.6,2.1,1.4
2018,2,27,15:00,UTC,,1052.5,67,,,-16.1,,50000,181.6,1.6,1.1
2018,2,27,16:00,UTC,,1052.5,77,,,-17.6,,50000,10.8,0.7,0.3
2018,2,27,17:00,UTC,,1052.1,81,,,-22.1,,50000,179.5,0.9,0.6
2018,2,27,18:00,UTC,,1052.1,82,,,-23.8,,50000,7.7,1,0.7
2018,2,27,19:00,UTC,,1052.2,81,,,-25.2,,50000,183.7,1.7,1.2
2018,2,27,20:00,UTC,,1052.3,78,,,-24.9,,48589,175.9,0.6,0.4
2018,2,27,21:00,UTC,,1052.5,76,,,-25.8,,50000,183.1,0.9,0.6
2018,2,27,22:00,UTC,,1052.7,77,,,-26.4,,50000,166.2,0.7,0.6
2018,2,27,23:00,UTC,,1052.4,76,,,-25.9,,37434,96.7,0.6,0.4
2018,2,28,00:00,UTC,,1052.3,77,,,-25.3,,32315,71,1.6,1.4
2018,2,28,01:00,UTC,,1052.1,77,,,-26,,40278,73.1,1.9,1.4
2018,2,28,02:00,UTC,,1051.5,78,,,-26,,50000,67.9,1.9,1.2
2018,2,28,03:00,UTC,,1051.1,80,,,-25.7,,49546,74.1,2.7,2.2
2018,2,28,04:00,UTC,,1050.6,81,,,-25.8,,47982,82.8,1.1,0.7
2018,2,28,05:00,UTC,,1050.3,78,,,-25.3,,33548,72.5,2.3,1.5
2018,2,28,06:00,UTC,,1050.4,79,,,-25.9,,44522,73.6,2.3,2
2018,2,28,07:00,UTC,,1049.9,78,,,-24.8,,35035,74.1,2,1.7
2018,2,28,08:00,UTC,,1049.5,78,,,-22.5,,24931,65.3,2.2,2
2018,2,28,09:00,UTC,,1049.2,79,,,-16.8,,34760,96.7,2.5,1.4
2018,2,28,10:00,UTC,,1048.3,72,,,-14.1,,41303,105.5,2.8,2
2018,2,28,11:00,UTC,,1047.6,63,,,-12.7,,44183,117.8,3.4,2.1
2018,2,28,12:00,UTC,,1047.1,57,,,-11.4,,38488,115.7,3.5,2.5
2018,2,28,13:00,UTC,,1046.4,63,,,-12.7,,33710,146.6,3.2,2.5
2018,2,28,14:00,UTC,,1045.6,56,,,-11.8,,50000,128.6,4.5,3
2018,2,28,15:00,UTC,,1044.7,62,,,-12.5,,49734,124.5,5.5,3.1
2018,2,28,16:00,UTC,,1043.7,69,,,-13.7,,50000,107,3.7,2.5
2018,2,28,17:00,UTC,,1042.8,72,,,-14.7,,50000,112.1,3.3,2.3
2018,2,28,18:00,UTC,,1041.7,79,,,-15.5,,50000,119.4,3.6,2.6
2018,2,28,19:00,UTC,,1041.5,79,,,-15.7,,50000,113.2,3.7,1.4
2018,2,28,20:00,UTC,,1040.7,82,,,-15.9,,50000,114.2,3.8,2.2
2018,2,28,21:00,UTC,,1039.7,83,,,-17.9,,48192,100.3,3,2.4
2018,2,28,22:00,UTC,,1039.3,86,,,-19.7,,49379,81.3,1.7,1.3
2018,2,28,23:00,UTC,,1038.2,87,,,-17.7,,50000,106.5,3.2,2.4
2018,3,1,00:00,UTC,,1037.5,85,,,-19.2,,50000,50.9,1.8,1.3
2018,3,1,01:00,UTC,,1036.8,88,,,-19,,49909,93.1,3.2,1.6
2018,3,1,02:00,UTC,,1036.1,85,,,-20.3,,49877,94.1,2.7,2.1
2018,3,1,03:00,UTC,,1035.4,84,,,-20.3,,50000,79.2,1.8,1.4
2018,3,1,04:00,UTC,,1034.9,85,,,-20.2,,50000,78.7,1.8,1.3
2018,3,1,05:00,UTC,,1034.5,86,,,-17.9,,50000,87.5,3,1.9
2018,3,1,06:00,UTC,,1034.1,86,,,-16.3,,50000,66.4,2.2,1.6
2018,3,1,07:00,UTC,,1033.5,87,,,-14.3,,48913,91.6,1.7,1.1
2018,3,1,08:00,UTC,,1033.2,87,,,-13.4,,50000,69.4,2.2,1.9
2018,3,1,09:00,UTC,,1033.1,87,,,-12,,46314,83.9,1.9,1.2
2018,3,1,10:00,UTC,,1032.6,84,,,-10.9,,50000,82.8,2.1,1.7
2018,3,1,11:00,UTC,,1032.4,78,,,-9.1,,45225,108,2.4,1.4
2018,3,1,12:00,UTC,,1031.8,76,,,-8.4,,46398,128.6,2.3,1.5
2018,3,1,13:00,UTC,,1031,75,,,-7.8,,50000,128.6,6.1,1.6
2018,3,1,14:00,UTC,,1030.6,77,,,-8.3,,44474,56.6,1.1,0.8
2018,3,1,15:00,UTC,,1030.2,77,,,-7.9,,50000,19,1,0.6
2018,3,1,16:00,UTC,,1029.8,86,,,-8.8,,50000,140.4,2.8,2
2018,3,1,17:00,UTC,,1029.3,86,,,-9.1,,50000,167.7,1,0.6
2018,3,1,18:00,UTC,,1028.9,87,,,-9.2,,50000,30.4,0.2,0.1
2018,3,1,19:00,UTC,,1028.5,88,,,-9.3,,50000,74.6,1.2,0.6
2018,3,1,20:00,UTC,,1028,87,,,-9.2,,50000,83.3,1.3,1
2018,3,1,21:00,UTC,,1027.8,88,,,-9.1,,50000,85.4,1.8,1.4
2018,3,1,22:00,UTC,,1027.5,86,,,-9,,50000,82.3,1.7,1.2
2018,3,1,23:00,UTC,,1027.2,85,,,-8.9,,50000,79.2,2.8,1.2
2018,3,2,00:00,UTC,,1026.6,85,,,-8.8,,50000,86.4,2,1.3
2018,3,2,01:00,UTC,,1026.1,85,,,-8.6,,50000,94.7,1.8,1.3
2018,3,2,02:00,UTC,,1025.4,87,,,-8.8,,50000,60.2,1.6,1.2
2018,3,2,03:00,UTC,,1024.8,86,,,-8.9,,50000,72.5,1.2,0.9
2018,3,2,04:00,UTC,,1024.4,86,,,-8.8,,50000,84.9,0.8,0.4
2018,3,2,05:00,UTC,,1023.9,85,,,-8.6,,50000,89.5,1.7,1.2
2018,3,2,06:00,UTC,,1023.7,84,,,-8.4,,50000,83.3,1.1,0.7
2018,3,2,07:00,UTC,,1023.3,84,,,-8.1,,6118,84.9,1.3,1
2018,3,2,08:00,UTC,,1023.4,84,,,-7.7,,7215,35,0.7,0.4
2018,3,2,09:00,UTC,,1023.1,87,,,-7.3,,7997,57.6,1,0.9
2018,3,2,10:00,UTC,,1022.7,84,,,-6.3,,13558,38.1,1.5,0.9
2018,3,2,11:00,UTC,,1022.3,84,,,-5.7,,33113,67.4,1.1,0.7
2018,3,2,12:00,UTC,,1021.9,87,,,-5.7,,5657,142.5,1,0.8
2018,3,2,13:00,UTC,,1021.3,83,,,-4.8,,34285,79.7,1.3,0.3
2018,3,2,14:00,UTC,,1020.8,86,,,-5.4,,32990,136.3,1.3,0.7
2018,3,2,15:00,UTC,,1020.3,88,,,-5.8,,10581,144.6,2,1.4
2018,3,2,16:00,UTC,,1019.8,90,,,-6.6,,50000,184.7,1.3,1
2018,3,2,17:00,UTC,,1019.5,91,,,-6.7,,34365,182.6,1,0.7
2018,3,2,18:00,UTC,,1019.3,93,,,-7.1,,50000,173.9,0.9,0.7
2018,3,2,19:00,UTC,,1019,92,,,-7.1,,44173,8.2,1.4,0.8
2018,3,2,20:00,UTC,,1018.6,93,,,-7.1,,11492,10.8,1.1,0.8
2018,3,2,21:00,UTC,,1018.3,94,,,-7.6,,10635,177.5,0.5,0.3
2018,3,2,22:00,UTC,,1018.1,94,,,-7.9,,6650,138.9,0.9,0.8
2018,3,2,23:00,UTC,,1017.7,93,,,-9.7,,1926,80.3,0.6,0.4
2018,3,3,00:00,UTC,,1017.3,91,,,-10.9,,30465,155.4,0.7,0.5
2018,3,3,01:00,UTC,,1016.8,92,,,-9.8,,50000,19.5,1,0.8
2018,3,3,02:00,UTC,,1016.3,93,,,-8.4,,43983,57.1,0.7,0.5
2018,3,3,03:00,UTC,,1016.1,93,,,-8.1,,50000,20.1,1.3,0.9
2018,3,3,04:00,UTC,,1015.5,93,,,-7.8,,49721,45.3,1,0.8
2018,3,3,05:00,UTC,,1015.2,93,,,-7.9,,34642,56.6,0.8,0.6
2018,3,3,06:00,UTC,,1015,93,,,-7.8,,45328,25.7,1.9,1.3
2018,3,3,07:00,UTC,,1015,93,,,-7.6,,43114,45.3,1.8,1.2
2018,3,3,08:00,UTC,,1014.9,91,,,-7.2,,25834,56.1,2.3,2
2018,3,3,09:00,UTC,,1014.9,88,,,-6.5,,28434,61.2,1.5,1.1
2018,3,3,10:00,UTC,,1014.5,83,,,-5.6,,32610,55.6,2.9,2
2018,3,3,11:00,UTC,,1014.4,83,,,-5.3,,13458,28.3,2.6,1.9
2018,3,3,12:00,UTC,,1013.9,84,,,-5,,18149,70.5,2.5,2
2018,3,3,13:00,UTC,,1013.5,82,,,-4.9,,20685,55,2.7,2
2018,3,3,14:00,UTC,,1013.3,84,,,-5.2,,26964,61.7,2.2,1.9
2018,3,3,15:00,UTC,,1013.1,84,,,-5,,21951,69.4,0.8,0.7
2018,3,3,16:00,UTC,,1012.8,90,,,-5.8,,22110,30.9,0.9,0.7
2018,3,3,17:00,UTC,,1012.5,92,,,-6.5,,17256,12.9,2,1.5
2018,3,3,18:00,UTC,,1012.3,88,,,-5.6,,43071,38.6,2.7,1.7
2018,3,3,19:00,UTC,,1012.2,88,,,-6,,22924,27.8,3.4,2.1
2018,3,3,20:00,UTC,,1012.2,87,,,-6.2,,36925,36.5,4.3,2.7
2018,3,3,21:00,UTC,,1012.2,87,,,-6.7,,50000,33.4,3.4,2.1
2018,3,3,22:00,UTC,,1012.1,86,,,-6.9,,45580,36,3.4,2.2
2018,3,3,23:00,UTC,,1011.9,86,,,-7.4,,16083,34,4,2.6
2018,3,4,00:00,UTC,,1011.8,85,,,-7.7,,46082,31.9,3.9,2.6
2018,3,4,01:00,UTC,,1011.6,84,,,-7.9,,50000,35,3.9,2.6
2018,3,4,02:00,UTC,,1011.5,83,,,-8.1,,50000,31.4,3.2,2
2018,3,4,03:00,UTC,,1011.5,84,,,-8.4,,50000,31.9,2.8,1.9
2018,3,4,04:00,UTC,,1011.4,84,,,-9,,50000,24.7,3.3,2.2
2018,3,4,05:00,UTC,,1011.3,83,,,-9.4,,50000,30.4,3.7,2.4
2018,3,4,06:00,UTC,,1011.3,82,,,-10.1,,50000,23.1,3.5,2.6
2018,3,4,07:00,UTC,,1011.4,79,,,-9.6,,50000,35,5.2,2.9
2018,3,4,08:00,UTC,,1011.5,76,,,-8.7,,47216,41.2,4.7,2.8
2018,3,4,09:00,UTC,,1011.7,73,,,-7.4,,50000,37,4.9,3.1
2018,3,4,10:00,UTC,,1011.6,70,,,-6.2,,46844,32.9,4.2,2.8
2018,3,4,11:00,UTC,,1011.6,68,,,-5.8,,45416,21.1,5.1,3.6
2018,3,4,12:00,UTC,,1011.6,66,,,-5.5,,32800,24.7,4.8,3.1
2018,3,4,13:00,UTC,,1011.5,65,,,-5.3,,47740,29.3,5.5,3.7
2018,3,4,14:00,UTC,,1011.3,63,,,-5.3,,50000,37.6,4.8,3.3
2018,3,4,15:00,UTC,,1011.4,68,,,-7.5,,50000,28.3,3.7,2.9
2018,3,4,16:00,UTC,,1011.7,75,,,-10.8,,50000,21.1,2.4,1.9
2018,3,4,17:00,UTC,,1011.8,66,,,-10.5,,50000,24.7,2.7,2.1
2018,3,4,18:00,UTC,,1011.9,74,,,-12.2,,50000,23.7,2.8,2.2
2018,3,4,19:00,UTC,,1012.1,80,,,-14.1,,50000,27.3,2.2,1.7
2018,3,4,20:00,UTC,,1012.3,86,,,-15.4,,50000,21.1,1.6,1.2
2018,3,4,21:00,UTC,,1012.6,88,,,-17.4,,50000,20.1,1.6,1.2
2018,3,4,22:00,UTC,,1012.9,90,,,-17.6,,50000,25.7,1.7,1.2
2018,3,4,23:00,UTC,,1013.1,90,,,-16.7,,50000,28.3,1.5,1
2018,3,5,00:00,UTC,,1013.3,88,,,-19.4,,50000,21.6,1.8,1.5
2018,3,5,01:00,UTC,,1013.5,86,,,-20.1,,50000,37,1.3,0.8
2018,3,5,02:00,UTC,,1013.6,84,,,-20.8,,50000,42.7,1.3,0.9
2018,3,5,03:00,UTC,,1013.7,81,,,-22.2,,50000,26.8,1,0.8
2018,3,5,04:00,UTC,,1013.8,81,,,-22.7,,50000,39.1,1.6,1.1
2018,3,5,05:00,UTC,,1013.9,83,,,-22.5,,50000,45.3,1.8,1.5
2018,3,5,06:00,UTC,,1014.1,83,,,-22.3,,50000,56.1,1.6,1.4
2018,3,5,07:00,UTC,,1014.4,85,,,-17.1,,44560,64.3,3.4,2.9
2018,3,5,08:00,UTC,,1014.5,85,,,-15.5,,40192,62.2,3.8,3.4
2018,3,5,09:00,UTC,,1014.7,81,,,-13.2,,47362,60.7,2.1,1.7
2018,3,5,10:00,UTC,,1014.7,74,,,-11.1,,50000,67.9,2.2,1.8
2018,3,5,11:00,UTC,,1014.6,70,,,-9.5,,25108,64.3,2.7,2.1
2018,3,5,12:00,UTC,,1014.5,67,,,-8.8,,48478,65.8,3,2.7
2018,3,5,13:00,UTC,,1014.3,63,,,-7.8,,49438,64.8,4.4,3.9
2018,3,5,14:00,UTC,,1014.2,61,,,-8.1,,50000,63.8,2.9,2.3
2018,3,5,15:00,UTC,,1014.1,58,,,-8,,50000,59.7,2.5,2.3
2018,3,5,16:00,UTC,,1013.9,73,,,-12.4,,50000,49.9,1.5,1
2018,3,5,17:00,UTC,,1014,85,,,-16.6,,50000,44.8,2.2,1.6
2018,3,5,18:00,UTC,,1014.1,86,,,-15.5,,50000,44.8,2.1,1.5
2018,3,5,19:00,UTC,,1014.1,89,,,-15.6,,50000,63.3,2.7,2.5
2018,3,5,20:00,UTC,,1014.3,85,,,-13.3,,50000,73.1,4.5,3.7
2018,3,5,21:00,UTC,,1014.4,84,,,-16.4,,50000,69.4,3.9,3.4
2018,3,5,22:00,UTC,,1014.5,89,,,-16.7,,50000,64.8,3,2.7
2018,3,5,23:00,UTC,,1014.7,88,,,-17.5,,50000,60.7,2.9,2.7
2018,3,6,00:00,UTC,,1014.6,86,,,-18,,50000,60.2,3.5,3.2
2018,3,6,01:00,UTC,,1014.4,85,,,-17.4,,50000,62.2,4.1,3.7
2018,3,6,02:00,UTC,,1014.3,85,,,-18.9,,50000,61.2,3.1,2.8
2018,3,6,03:00,UTC,,1014.1,83,,,-18.4,,50000,58.6,3,2.4
2018,3,6,04:00,UTC,,1014,83,,,-18.9,,50000,62.8,4.4,4
2018,3,6,05:00,UTC,,1013.8,78,,,-17.7,,50000,64.8,5.7,4.6
2018,3,6,06:00,UTC,,1013.8,77,,,-18,,50000,63.8,5.7,4.6
2018,3,6,07:00,UTC,,1013.9,76,,,-16.8,,50000,66.4,6.5,4.7
2018,3,6,08:00,UTC,,1013.9,73,,,-15.1,,50000,65.3,6,4.9
2018,3,6,09:00,UTC,,1014,68,,,-13.2,,50000,68.9,5.8,5
2018,3,6,10:00,UTC,,1014,64,,,-11,,45820,65.3,5.3,4.2
2018,3,6,11:00,UTC,,1013.8,60,,,-9.8,,49979,61.7,5.8,4.8
2018,3,6,12:00,UTC,,1013.6,55,,,-8.6,,45324,59.7,7,4.9
2018,3,6,13:00,UTC,,1013.4,52,,,-8.3,,50000,58.6,5.6,4.8
2018,3,6,14:00,UTC,,1013,52,,,-9.1,,50000,63.3,6.3,5
2018,3,6,15:00,UTC,,1013.1,58,,,-10.4,,50000,63.3,4.5,3.5
2018,3,6,16:00,UTC,,1013,54,,,-9.5,,50000,52.5,5.4,4
2018,3,6,17:00,UTC,,1013,56,,,-10.1,,50000,45.8,4.7,3.1
2018,3,6,18:00,UTC,,1013.1,58,,,-10.3,,50000,52.5,6.5,4.9
2018,3,6,19:00,UTC,,1013.1,61,,,-10.9,,50000,53,6.1,4.3
2018,3,6,20:00,UTC,,1013.2,62,,,-11.5,,50000,54,5.2,4.4
2018,3,6,21:00,UTC,,1013.4,66,,,-13.1,,50000,56.6,4.7,3.8
2018,3,6,22:00,UTC,,1013.6,67,,,-14.2,,50000,60.2,4.1,3.1
2018,3,6,23:00,UTC,,1013.6,67,,,-14,,50000,49.4,3.3,2.5
2018,3,7,00:00,UTC,,1013.5,73,,,-15.3,,50000,53,3.7,3
2018,3,7,01:00,UTC,,1013.4,69,,,-14.9,,50000,51.4,4.4,3.3
2018,3,7,02:00,UTC,,1013.1,68,,,-15.4,,50000,52.5,4.2,3.5
2018,3,7,03:00,UTC,,1013.1,68,,,-17,,50000,57.1,4.8,3.4
2018,3,7,04:00,UTC,,1013.1,68,,,-17.2,,50000,59.7,3.7,3.2
2018,3,7,05:00,UTC,,1013.1,70,,,-17.8,,50000,58.6,4.7,3.7
2018,3,7,06:00,UTC,,1013,69,,,-16.8,,50000,56.1,5,4.1
2018,3,7,07:00,UTC,,1013.1,65,,,-14.7,,42624,62.2,5.9,5.1
2018,3,7,08:00,UTC,,1013.2,59,,,-12.7,,48231,62.8,4.4,3.6
2018,3,7,09:00,UTC,,1013.3,54,,,-11.5,,50000,64.3,6.7,4.9
2018,3,7,10:00,UTC,,1013,51,,,-9.7,,50000,63.8,8.1,6.4
2018,3,7,11:00,UTC,,1012.8,46,,,-8.8,,50000,65.8,7.7,5.9
2018,3,7,12:00,UTC,,1012.4,49,,,-8.5,,50000,62.2,5.7,4.8
2018,3,7,13:00,UTC,,1012.1,45,,,-8.1,,50000,59.2,5.9,4.3
2018,3,7,14:00,UTC,,1011.7,45,,,-8.1,,50000,57.1,7.9,6.1
2018,3,7,15:00,UTC,,1011.7,47,,,-8.2,,50000,57.6,6.7,5.2
2018,3,7,16:00,UTC,,1011.7,47,,,-8.4,,50000,52,4.5,3.4
2018,3,7,17:00,UTC,,1011.5,48,,,-8.6,,50000,52,5,3.8
2018,3,7,18:00,UTC,,1011.4,52,,,-8.9,,50000,50.4,5.8,4.1
2018,3,7,19:00,UTC,,1011.1,55,,,-9.4,,50000,58.6,6.7,5.5
2018,3,7,20:00,UTC,,1011.1,55,,,-9.3,,50000,58.1,5.8,4.7
2018,3,7,21:00,UTC,,1011.1,55,,,-9.5,,50000,60.7,7.1,5.6
2018,3,7,22:00,UTC,,1011.3,54,,,-9.7,,50000,63.8,6.4,5
2018,3,7,23:00,UTC,,1011.4,59,,,-10.8,,50000,63.3,5.1,4.4
2018,3,8,00:00,UTC,,1011.4,61,,,-11.4,,50000,65.3,3.5,3.2
2018,3,8,01:00,UTC,,1011.3,64,,,-12.4,,50000,62.8,4.3,3.8
2018,3,8,02:00,UTC,,1011.3,60,,,-12.1,,50000,68.4,5.5,4.5
2018,3,8,03:00,UTC,,1011.2,61,,,-13,,50000,71,4.6,3.9
2018,3,8,04:00,UTC,,1011.1,65,,,-13,,50000,62.8,4.2,3.7
2018,3,8,05:00,UTC,,1010.9,65,,,-13.5,,50000,63.3,5.6,4.7
2018,3,8,06:00,UTC,,1010.9,62,,,-13.4,,50000,68.9,5.4,4.1
2018,3,8,07:00,UTC,,1011.1,61,,,-12.6,,49811,65.3,7.2,5.2
2018,3,8,08:00,UTC,,1011.5,57,,,-11.1,,50000,65.3,6.6,5.3
2018,3,8,09:00,UTC,,1011.4,55,,,-9.7,,50000,62.8,6.4,5.2
2018,3,8,10:00,UTC,,1010.9,52,,,-7.9,,45329,63.3,5.9,4.4
2018,3,8,11:00,UTC,,1010.8,52,,,-7.8,,43808,59.7,7.5,5.8
2018,3,8,12:00,UTC,,1010.6,52,,,-6.9,,50000,63.8,6.4,5.2
2018,3,8,13:00,UTC,,1010.6,53,,,-6.4,,50000,66.4,7.3,5.4
2018,3,8,14:00,UTC,,1010.4,60,,,-7.1,,50000,62.2,4.5,3.6
2018,3,8,15:00,UTC,,1010,60,,,-6.7,,50000,56.6,4.3,3
2018,3,8,16:00,UTC,,1010,59,,,-6.5,,50000,53.5,4.8,3.8
2018,3,8,17:00,UTC,,1009.8,61,,,-6.2,,50000,50.4,4.2,3.3
2018,3,8,18:00,UTC,,1009.5,63,,,-6.1,,50000,48.4,4.4,3.4
2018,3,8,19:00,UTC,,1009.3,68,,,-6,,50000,54.5,4.3,3.6
2018,3,8,20:00,UTC,,1009.1,70,,,-5.7,,50000,65.3,7.3,5.7
2018,3,8,21:00,UTC,,1009.1,69,,,-5.8,,50000,66.9,7.6,5.6
2018,3,8,22:00,UTC,,1009.2,71,,,-6,,50000,64.3,6.1,4.7
2018,3,8,23:00,UTC,,1009.1,68,,,-5.8,,50000,66.9,6,4.9
2018,3,9,00:00,UTC,,1008.8,70,,,-5.8,,50000,63.3,6,5
2018,3,9,01:00,UTC,,1008.7,69,,,-5.5,,50000,64.8,6,4.9
2018,3,9,02:00,UTC,,1008.4,70,,,-5.5,,50000,55.6,5.3,4.3
2018,3,9,03:00,UTC,,1008,68,,,-5.2,,50000,51.4,6.7,4.8
2018,3,9,04:00,UTC,,1007.6,68,,,-5.4,,50000,47.8,6.7,4.5
2018,3,9,05:00,UTC,,1007.1,70,,,-6.1,,50000,50.9,6.6,4.8
2018,3,9,06:00,UTC,,1007.2,69,,,-5.7,,50000,53.5,6.9,5.3
2018,3,9,07:00,UTC,,1007.2,68,,,-5.6,,26702,57.1,8.1,6.3
2018,3,9,08:00,UTC,,1007.1,83,,,-6,,17241,58.6,7.3,5.8
2018,3,9,09:00,UTC,,1006.7,67,,,-4.8,,50000,54,7.6,5.4
2018,3,9,10:00,UTC,,1006.4,62,,,-4.2,,50000,59.2,8.5,6.3
2018,3,9,11:00,UTC,,1006.4,82,,,-5.2,,7642,57.1,8.7,6.8
2018,3,9,12:00,UTC,,1006.3,85,,,-5.3,,7747,53,8.3,6.3
2018,3,9,13:00,UTC,,1006.2,86,,,-5,,8280,59.2,9.2,7.1
2018,3,9,14:00,UTC,,1006.3,86,,,-4.9,,5043,57.6,8,6.5
2018,3,9,15:00,UTC,,1006.4,89,,,-5.1,,11093,58.6,7.1,6.2
2018,3,9,16:00,UTC,,1006.6,87,,,-5.1,,14030,63.3,8,5.8
2018,3,9,17:00,UTC,,1006.6,88,,,-5.1,,11899,61.7,7.8,6.2
2018,3,9,18:00,UTC,,1006.8,89,,,-5.2,,13191,62.8,7.4,5.6
2018,3,9,19:00,UTC,,1006.8,89,,,-5.2,,49750,64.3,6.8,5.4
2018,3,9,20:00,UTC,,1007,89,,,-5.1,,12668,62.8,6.7,5.1
2018,3,9,21:00,UTC,,1007.1,91,,,-5.1,,9684,63.3,5.4,4.5
2018,3,9,22:00,UTC,,1007,92,,,-5.1,,10098,64.3,5.9,4.7
2018,3,9,23:00,UTC,,1007,93,,,-4.9,,10598,60.7,5.3,4.8
2018,3,10,00:00,UTC,,1007,92,,,-4.5,,22289,64.8,5.7,5
2018,3,10,01:00,UTC,,1007,91,,,-4.9,,42198,65.8,6.4,5.4
2018,3,10,02:00,UTC,,1006.9,90,,,-4.7,,21987,65.3,6.7,5.5
2018,3,10,03:00,UTC,,1006.9,92,,,-4.6,,9636,65.8,5.8,4.8
2018,3,10,04:00,UTC,,1007,93,,,-4,,15452,66.4,7,5.5
2018,3,10,05:00,UTC,,1007.1,91,,,-3.5,,22746,70,7,5.1
2018,3,10,06:00,UTC,,1007.4,90,,,-3.2,,18348,73.1,6.4,4.8
2018,3,10,07:00,UTC,,1007.7,91,,,-3,,14884,71,5.6,4.4
2018,3,10,08:00,UTC,,1007.8,90,,,-2.5,,18139,70.5,6.7,4.8
2018,3,10,09:00,UTC,,1008.1,89,,,-1.7,,28711,72,6.1,4.7
2018,3,10,10:00,UTC,,1008.1,88,,,-1.1,,20879,67.9,8.4,6.6
2018,3,10,11:00,UTC,,1008.1,87,,,-0.6,,41703,72,7.2,4.9
2018,3,10,12:00,UTC,,1008,85,,,0.1,,32651,73.1,7.6,5.1
2018,3,10,13:00,UTC,,1007.9,84,,,0.5,,30094,75.6,6.9,4.9
2018,3,10,14:00,UTC,,1007.9,83,,,0.7,,47238,73.6,6.9,5.2
2018,3,10,15:00,UTC,,1007.9,83,,,0.6,,29474,74.6,6.4,4.6
2018,3,10,16:00,UTC,,1008,84,,,0.3,,34714,71,8.3,5.5
2018,3,10,17:00,UTC,,1008.2,85,,,0.2,,33392,76.7,6.2,4.5
2018,3,10,18:00,UTC,,1008.1,86,,,0,,25584,75.1,7,4.5
2018,3,10,19:00,UTC,,1008.1,86,,,-0.2,,48745,73.1,6.1,4.8
2018,3,10,20:00,UTC,,1008.1,87,,,-0.4,,42974,75.6,6.1,4.7
2018,3,10,21:00,UTC,,1008,87,,,-0.5,,36307,75.1,6.2,4.6
2018,3,10,22:00,UTC,,1007.8,88,,,-0.8,,14912,75.6,6,4.3
2018,3,10,23:00,UTC,,1007.7,89,,,-1,,13829,75.1,5.9,4.4
2018,3,11,00:00,UTC,,1007.4,92,,,-1.3,,11090,74.1,5.6,4.4
2018,3,11,01:00,UTC,,1007.2,93,,,-1.4,,8525,76.7,5.4,4.1
2018,3,11,02:00,UTC,,1007,95,,,-1.6,,21861,76.1,5.1,3.9
2018,3,11,03:00,UTC,,1006.8,95,,,-1.5,,14817,75.1,4.5,3.7
2018,3,11,04:00,UTC,,1006.6,95,,,-1.6,,22138,75.6,4.7,3.7
2018,3,11,05:00,UTC,,1006.4,96,,,-1.6,,17006,76.7,4.8,3.5
2018,3,11,06:00,UTC,,1006.3,96,,,-1.7,,7810,77.2,4.6,3.6
2018,3,11,07:00,UTC,,1006.4,96,,,-1.4,,3114,81.3,4.4,3.3
2018,3,11,08:00,UTC,,1006.4,97,,,-0.9,,12242,79.2,4.9,3.3
2018,3,11,09:00,UTC,,1006.3,95,,,-0.1,,27470,79.2,4.4,3.3
2018,3,11,10:00,UTC,,1006.3,95,,,0.2,,6772,81.3,3.7,2.6
2018,3,11,11:00,UTC,,1006.2,96,,,-0.1,,5900,128.1,2.9,2
2018,3,11,12:00,UTC,,1006.1,97,,,-0.3,,19223,130.2,2.6,1.9
2018,3,11,13:00,UTC,,1005.9,93,,,0.1,,26093,111.1,4.2,2.8
2018,3,11,14:00,UTC,,1005.8,84,,,-0.3,,39343,117.8,6.1,3.7
2018,3,11,15:00,UTC,,1005.7,85,,,-0.7,,50000,118.8,6.9,4.2
2018,3,11,16:00,UTC,,1005.9,91,,,-1.6,,7767,126.6,6.3,4.3
2018,3,11,17:00,UTC,,1006.4,92,,,-3.2,,27148,137.9,6.5,4.7
2018,3,11,18:00,UTC,,1006.6,89,,,-3.5,,50000,135.3,4,3.1
2018,3,11,19:00,UTC,,1006.8,81,,,-3.5,,50000,119.9,6.1,4.1
2018,3,11,20:00,UTC,,1006.9,83,,,-3.6,,50000,112.7,4.5,2.8
2018,3,11,21:00,UTC,,1007.2,86,,,-4.4,,50000,112.1,3.8,2.2
2018,3,11,22:00,UTC,,1007.5,91,,,-5.7,,50000,108.5,3.1,2
2018,3,11,23:00,UTC,,1007.8,95,,,-7.3,,34774,105.5,3.4,2.3
2018,3,12,00:00,UTC,,1007.7,95,,,-8.3,,37619,112.7,5.1,1.7
2018,3,12,01:00,UTC,,1007.7,93,,,-10.3,,29695,101.3,2.3,1.8
2018,3,12,02:00,UTC,,1007.5,93,,,-10.6,,50000,91.6,3.6,3
2018,3,12,03:00,UTC,,1007.8,92,,,-11.6,,34109,64.8,1.5,1.2
2018,3,12,04:00,UTC,,1007.8,91,,,-11.8,,39308,82.3,2.8,2.4
2018,3,12,05:00,UTC,,1007.5,90,,,-12.2,,36844,78.2,3.3,2.2
2018,3,12,06:00,UTC,,1007.4,91,,,-10.6,,38207,86.4,3.8,3
2018,3,12,07:00,UTC,,1007.4,91,,,-10.1,,37529,78.7,3,1.9
2018,3,12,08:00,UTC,,1007.4,92,,,-9.1,,37849,69.4,2.5,1.8
2018,3,12,09:00,UTC,,1007.2,92,,,-7.4,,38385,58.6,3.1,2.8
2018,3,12,10:00,UTC,,1006.7,91,,,-6,,48535,57.6,3.6,3.3
2018,3,12,11:00,UTC,,1006.6,85,,,-4.2,,48086,63.8,4.4,3.6
2018,3,12,12:00,UTC,,1006.3,85,,,-3.2,,50000,63.8,3.1,2.6
2018,3,12,13:00,UTC,,1005.7,88,,,-2.8,,16386,56.1,3.3,2.9
2018,3,12,14:00,UTC,,1005,87,,,-2.1,,49799,48.4,2.8,2.3
2018,3,12,15:00,UTC,,1004.4,87,,,-1.9,,50000,47.3,2.8,1.9
2018,3,12,16:00,UTC,,1003.9,89,,,-2,,9668,46.3,3.7,2.5
2018,3,12,17:00,UTC,,1003.2,94,,,-2,,5970,48.4,3.6,2.7
2018,3,12,18:00,UTC,,1002.7,96,,,-2.1,,7933,56.6,3.2,2.4
2018,3,12,19:00,UTC,,1002.2,97,,,-1.9,,4691,44.2,3.6,2.4
2018,3,12,20:00,UTC,,1001.4,97,,,-1.9,,9595,36.5,3.6,2.3
2018,3,12,21:00,UTC,,1001,96,,,-1.9,,13939,49.4,4.2,2.9
2018,3,12,22:00,UTC,,1000.6,95,,,-1.8,,12340,53,4.2,3.4
2018,3,12,23:00,UTC,,1000,95,,,-1.8,,18980,46.3,4.2,2.9
2018,3,13,00:00,UTC,,999.3,96,,,-1.8,,12595,43.2,4.1,2.7
2018,3,13,01:00,UTC,,998.2,96,,,-1.9,,8061,37,4.6,2.9
2018,3,13,02:00,UTC,,997.6,96,,,-2.1,,8757,38.6,4.4,2.9
2018,3,13,03:00,UTC,,997.1,96,,,-2.2,,5380,30.4,4.1,2.8
2018,3,13,04:00,UTC,,997,97,,,-2.3,,5309,26.8,3.3,2.4
2018,3,13,05:00,UTC,,996.5,97,,,-2.4,,6339,20.1,4.1,2.8
2018,3,13,06:00,UTC,,996,96,,,-2.2,,5143,19,5.2,3.7
2018,3,13,07:00,UTC,,996.1,95,,,-2.1,,6066,19.5,4.4,3.1
2018,3,13,08:00,UTC,,995.8,93,,,-1.8,,6834,21.6,5.5,3.9
2018,3,13,09:00,UTC,,995.7,92,,,-1.5,,10473,21.6,5.5,3.5
2018,3,13,10:00,UTC,,995.7,89,,,-1.1,,34181,19.5,4.9,3.1
2018,3,13,11:00,UTC,,995.7,88,,,-0.9,,36962,20.1,4.7,3.2
2018,3,13,12:00,UTC,,995.7,87,,,-0.8,,32004,17,4.6,3.3
2018,3,13,13:00,UTC,,995.6,89,,,-0.7,,44276,19,6.1,3.8
2018,3,13,14:00,UTC,,995.7,88,,,-0.9,,24606,21.6,6.5,4
2018,3,13,15:00,UTC,,996,89,,,-1.2,,38936,15.4,5,3.6
2018,3,13,16:00,UTC,,996.3,90,,,-1.3,,18232,15.4,5.9,3.7
2018,3,13,17:00,UTC,,996.7,89,,,-1.9,,19599,15.4,7.5,4.6
2018,3,13,18:00,UTC,,996.9,86,,,-2.4,,28311,19.5,8.3,5.4
2018,3,13,19:00,UTC,,997.3,86,,,-3,,12243,22.6,9.7,5.5
2018,3,13,20:00,UTC,,997.5,87,,,-3.7,,8657,20.1,8.6,5.2
2018,3,13,21:00,UTC,,997.8,88,,,-4.2,,9059,22.1,7.8,5.3
2018,3,13,22:00,UTC,,998.1,87,,,-4.5,,15996,19.5,7.2,4.4
2018,3,13,23:00,UTC,,998.5,89,,,-4.9,,7757,14.4,7.8,4.8
2018,3,14,00:00,UTC,,998.8,89,,,-5.1,,11057,11.3,6.7,4.4
2018,3,14,01:00,UTC,,999.1,88,,,-5.5,,9540,13.4,9.2,5.1
2018,3,14,02:00,UTC,,999.6,86,,,-5.8,,12903,12.9,9,5.7
2018,3,14,03:00,UTC,,1000.3,85,,,-6.4,,10462,13.4,10.6,6.3
2018,3,14,04:00,UTC,,1001.1,85,,,-7,,10345,10.3,9.2,6.2
2018,3,14,05:00,UTC,,1002.1,85,,,-7.3,,12302,8.7,9.5,6.3
2018,3,14,06:00,UTC,,1003,83,,,-7.3,,8098,10.8,10.2,7
2018,3,14,07:00,UTC,,1004.1,82,,,-6.9,,11501,8.7,8.9,6
2018,3,14,08:00,UTC,,1004.8,77,,,-6.3,,34532,9.3,8.4,5.8
2018,3,14,09:00,UTC,,1005.7,77,,,-5.9,,18007,2.1,8.2,5.4
2018,3,14,10:00,UTC,,1006.5,68,,,-5.2,,50000,183.1,8.7,5.2
2018,3,14,11:00,UTC,,1007.4,68,,,-5.2,,45037,184.2,9.2,5.9
2018,3,14,12:00,UTC,,1008.2,68,,,-5.2,,49716,183.7,8.6,5.1
2018,3,14,13:00,UTC,,1008.8,69,,,-5.3,,47343,174.9,6.2,4.2
2018,3,14,14:00,UTC,,1009.5,65,,,-5,,50000,181.6,7.5,4.3
2018,3,14,15:00,UTC,,1010.2,66,,,-5.7,,50000,171.3,7,4.6
2018,3,14,16:00,UTC,,1011,63,,,-5.6,,50000,182.6,7.6,4.9
2018,3,14,17:00,UTC,,1011.9,69,,,-7.4,,50000,169.8,3.8,2.6
2018,3,14,18:00,UTC,,1012.5,69,,,-7.9,,50000,171.8,4.8,3.4
2018,3,14,19:00,UTC,,1013,74,,,-8.9,,50000,167.7,5.6,3.8
2018,3,14,20:00,UTC,,1013.4,78,,,-9.8,,50000,169.8,5.4,4
2018,3,14,21:00,UTC,,1013.9,79,,,-10.1,,50000,171.3,4.6,3.4
2018,3,14,22:00,UTC,,1014.4,81,,,-10.7,,50000,172.9,4.7,3.4
2018,3,14,23:00,UTC,,1015,84,,,-13.8,,50000,175.9,3.8,2.5
2018,3,15,00:00,UTC,,1015.8,88,,,-14.6,,50000,172.9,4,2.6
2018,3,15,01:00,UTC,,1016.4,90,,,-15.7,,50000,174.4,3.6,2.3
2018,3,15,02:00,UTC,,1016.9,91,,,-16.7,,50000,176.5,2.6,1.7
2018,3,15,03:00,UTC,,1017.5,89,,,-16.7,,15385,171.8,3.3,2.3
2018,3,15,04:00,UTC,,1018.1,89,,,-17.1,,50000,173.4,3.3,2.4
2018,3,15,05:00,UTC,,1018.8,88,,,-17.7,,48406,173.4,3,2
2018,3,15,06:00,UTC,,1019.8,87,,,-17.6,,5569,178.5,2.7,1.7
2018,3,15,07:00,UTC,,1020.2,86,,,-14.5,,41613,184.2,4.2,2.7
2018,3,15,08:00,UTC,,1020.7,84,,,-12.4,,38391,175.4,2.1,1.3
2018,3,15,09:00,UTC,,1021.3,76,,,-11.2,,50000,172.9,3,2.2
2018,3,15,10:00,UTC,,1021.4,74,,,-11.5,,42864,144.6,4.6,3.7
2018,3,15,11:00,UTC,,1021.6,73,,,-10.5,,673,167.2,6.2,3.6
2018,3,15,12:00,UTC,,1021.6,69,,,-9.3,,40021,161,5.8,3.6
2018,3,15,13:00,UTC,,1021.7,69,,,-8.1,,27453,167.7,7.2,4.3
2018,3,15,14:00,UTC,,1021.8,71,,,-8.4,,49394,166.7,7.8,5.2
2018,3,15,15:00,UTC,,1022,72,,,-8.7,,50000,169.8,8,4.7
2018,3,15,16:00,UTC,,1022.4,75,,,-10,,50000,171.8,6.5,4.3
2018,3,15,17:00,UTC,,1022.9,82,,,-11.9,,50000,172.3,4.5,3
2018,3,15,18:00,UTC,,1023.2,83,,,-12.1,,50000,173.4,4.2,3
2018,3,15,19:00,UTC,,1023.7,85,,,-13.5,,50000,179,3.8,2.6
2018,3,15,20:00,UTC,,1024,89,,,-12.9,,50000,179.5,4.2,2.6
2018,3,15,21:00,UTC,,1024.4,90,,,-15.9,,50000,181.6,2.7,1.4
2018,3,15,22:00,UTC,,1024.8,90,,,-14.8,,50000,177.5,3.4,2.3
2018,3,15,23:00,UTC,,1025.2,89,,,-15.1,,50000,177,3.7,2.5
2018,3,16,00:00,UTC,,1025.6,89,,,-15.8,,50000,174.4,4.1,2.4
2018,3,16,01:00,UTC,,1026.1,87,,,-16.4,,50000,176.5,3.3,2
2018,3,16,02:00,UTC,,1026.3,87,,,-17.5,,50000,173.9,3.4,1.8
2018,3,16,03:00,UTC,,1026.9,87,,,-17.5,,50000,174.4,4,2.4
2018,3,16,04:00,UTC,,1027.4,86,,,-18.1,,50000,173.4,3.7,2.3
2018,3,16,05:00,UTC,,1027.7,86,,,-19,,50000,170.8,3,2
2018,3,16,06:00,UTC,,1028.3,86,,,-17.7,,49795,173.4,2.7,1.6
2018,3,16,07:00,UTC,,1028.5,86,,,-15,,50000,173.9,3.9,2.6
2018,3,16,08:00,UTC,,1028.5,86,,,-13.7,,44530,170.8,4.1,2.5
2018,3,16,09:00,UTC,,1028.7,85,,,-12.4,,50000,170.3,3.3,2.3
2018,3,16,10:00,UTC,,1028.7,77,,,-10.8,,43428,171.3,5.7,3.9
2018,3,16,11:00,UTC,,1028.4,72,,,-9.1,,50000,170.3,7.2,4.4
2018,3,16,12:00,UTC,,1028.1,72,,,-8.7,,40308,172.9,8.3,5.1
2018,3,16,13:00,UTC,,1027.9,68,,,-7.2,,36119,171.3,7.6,5.1
2018,3,16,14:00,UTC,,1027.9,67,,,-7.2,,50000,169.8,8.1,5.4
2018,3,16,15:00,UTC,,1027.6,67,,,-7.8,,50000,171.8,6.8,4.9
2018,3,16,16:00,UTC,,1027.7,70,,,-8.7,,50000,169.8,6.3,4.5
2018,3,16,17:00,UTC,,1028,73,,,-10.4,,50000,171.8,4.6,3.5
2018,3,16,18:00,UTC,,1028.2,75,,,-11.7,,50000,172.3,4.8,3.2
2018,3,16,19:00,UTC,,1028.3,78,,,-12.2,,50000,172.3,4.1,2.9
2018,3,16,20:00,UTC,,1028.2,82,,,-13.1,,50000,172.9,4.2,2.9
2018,3,16,21:00,UTC,,1028.1,85,,,-14.6,,50000,171.8,3.4,2.1
2018,3,16,22:00,UTC,,1027.9,90,,,-14.9,,50000,163.1,3.2,1.8
2018,3,16,23:00,UTC,,1027.5,90,,,-14.5,,50000,162,2.2,1.6
2018,3,17,00:00,UTC,,1027.3,87,,,-17.4,,50000,102.4,1.3,0.9
2018,3,17,01:00,UTC,,1027,88,,,-17.8,,50000,129.1,2.6,2.2
2018,3,17,02:00,UTC,,1026.8,89,,,-15.4,,50000,97.2,1.2,0.8
2018,3,17,03:00,UTC,,1026,87,,,-16.3,,50000,82.8,1.4,1
2018,3,17,04:00,UTC,,1025.2,89,,,-13.9,,50000,115.2,2.7,1.6
2018,3,17,05:00,UTC,,1024.3,89,,,-12.7,,50000,121.4,2.7,2.1
2018,3,17,06:00,UTC,,1023.6,86,,,-12,,50000,129.1,4.9,3.5
2018,3,17,07:00,UTC,,1022.8,82,,,-10.6,,47909,125.5,6,4.4
2018,3,17,08:00,UTC,,1022.1,77,,,-9.5,,45370,134.8,7.3,5.6
2018,3,17,09:00,UTC,,1021.6,74,,,-9.5,,32656,137.9,9.6,7.1
2018,3,17,10:00,UTC,,1021.3,74,,,-9.1,,50000,137.9,8.2,5.8
2018,3,17,11:00,UTC,,1020.3,64,,,-8,,50000,136.3,7.3,5.5
2018,3,17,12:00,UTC,,1019.5,61,,,-7.5,,50000,140.4,7.5,5.5
2018,3,17,13:00,UTC,,1018.5,54,,,-6.5,,50000,138.9,6.7,4.9
2018,3,17,14:00,UTC,,1017.8,61,,,-7.3,,50000,138.4,6.8,4.5
2018,3,17,15:00,UTC,,1016.6,61,,,-7.3,,50000,124.5,3.9,2.7
2018,3,17,16:00,UTC,,1015.9,61,,,-7.6,,50000,121.4,2.8,1.9
2018,3,17,17:00,UTC,,1014.8,63,,,-7.7,,50000,116.3,3.6,2.5
2018,3,17,18:00,UTC,,1013.6,64,,,-7.1,,50000,117.3,5.3,3.9
2018,3,17,19:00,UTC,,1012.5,67,,,-6.9,,50000,121.4,4.4,3.4
2018,3,17,20:00,UTC,,1011.5,66,,,-6.2,,50000,127.1,5,3.7
2018,3,17,21:00,UTC,,1010.4,70,,,-6.4,,50000,125,5.8,4.1
2018,3,17,22:00,UTC,,1009.6,71,,,-5.6,,50000,130.7,6,4.2
2018,3,17,23:00,UTC,,1008.7,71,,,-5.3,,50000,118.8,4.6,3.2
2018,3,18,00:00,UTC,,1007.5,76,,,-4.6,,50000,124.5,6,4.4
2018,3,18,01:00,UTC,,1006.6,79,,,-3.9,,50000,127.1,6.7,4.9
2018,3,18,02:00,UTC,,1005.4,80,,,-3.8,,50000,125,7.7,5.6
2018,3,18,03:00,UTC,,1004.4,83,,,-3.7,,50000,124,7.1,5.3
2018,3,18,04:00,UTC,,1003.4,83,,,-3.2,,50000,128.1,7.7,5.9
2018,3,18,05:00,UTC,,1002.4,83,,,-2.7,,50000,124.5,6.5,4.9
2018,3,18,06:00,UTC,,1001.6,83,,,-2.3,,50000,119.4,7.6,5
2018,3,18,07:00,UTC,,1000.8,79,,,-1.2,,41990,122.4,7.3,5.3
2018,3,18,08:00,UTC,,1000,73,,,0.5,,42225,128.6,9.9,7.4
2018,3,18,09:00,UTC,,999.2,72,,,1.8,,43739,130.2,10.6,7.3
2018,3,18,10:00,UTC,,997.9,73,,,2.2,,47158,132.2,11.7,7.9
2018,3,18,11:00,UTC,,997.2,70,,,2.8,,50000,132.7,14,8.7
2018,3,18,12:00,UTC,,996.5,69,,,2.9,,50000,128.6,10.7,7.6
2018,3,18,13:00,UTC,,995.9,69,,,3.1,,50000,130.7,11,7.3
2018,3,18,14:00,UTC,,995.8,79,,,1.9,,50000,136.8,12.4,9.4
2018,3,18,15:00,UTC,,996.1,90,,,1.1,,50000,150.2,7.6,6.3
2018,3,18,16:00,UTC,,996.3,75,,,0.9,,50000,146.1,8.8,6.2
2018,3,18,17:00,UTC,,996.9,64,,,0.4,,50000,165.1,5.4,3.9
2018,3,18,18:00,UTC,,996.8,78,,,-1.4,,50000,161.5,2.4,2
2018,3,18,19:00,UTC,,996.8,75,,,-2.4,,50000,148.2,6,4.2
2018,3,18,20:00,UTC,,996.7,80,,,-3.4,,50000,140.4,6.2,4.5
2018,3,18,21:00,UTC,,996.6,78,,,-3.9,,50000,141.5,3.2,2.2
2018,3,18,22:00,UTC,,996.4,85,,,-6.6,,50000,137.9,1.8,1.4
2018,3,18,23:00,UTC,,996.1,86,,,-6,,50000,133.2,5.2,3.6
2018,3,19,00:00,UTC,,995.4,87,,,-6.2,,50000,130.2,3.4,2.7
2018,3,19,01:00,UTC,,994.9,86,,,-7.1,,50000,129.1,4.1,3.2
2018,3,19,02:00,UTC,,994.3,85,,,-7.8,,50000,126,4.4,3.7
2018,3,19,03:00,UTC,,993.6,86,,,-8.1,,50000,133.2,4.2,3.3
2018,3,19,04:00,UTC,,993,87,,,-8.5,,48646,125,4.7,3.9
2018,3,19,05:00,UTC,,992.7,86,,,-8.9,,50000,125.5,3.6,2.9
2018,3,19,06:00,UTC,,992.3,81,,,-7.7,,50000,125,3.3,2.3
2018,3,19,07:00,UTC,,991.9,74,,,-5.2,,50000,135.3,7.8,5.4
2018,3,19,08:00,UTC,,992,70,,,-3.7,,49555,136.8,8.5,6
2018,3,19,09:00,UTC,,992,69,,,-4,,50000,137.9,8.9,5.5
2018,3,19,10:00,UTC,,992.4,68,,,-3.6,,50000,136.8,6.2,4.4
2018,3,19,11:00,UTC,,992.4,68,,,-3,,50000,135.3,7,5.1
2018,3,19,12:00,UTC,,992.8,74,,,-2.9,,50000,143,4.9,3.9
2018,3,19,13:00,UTC,,993.1,69,,,-2.3,,49633,133.2,3.9,3
2018,3,19,14:00,UTC,,993.5,70,,,-2.2,,50000,148.2,2.9,2.3
2018,3,19,15:00,UTC,,993.9,71,,,-2.5,,49446,142,3.5,3.1
2018,3,19,16:00,UTC,,995,77,,,-3.6,,50000,172.3,3.8,2.5
2018,3,19,17:00,UTC,,995.8,82,,,-4.2,,50000,165.1,1.2,0.8
2018,3,19,18:00,UTC,,996.9,84,,,-5.1,,50000,171.8,2.6,1.7
2018,3,19,19:00,UTC,,998,84,,,-5.5,,26186,6.2,4.1,2.8
2018,3,19,20:00,UTC,,999.1,87,,,-4,,17501,8.7,5.9,3.9
2018,3,19,21:00,UTC,,1000.3,84,,,-5,,29919,8.7,11.2,6.8
2018,3,19,22:00,UTC,,1001.6,82,,,-6.1,,15085,14.9,8.3,5.9
2018,3,19,23:00,UTC,,1003.1,77,,,-6.8,,50000,18.5,8.8,6
2018,3,20,00:00,UTC,,1004.4,67,,,-7.3,,50000,21.1,8.6,5.9
2018,3,20,01:00,UTC,,1006.2,65,,,-8.3,,50000,18.5,9.3,5.9
2018,3,20,02:00,UTC,,1007.6,73,,,-10.4,,50000,8.7,5.7,3.6
2018,3,20,03:00,UTC,,1008.6,81,,,-12.8,,50000,2.6,3.7,2.6
2018,3,20,04:00,UTC,,1009.6,86,,,-14.8,,50000,5.7,3.1,2.3
2018,3,20,05:00,UTC,,1010.6,85,,,-15.3,,50000,175.9,3.4,2.1
2018,3,20,06:00,UTC,,1011.3,81,,,-13.9,,47098,175.9,2.9,2
2018,3,20,07:00,UTC,,1012,77,,,-12.7,,33779,174.4,1.8,1.3
2018,3,20,08:00,UTC,,1012.4,66,,,-9.3,,39242,124.5,1,0.4
2018,3,20,09:00,UTC,,1012.9,66,,,-9.8,,32526,121.4,3,2.1
2018,3,20,10:00,UTC,,1013.4,70,,,-9.6,,40086,153.3,5.3,4.1
2018,3,20,11:00,UTC,,1013.7,73,,,-9.1,,40868,145.6,4.9,3.9
2018,3,20,12:00,UTC,,1013.9,71,,,-8.1,,50000,146.1,3.9,3.3
2018,3,20,13:00,UTC,,1013.9,68,,,-7.4,,50000,141,4,3.4
2018,3,20,14:00,UTC,,1014,72,,,-7.4,,50000,141,4.2,3.6
2018,3,20,15:00,UTC,,1014.1,80,,,-7.5,,50000,140.4,4.9,3.2
2018,3,20,16:00,UTC,,1014,88,,,-8.4,,50000,136.3,4.6,3.6
2018,3,20,17:00,UTC,,1014.1,93,,,-10.2,,50000,128.1,3,2.5
2018,3,20,18:00,UTC,,1013.9,92,,,-13.5,,50000,116.3,2.1,1.7
2018,3,20,19:00,UTC,,1013.6,93,,,-12.5,,48998,103.9,2.6,1.9
2018,3,20,20:00,UTC,,1013.2,91,,,-12.9,,50000,95.7,2.6,2.1
2018,3,20,21:00,UTC,,1012.9,88,,,-13.6,,50000,101.3,2.9,2
2018,3,20,22:00,UTC,,1012.1,87,,,-13.4,,50000,83.9,3.8,3
2018,3,20,23:00,UTC,,1011.2,84,,,-13.8,,50000,78.2,4.2,3.6
2018,3,21,00:00,UTC,,1010.5,82,,,-13.3,,50000,76.1,4.8,3.9
2018,3,21,01:00,UTC,,1009.1,79,,,-12,,50000,75.1,5.2,4.4
2018,3,21,02:00,UTC,,1007.8,72,,,-10.4,,50000,80.3,6.6,4.9
2018,3,21,03:00,UTC,,1006.9,66,,,-9.3,,50000,81.3,6.2,4.8
2018,3,21,04:00,UTC,,1005.5,75,,,-9.4,,32400,78.7,6.1,4.6
2018,3,21,05:00,UTC,,1003.5,80,,,-8.8,,8968,78.2,8.9,6.7
2018,3,21,06:00,UTC,,1002.4,84,,,-7.8,,8889,82.8,10,7.1
2018,3,21,07:00,UTC,,1001.5,84,,,-7.4,,11179,85.4,10.5,7.1
2018,3,21,08:00,UTC,,1000.8,86,,,-7.1,,3798,84.9,10.6,7.1
2018,3,21,09:00,UTC,,1000.1,86,,,-6.6,,10134,85.4,9.8,6.4
2018,3,21,10:00,UTC,,999.2,81,,,-5.6,,40023,88,9.3,6.3
2018,3,21,11:00,UTC,,998.7,80,,,-4.8,,50000,90,8.2,6
2018,3,21,12:00,UTC,,998.7,79,,,-4.1,,49172,93.6,8.3,5.6
2018,3,21,13:00,UTC,,998.5,79,,,-3.6,,50000,90,6.8,4.7
2018,3,21,14:00,UTC,,997.9,80,,,-3.2,,50000,88.5,7.9,5.1
2018,3,21,15:00,UTC,,997.4,81,,,-3,,47345,85.9,6.8,5.2
2018,3,21,16:00,UTC,,997,84,,,-2.9,,50000,88.5,6.6,4.4
2018,3,21,17:00,UTC,,996.8,89,,,-3.1,,48948,86.9,5.4,3.8
2018,3,21,18:00,UTC,,996.2,91,,,-3.6,,50000,81.3,4.5,3.6
2018,3,21,19:00,UTC,,995.6,94,,,-3.9,,50000,78.2,4.4,3
2018,3,21,20:00,UTC,,994.9,94,,,-3.1,,50000,84.9,4.4,3
2018,3,21,21:00,UTC,,994.5,96,,,-4,,50000,95.2,3.8,2.5
2018,3,21,22:00,UTC,,993.9,95,,,-2.9,,50000,107.5,4.4,2.9
2018,3,21,23:00,UTC,,993.6,90,,,-2.3,,50000,114.2,5.9,2.8
2018,3,22,00:00,UTC,,993.1,87,,,-2.3,,50000,112.7,3.6,2.6
2018,3,22,01:00,UTC,,992.7,89,,,-3.1,,50000,103.9,3.2,2.1
2018,3,22,02:00,UTC,,992,88,,,-3.3,,50000,119.9,3.5,2.3
2018,3,22,03:00,UTC,,991.6,91,,,-4.5,,50000,101.3,1.7,1.1
2018,3,22,04:00,UTC,,991.3,93,,,-4.5,,50000,84.4,0.7,0.4
2018,3,22,05:00,UTC,,990.9,95,,,-4,,50000,14.9,1.3,0.7
2018,3,22,06:00,UTC,,991.1,94,,,-3.6,,10770,50.9,1.2,0.9
2018,3,22,07:00,UTC,,991.2,94,,,-2.9,,7818,7.2,2.4,1.6
2018,3,22,08:00,UTC,,991.3,93,,,-2.6,,9262,6.7,2.9,2.2
2018,3,22,09:00,UTC,,991.7,90,,,-2,,45677,8.7,4.1,2.8
2018,3,22,10:00,UTC,,992.4,85,,,-1.1,,46590,6.2,7.5,4.4
2018,3,22,11:00,UTC,,993.3,82,,,-0.9,,12317,12.3,8.6,5.8
2018,3,22,12:00,UTC,,994.3,78,,,-0.4,,50000,11.3,8.2,5.6
2018,3,22,13:00,UTC,,995.2,74,,,-0.3,,48053,5.1,6.2,4.4
2018,3,22,14:00,UTC,,995.9,77,,,-1.2,,50000,182.6,7.8,4.7
2018,3,22,15:00,UTC,,996.9,75,,,-1.6,,50000,13.9,5.8,3.6
2018,3,22,16:00,UTC,,997.9,73,,,-2.2,,50000,183.1,6,3.7
2018,3,22,17:00,UTC,,998.5,72,,,-2.4,,50000,180.1,4.2,2.8
2018,3,22,18:00,UTC,,999.2,69,,,-3,,50000,13.4,6.8,4.4
2018,3,22,19:00,UTC,,999.7,72,,,-4,,50000,13.9,7.1,4.6
2018,3,22,20:00,UTC,,1000.3,75,,,-5.3,,50000,12.3,6.2,3.9
2018,3,22,21:00,UTC,,1001,76,,,-7.3,,50000,15.4,5.1,3.2
2018,3,22,22:00,UTC,,1001.7,82,,,-10.1,,50000,10.8,2.7,1.9
2018,3,22,23:00,UTC,,1002,89,,,-10.6,,50000,175.9,1.3,0.9
2018,3,23,00:00,UTC,,1002.2,93,,,-15,,50000,178,2.2,1.6
2018,3,23,01:00,UTC,,1002.6,84,,,-19.1,,50000,177.5,2.9,2
2018,3,23,02:00,UTC,,1003,90,,,-16.1,,50000,177.5,3,2
2018,3,23,03:00,UTC,,1003.5,90,,,-16.4,,50000,3.6,3,2.1
2018,3,23,04:00,UTC,,1003.8,87,,,-16.6,,50000,15.4,0.9,0.6
2018,3,23,05:00,UTC,,1004.1,85,,,-18.2,,50000,118.8,1.9,1.1
2018,3,23,06:00,UTC,,1004.4,87,,,-16,,47108,126.6,1.5,1.2
2018,3,23,07:00,UTC,,1004.5,87,,,-13.8,,35385,154.8,2,1.7
2018,3,23,08:00,UTC,,1004.8,82,,,-11.3,,35312,140.4,2.5,1.9
2018,3,23,09:00,UTC,,1005.1,71,,,-10.2,,50000,178.5,2,1.4
2018,3,23,10:00,UTC,,1005.1,58,,,-6.8,,44362,2.1,1.2,0.5
2018,3,23,11:00,UTC,,1004.9,63,,,-7.6,,50000,124.5,3.3,2.7
2018,3,23,12:00,UTC,,1004.9,66,,,-7.2,,29090,142.5,4.4,3.5
2018,3,23,13:00,UTC,,1004.8,64,,,-6.8,,31113,140.4,2.6,2.1
2018,3,23,14:00,UTC,,1004.6,60,,,-6.3,,50000,124.5,3.8,2.9
2018,3,23,15:00,UTC,,1004.6,66,,,-7.2,,50000,142,2.9,2.6
2018,3,23,16:00,UTC,,1004.1,73,,,-8.2,,50000,146.1,4.4,2
2018,3,23,17:00,UTC,,1004,87,,,-12.5,,50000,158.4,1.3,1.2
2018,3,23,18:00,UTC,,1003.7,90,,,-15.7,,50000,156.4,1,0.8
2018,3,23,19:00,UTC,,1003.5,87,,,-15.8,,50000,87.5,0.8,0.7
2018,3,23,20:00,UTC,,1003.3,87,,,-16.4,,50000,64.8,1.6,1.2
2018,3,23,21:00,UTC,,1002.9,85,,,-16.4,,50000,76.7,1.4,1.2
2018,3,23,22:00,UTC,,1002.5,87,,,-15.4,,49835,67.4,2.1,1.6
2018,3,23,23:00,UTC,,1001.8,86,,,-15.7,,50000,63.8,2.7,2.3
2018,3,24,00:00,UTC,,1001.1,82,,,-15.4,,50000,66.9,2,1.7
2018,3,24,01:00,UTC,,1000.3,81,,,-14.7,,50000,66.4,2.2,1.9
2018,3,24,02:00,UTC,,999.4,79,,,-13.9,,50000,60.2,3.2,3
2018,3,24,03:00,UTC,,998.6,79,,,-13.4,,50000,62.8,3.4,2.9
2018,3,24,04:00,UTC,,997.8,82,,,-12.4,,50000,60.2,3.5,3
2018,3,24,05:00,UTC,,996.8,81,,,-11.1,,50000,62.8,4.4,3.8
2018,3,24,06:00,UTC,,995.6,83,,,-10.1,,8359,65.8,5,4.1
2018,3,24,07:00,UTC,,994.5,88,,,-8.9,,4403,62.2,5.4,4.7
2018,3,24,08:00,UTC,,993,89,,,-8,,3358,46.8,5.2,3.7
2018,3,24,09:00,UTC,,991.8,89,,,-6.7,,50000,52,5.8,4.3
2018,3,24,10:00,UTC,,990.9,87,,,-6.1,,47219,64.3,9.1,6.4
2018,3,24,11:00,UTC,,989.7,91,,,-6.1,,3236,53,7.4,5.3
2018,3,24,12:00,UTC,,988.9,91,,,-5.8,,1967,50.4,5.8,4.1
2018,3,24,13:00,UTC,,988.2,90,,,-5.3,,2604,43.2,5.5,3.5
2018,3,24,14:00,UTC,,987.8,91,,,-4.9,,3278,34,4.6,3.1
2018,3,24,15:00,UTC,,987.5,93,,,-4.7,,2345,25.2,5.6,3.6
2018,3,24,16:00,UTC,,987.4,92,,,-4.6,,19160,22.1,4.4,2.9
2018,3,24,17:00,UTC,,987.9,91,,,-4.6,,50000,11.3,4.7,3.2
2018,3,24,18:00,UTC,,988.6,92,,,-5.2,,5842,5.7,5.8,3.7
2018,3,24,19:00,UTC,,989.2,92,,,-5.7,,14802,181.6,5.2,3.1
2018,3,24,20:00,UTC,,989.8,91,,,-6.2,,50000,179.5,4.7,2.9
2018,3,24,21:00,UTC,,990.5,91,,,-7.3,,50000,175.4,4.3,2.6
2018,3,24,22:00,UTC,,991,90,,,-7.7,,50000,180.6,4,2.4
2018,3,24,23:00,UTC,,991.6,91,,,-8.4,,50000,177,3,1.9
2018,3,25,00:00,UTC,,992.2,91,,,-9.7,,50000,173.9,3.3,1.9
2018,3,25,01:00,UTC,,992.4,92,,,-10.9,,50000,182.1,2.1,1.2
2018,3,25,02:00,UTC,,993.1,89,,,-11.4,,50000,173.9,2.8,2
2018,3,25,03:00,UTC,,993.5,88,,,-14.4,,50000,183.7,2.5,1.8
2018,3,25,04:00,UTC,,994.1,87,,,-14,,50000,181.1,1.9,1.3
2018,3,25,05:00,UTC,,994.6,86,,,-13.8,,50000,183.7,2,1.2
2018,3,25,06:00,UTC,,995.2,86,,,-14,,24177,182.6,2.9,1.9
2018,3,25,07:00,UTC,,995.8,83,,,-13.2,,33214,184.2,2.4,1.5
2018,3,25,08:00,UTC,,996.3,80,,,-10.4,,43426,183.1,3.1,2
2018,3,25,09:00,UTC,,997.1,74,,,-7.8,,36179,181.1,3.4,2.3
2018,3,25,10:00,UTC,,997.7,60,,,-5.8,,37021,7.2,6.3,3.8
2018,3,25,11:00,UTC,,998.2,53,,,-5.2,,50000,185.2,6.5,4.1
2018,3,25,12:00,UTC,,998.8,57,,,-5.9,,47162,170.3,7.2,4.1
2018,3,25,13:00,UTC,,999.3,55,,,-6.2,,50000,168.7,8.8,5.6
2018,3,25,14:00,UTC,,999.7,56,,,-6.5,,49816,169.8,9.3,5.7
2018,3,25,15:00,UTC,,1000.1,51,,,-6.5,,48252,166.7,7.4,5.3
2018,3,25,16:00,UTC,,1000.5,54,,,-7.4,,50000,165.7,7.1,4.6
2018,3,25,17:00,UTC,,1001.1,61,,,-8.6,,50000,166.7,4.7,3.2
2018,3,25,18:00,UTC,,1001.8,65,,,-9.2,,50000,167.7,6.4,4.4
2018,3,25,19:00,UTC,,1002.2,68,,,-10.1,,50000,167.7,5.5,3.7
2018,3,25,20:00,UTC,,1002.4,66,,,-9.7,,50000,165.7,5.6,4
2018,3,25,21:00,UTC,,1002.9,70,,,-12.9,,50000,160,3.5,2.7
2018,3,25,22:00,UTC,,1003.3,77,,,-14.2,,50000,159.5,2.3,1.5
2018,3,25,23:00,UTC,,1003.7,71,,,-13.3,,50000,153.8,4.1,3.1
2018,3,26,00:00,UTC,,1004,71,,,-14.4,,50000,165.7,4.1,3
2018,3,26,01:00,UTC,,1004.5,77,,,-15.1,,50000,171.3,3.1,2.1
2018,3,26,02:00,UTC,,1004.9,76,,,-12.7,,42312,167.2,4.8,2.9
2018,3,26,03:00,UTC,,1005.4,80,,,-13,,50000,169.3,4.7,3.1
2018,3,26,04:00,UTC,,1006,83,,,-15,,50000,170.8,4.1,2.8
2018,3,26,05:00,UTC,,1006.6,83,,,-15.2,,50000,172.3,4.5,3
2018,3,26,06:00,UTC,,1007,78,,,-13.3,,50000,164.6,3,1.9
2018,3,26,07:00,UTC,,1007.7,75,,,-12,,50000,172.3,5.6,3.8
2018,3,26,08:00,UTC,,1008,72,,,-10.6,,45891,171.8,5.1,3.4
2018,3,26,09:00,UTC,,1008.6,71,,,-10.2,,34977,149.2,5.6,4.4
2018,3,26,10:00,UTC,,1009,71,,,-8.8,,50000,155.4,7.4,6
2018,3,26,11:00,UTC,,1009.3,67,,,-7.1,,33083,150.7,6.5,5.5
2018,3,26,12:00,UTC,,1009.4,62,,,-5.2,,10221,157.9,8.4,6.3
2018,3,26,13:00,UTC,,1009.6,64,,,-4.6,,20063,157.9,8.9,6.4
2018,3,26,14:00,UTC,,1010,57,,,-4.1,,24430,156.9,10.2,6.9
2018,3,26,15:00,UTC,,1009.9,60,,,-3.9,,50000,148.7,7.2,5.5
2018,3,26,16:00,UTC,,1009.9,70,,,-6.1,,50000,136.8,6.3,5.1
2018,3,26,17:00,UTC,,1010,76,,,-8,,50000,137.4,5,4.1
2018,3,26,18:00,UTC,,1010.2,78,,,-9.4,,50000,139.4,4.4,3.8
2018,3,26,19:00,UTC,,1010.4,81,,,-11.8,,50000,144,3.9,3.4
2018,3,26,20:00,UTC,,1010.7,87,,,-12.2,,50000,128.6,3.3,2.8
2018,3,26,21:00,UTC,,1010.9,85,,,-13.6,,50000,140.4,3.3,2.9
2018,3,26,22:00,UTC,,1011.3,89,,,-16.7,,50000,168.7,2.2,1.4
2018,3,26,23:00,UTC,,1011.3,83,,,-15.5,,50000,157.4,2.1,1
2018,3,27,00:00,UTC,,1011.4,78,,,-14,,50000,168.2,2.5,1.6
2018,3,27,01:00,UTC,,1011.5,77,,,-14.4,,50000,162.6,3.9,2.7
2018,3,27,02:00,UTC,,1011.7,79,,,-15.6,,50000,156.4,2.9,2.3
2018,3,27,03:00,UTC,,1011.8,83,,,-16.9,,50000,166.2,2.3,1.1
2018,3,27,04:00,UTC,,1012,84,,,-15.9,,50000,152.3,2.6,1.5
2018,3,27,05:00,UTC,,1012.3,85,,,-15.7,,50000,154.8,3,2.1
2018,3,27,06:00,UTC,,1012.2,78,,,-13.3,,50000,129.1,2.7,2
2018,3,27,07:00,UTC,,1012.3,73,,,-10.7,,50000,153.8,4.9,3.7
2018,3,27,08:00,UTC,,1012.1,69,,,-8.4,,27172,143,4.9,3.7
2018,3,27,09:00,UTC,,1012.1,75,,,-8.1,,41504,141.5,4.9,3.7
2018,3,27,10:00,UTC,,1011.9,74,,,-6.8,,49972,144,5.2,3.7
2018,3,27,11:00,UTC,,1011.6,74,,,-6.5,,32592,137.9,5.8,4.2
2018,3,27,12:00,UTC,,1011.5,81,,,-6.4,,46462,136.3,8.4,6.3
2018,3,27,13:00,UTC,,1011.1,85,,,-6.3,,37519,135.3,7.8,5.7
2018,3,27,14:00,UTC,,1011,87,,,-5.9,,11037,133.2,7.5,5.6
2018,3,27,15:00,UTC,,1010.9,87,,,-5.5,,7260,134.8,9.8,5.8
2018,3,27,16:00,UTC,,1010.5,86,,,-5.1,,33823,132.2,6.4,4.6
2018,3,27,17:00,UTC,,1010.3,85,,,-5.2,,50000,126,4.7,3.3
2018,3,27,18:00,UTC,,1009.9,82,,,-5.5,,50000,129.6,4,3
2018,3,27,19:00,UTC,,1009.5,83,,,-6,,50000,137.4,4.8,3.5
2018,3,27,20:00,UTC,,1009.6,85,,,-6.3,,50000,137.4,2.8,2
2018,3,27,21:00,UTC,,1009.4,94,,,-8.4,,50000,136.8,2,1.5
2018,3,27,22:00,UTC,,1009.6,90,,,-8.6,,50000,126,0.9,0.5
2018,3,27,23:00,UTC,,1009.6,94,,,-7.8,,50000,152.8,1.8,1.2
2018,3,28,00:00,UTC,,1009.8,94,,,-7.1,,16139,182.6,2,0.9
2018,3,28,01:00,UTC,,1009.5,93,,,-6.8,,47999,145.6,1.6,1.1
2018,3,28,02:00,UTC,,1009.6,94,,,-7.4,,11533,153.8,1.5,1.1
2018,3,28,03:00,UTC,,1010,94,,,-7.2,,3669,176.5,1.9,1.2
2018,3,28,04:00,UTC,,1010.3,95,,,-7.2,,5984,164.6,2,1.5
2018,3,28,05:00,UTC,,1010.6,94,,,-7.6,,50000,167.7,3,1.9
2018,3,28,06:00,UTC,,1010.9,93,,,-7.8,,43530,174.9,3.1,2.2
2018,3,28,07:00,UTC,,1011.4,87,,,-6.5,,50000,172.9,4.2,3.1
2018,3,28,08:00,UTC,,1011.6,81,,,-5.5,,38195,174.9,3.8,2.5
2018,3,28,09:00,UTC,,1011.8,69,,,-3.7,,37882,175.4,4.1,2.5
2018,3,28,10:00,UTC,,1011.7,66,,,-3.3,,38942,161,5.4,3.7
2018,3,28,11:00,UTC,,1011.8,70,,,-3.5,,25814,146.1,6.7,5.6
2018,3,28,12:00,UTC,,1011.9,68,,,-3.1,,50000,149.7,4.8,3.6
2018,3,28,13:00,UTC,,1011.8,64,,,-2.4,,41988,138.9,4.8,3.6
2018,3,28,14:00,UTC,,1011.9,77,,,-3.5,,50000,135.8,4.1,3.4
2018,3,28,15:00,UTC,,1011.7,76,,,-3.6,,50000,138.9,5.1,2.7
2018,3,28,16:00,UTC,,1011.6,80,,,-4.4,,50000,134.3,5.8,4.5
2018,3,28,17:00,UTC,,1011.4,78,,,-4.5,,50000,131.2,4.6,3.2
2018,3,28,18:00,UTC,,1011,77,,,-4.5,,50000,123.5,3.3,2.4
2018,3,28,19:00,UTC,,1010.8,79,,,-4.6,,50000,120.9,3.9,2.5
2018,3,28,20:00,UTC,,1010.4,77,,,-4.5,,50000,109.6,3.7,2.4
2018,3,28,21:00,UTC,,1009.6,72,,,-3.9,,50000,116.3,6.7,5
2018,3,28,22:00,UTC,,1009.5,73,,,-4.2,,50000,124,5.8,4.5
2018,3,28,23:00,UTC,,1009.3,73,,,-4.6,,50000,124,6.1,4.5
2018,3,29,00:00,UTC,,1009.2,72,,,-5.2,,50000,124.5,4.6,3.6
2018,3,29,01:00,UTC,,1008.9,70,,,-4.8,,50000,121.4,5.5,4
2018,3,29,02:00,UTC,,1008.5,70,,,-5.3,,50000,121.4,5.6,3.8
2018,3,29,03:00,UTC,,1008,70,,,-6,,50000,117.3,5.2,3.9
2018,3,29,04:00,UTC,,1007.8,72,,,-6.8,,50000,117.3,4.3,3.3
2018,3,29,05:00,UTC,,1007.7,72,,,-6,,50000,131.7,6.7,4.9
2018,3,29,06:00,UTC,,1007.8,71,,,-5.6,,50000,131.2,7.3,5.3
2018,3,29,07:00,UTC,,1007.6,69,,,-4.7,,35486,133.2,8.3,6.3
2018,3,29,08:00,UTC,,1007.7,65,,,-3.7,,41033,132.2,7.3,4.9
2018,3,29,09:00,UTC,,1007.8,67,,,-3.8,,50000,140.4,8.4,6.4
2018,3,29,10:00,UTC,,1007.8,65,,,-3,,50000,125,6.2,4.6
2018,3,29,11:00,UTC,,1007.8,65,,,-2.7,,30961,131.7,7.2,5
2018,3,29,12:00,UTC,,1007.8,66,,,-2.6,,43575,130.7,6.8,5.1
2018,3,29,13:00,UTC,,1007.7,66,,,-2.3,,48268,131.7,7.9,5.4
2018,3,29,14:00,UTC,,1007.5,66,,,-2,,45641,124,7.4,5.6
2018,3,29,15:00,UTC,,1007.2,68,,,-2,,50000,124,8.1,5.8
2018,3,29,16:00,UTC,,1007.3,69,,,-2.2,,50000,124.5,5.7,4.1
2018,3,29,17:00,UTC,,1007.2,72,,,-2.6,,50000,118.3,5.5,4.1
2018,3,29,18:00,UTC,,1007.3,74,,,-2.5,,50000,121.9,5.4,4.1
2018,3,29,19:00,UTC,,1007.6,76,,,-2.4,,50000,128.1,6.5,4.7
2018,3,29,20:00,UTC,,1007.6,79,,,-3.1,,50000,127.6,5.1,3.8
2018,3,29,21:00,UTC,,1008,81,,,-3.6,,50000,129.6,4.6,3.7
2018,3,29,22:00,UTC,,1008.2,81,,,-3.9,,50000,124,3.9,2.8
2018,3,29,23:00,UTC,,1008.5,87,,,-5.6,,50000,123.5,3,2.4
2018,3,30,00:00,UTC,,1008.9,89,,,-6.8,,50000,137.9,3.3,2.5
2018,3,30,01:00,UTC,,1009.3,93,,,-8.8,,50000,141.5,2.5,1.9
2018,3,30,02:00,UTC,,1009.3,91,,,-10.7,,50000,140.4,2.4,2
2018,3,30,03:00,UTC,,1009.6,91,,,-11.1,,50000,146.1,2.1,1.6
2018,3,30,04:00,UTC,,1010,90,,,-12.6,,50000,146.6,0.8,0.6
2018,3,30,05:00,UTC,,1010.1,91,,,-12.6,,50000,136.8,1.4,0.7
2018,3,30,06:00,UTC,,1010.6,91,,,-11.1,,48069,184.2,1.3,0.9
2018,3,30,07:00,UTC,,1010.9,85,,,-9.4,,47790,43.7,1.4,0.9
2018,3,30,08:00,UTC,,1011.2,75,,,-6,,27493,72,1.5,1.1
2018,3,30,09:00,UTC,,1011.5,66,,,-3.6,,35934,129.6,1.7,1.3
2018,3,30,10:00,UTC,,1011.6,55,,,-1.6,,50000,126,2.6,1.7
2018,3,30,11:00,UTC,,1011.6,47,,,-0.4,,50000,116.8,4,1.7
2018,3,30,12:00,UTC,,1011.3,43,,,1.1,,50000,69.4,0.8,0.3
2018,3,30,13:00,UTC,,1011,48,,,-0.2,,38507,115.2,3.4,2.4
2018,3,30,14:00,UTC,,1010.7,49,,,-0.4,,45608,156.9,2,1.4
2018,3,30,15:00,UTC,,1010.3,52,,,-1,,50000,22.6,2,1.5
2018,3,30,16:00,UTC,,1010,56,,,-1.9,,48864,31.9,1.6,1.2
2018,3,30,17:00,UTC,,1009.9,63,,,-3.5,,47584,10.8,0.8,0.5
2018,3,30,18:00,UTC,,1009.8,74,,,-7.1,,50000,37,0.7,0.3
2018,3,30,19:00,UTC,,1009.8,76,,,-7.2,,50000,82.3,1.5,0.8
2018,3,30,20:00,UTC,,1009.6,80,,,-9,,50000,67.9,1.4,1.1
2018,3,30,21:00,UTC,,1009.5,70,,,-5.7,,50000,90.5,3.2,2.1
2018,3,30,22:00,UTC,,1009.3,64,,,-5.2,,50000,84.4,2.4,1.6
2018,3,30,23:00,UTC,,1009,65,,,-5.1,,50000,93.6,2,1.7
2018,3,31,00:00,UTC,,1009,68,,,-6,,50000,125.5,2.3,1.6
2018,3,31,01:00,UTC,,1008.9,80,,,-8.1,,50000,92.6,1.1,0.7
2018,3,31,02:00,UTC,,1008.5,86,,,-9.8,,50000,106.5,2.6,2.1
2018,3,31,03:00,UTC,,1008.2,88,,,-8.1,,43265,97.7,3.8,3.2
2018,3,31,04:00,UTC,,1008.2,91,,,-8.8,,50000,104.9,2.6,1.8
2018,3,31,05:00,UTC,,1008.2,94,,,-8.4,,36882,126,3.7,2.8
2018,3,31,06:00,UTC,,1008.4,93,,,-7.4,,50000,109.6,3.4,1.9
2018,3,31,07:00,UTC,,1008.7,85,,,-6,,45910,127.6,3.5,1.9
2018,3,31,08:00,UTC,,1008.7,75,,,-4.3,,33866,115.7,3.6,2.5
2018,3,31,09:00,UTC,,1008.8,66,,,-2.4,,28640,123.5,4.2,3.1
2018,3,31,10:00,UTC,,1009.1,70,,,-3.8,,34424,152.3,4.5,3.7
2018,3,31,11:00,UTC,,1009.2,71,,,-3.5,,38254,144,4,3.4
2018,3,31,12:00,UTC,,1009.3,71,,,-3.2,,40280,146.1,3.6,3
2018,3,31,13:00,UTC,,1009.4,68,,,-2.4,,27480,145.1,4.2,3.6
2018,3,31,14:00,UTC,,1009.2,65,,,-2.2,,47030,143,4.7,3.8
2018,3,31,15:00,UTC,,1009.1,67,,,-3,,50000,153.3,3.2,2.7
2018,3,31,16:00,UTC,,1008.9,61,,,-2.1,,46034,145.6,2.3,1.9
2018,3,31,17:00,UTC,,1009,70,,,-4.4,,50000,133.2,1,0.8
2018,3,31,18:00,UTC,,1009.1,75,,,-6.3,,50000,100.3,2.5,1.1
2018,3,31,19:00,UTC,,1009.1,85,,,-7.9,,50000,109.6,2.9,2.1
2018,3,31,20:00,UTC,,1009.1,90,,,-9.4,,50000,82.8,1.2,0.8
2018,3,31,21:00,UTC,,1009.2,89,,,-9.8,,50000,71,1.8,1.2
2018,3,31,22:00,UTC,,1009.4,85,,,-9.2,,50000,83.3,2.2,1.8
2018,3,31,23:00,UTC,,1009.6,91,,,-10.3,,50000,80.3,2.2,1.8
2018,4,1,00:00,UTC,,1009.6,90,,,-10.7,,50000,66.9,2.7,2.5
2018,4,1,01:00,UTC,,1009.8,92,,,-10.5,,50000,69.4,2.2,1.7
2018,4,1,02:00,UTC,,1009.5,92,,,-10.4,,50000,62.8,2.7,2.4
2018,4,1,03:00,UTC,,1009.3,91,,,-12.3,,50000,73.6,2.7,2.4
2018,4,1,04:00,UTC,,1009.3,91,,,-12.1,,50000,65.3,3,2.5
2018,4,1,05:00,UTC,,1009.5,89,,,-11.6,,45910,66.9,3.1,2.7
2018,4,1,06:00,UTC,,1009.5,83,,,-7.7,,50000,75.6,4.5,3.1
2018,4,1,07:00,UTC,,1009.6,77,,,-7.1,,41431,62.8,3.2,2.8
2018,4,1,08:00,UTC,,1009.7,65,,,-4.1,,38671,61.2,3.5,3
2018,4,1,09:00,UTC,,1009.8,55,,,-1.3,,48238,60.2,3,2.5
2018,4,1,10:00,UTC,,1009.7,41,,,1.7,,45549,67.9,3.6,2.4
2018,4,1,11:00,UTC,,1009.6,39,,,2.4,,36186,66.9,4.5,3.3
2018,4,1,12:00,UTC,,1009.2,33,,,3.3,,44169,115.2,5.2,3.1
2018,4,1,13:00,UTC,,1008.8,36,,,2.7,,45146,85.9,4,2
2018,4,1,14:00,UTC,,1008.9,44,,,0.9,,50000,153.3,4.8,3.6
2018,4,1,15:00,UTC,,1008.8,57,,,-1.2,,39697,149.2,5.1,4.5
2018,4,1,16:00,UTC,,1009,63,,,-3.7,,45076,149.2,3.6,3
2018,4,1,17:00,UTC,,1008.7,67,,,-4.1,,50000,171.8,2,1.1
2018,4,1,18:00,UTC,,1009,74,,,-5.6,,50000,60.2,0.5,0.2
2018,4,1,19:00,UTC,,1008.8,82,,,-7.9,,50000,175.4,0.3,0.2
2018,4,1,20:00,UTC,,1008.9,88,,,-9.7,,50000,120.4,0.6,0.2
2018,4,1,21:00,UTC,,1008.8,90,,,-12.1,,50000,134.3,0.5,0.4
2018,4,1,22:00,UTC,,1008.5,92,,,-12.4,,50000,90.5,1.1,0.4
2018,4,1,23:00,UTC,,1008.3,91,,,-13.3,,50000,165.7,1,0.6
2018,4,2,00:00,UTC,,1008.1,88,,,-14,,50000,9.8,0.3,0.2
2018,4,2,01:00,UTC,,1007.7,81,,,-15.9,,50000,0.5,1.2,0.8
2018,4,2,02:00,UTC,,1007.2,87,,,-15.5,,50000,72,0.4,0.2
2018,4,2,03:00,UTC,,1006.7,88,,,-15.4,,50000,183.7,1.4,0.9
2018,4,2,04:00,UTC,,1006.5,84,,,-15.6,,50000,26.8,1.4,1.1
2018,4,2,05:00,UTC,,1006.1,88,,,-12.4,,49425,22.1,1.7,1.5
2018,4,2,06:00,UTC,,1005.5,79,,,-8.7,,48737,30.9,0.9,0.6
2018,4,2,07:00,UTC,,1005.1,63,,,-5.6,,50000,26.2,2.1,1.5
2018,4,2,08:00,UTC,,1004.5,56,,,-3.2,,29298,24.2,3.6,2.2
2018,4,2,09:00,UTC,,1003.5,55,,,-1,,42226,9.8,4,3
2018,4,2,10:00,UTC,,1002.4,47,,,0.8,,49858,19,5.1,3.2
2018,4,2,11:00,UTC,,1001.1,39,,,1.8,,46028,19.5,7,4.5
2018,4,2,12:00,UTC,,1000,44,,,1.9,,50000,19.5,7.5,5.2
2018,4,2,13:00,UTC,,999,49,,,1.9,,43615,14.4,6.7,5
2018,4,2,14:00,UTC,,998.2,53,,,2,,50000,19.5,6.9,4.7
2018,4,2,15:00,UTC,,997.5,58,,,2.1,,41723,22.1,7.7,5
2018,4,2,16:00,UTC,,996.7,61,,,1.9,,50000,20.6,9.1,5.7
2018,4,2,17:00,UTC,,995.9,65,,,1.3,,50000,13.9,8.5,5.2
2018,4,2,18:00,UTC,,995.9,70,,,0.6,,50000,21.1,6.5,4.5
2018,4,2,19:00,UTC,,995.5,86,,,-1,,24053,12.3,6.9,4.7
2018,4,2,20:00,UTC,,994.8,89,,,-1.4,,11140,4.6,7.8,4.7
2018,4,2,21:00,UTC,,994.3,91,,,-1.8,,12122,1.5,6.5,4.5
2018,4,2,22:00,UTC,,993.9,92,,,-2.1,,8580,183.1,7.4,4.3
2018,4,2,23:00,UTC,,993.5,94,,,-2.3,,5864,179.5,8.2,4.6
2018,4,3,00:00,UTC,,993.2,93,,,-2.4,,11507,181.1,7,4.5
2018,4,3,01:00,UTC,,993,92,,,-2.6,,12297,181.6,7.3,4.3
2018,4,3,02:00,UTC,,992.9,93,,,-2.8,,9404,180.1,7,3.9
2018,4,3,03:00,UTC,,992.8,93,,,-2.9,,8984,178,5.9,4
2018,4,3,04:00,UTC,,992.9,94,,,-2.9,,5810,172.3,6.3,3.8
2018,4,3,05:00,UTC,,993,94,,,-2.9,,11249,170.8,7,4.6
2018,4,3,06:00,UTC,,993.1,92,,,-2.9,,11501,168.7,8.1,5.2
2018,4,3,07:00,UTC,,993.4,92,,,-2.8,,6916,168.7,9.4,6
2018,4,3,08:00,UTC,,993.7,91,,,-2.5,,6385,166.2,8.5,6
2018,4,3,09:00,UTC,,994.2,90,,,-2.5,,6328,167.7,10.8,7.7
2018,4,3,10:00,UTC,,994.6,89,,,-2.4,,14908,165.1,11.3,6.6
2018,4,3,11:00,UTC,,995.3,87,,,-2.4,,8416,162,11.9,7.7
2018,4,3,12:00,UTC,,995.9,87,,,-2.4,,13907,157.9,12.2,8.2
2018,4,3,13:00,UTC,,996.3,80,,,-1.7,,43420,158.4,11.7,8.5
2018,4,3,14:00,UTC,,996.8,82,,,-1.3,,16366,156.9,11.3,8.3
2018,4,3,15:00,UTC,,997.3,88,,,-1.3,,11959,150.7,10.7,8.3
2018,4,3,16:00,UTC,,997.6,81,,,-0.6,,21388,154.8,14.8,8.9
2018,4,3,17:00,UTC,,998.3,84,,,-1.4,,33852,155.9,11.8,8.6
2018,4,3,18:00,UTC,,999.1,81,,,-2.1,,50000,143.5,8.8,6.2
2018,4,3,19:00,UTC,,999.7,82,,,-2.9,,50000,135.3,6.6,5
2018,4,3,20:00,UTC,,1000.4,82,,,-2.8,,50000,138.4,7,5.4
2018,4,3,21:00,UTC,,1001.1,81,,,-3.5,,50000,141.5,7.2,5.2
2018,4,3,22:00,UTC,,1001.8,80,,,-3.7,,50000,141,6,4.4
2018,4,3,23:00,UTC,,1002.5,85,,,-5.6,,50000,136.3,5.5,4.2
2018,4,4,00:00,UTC,,1003.3,88,,,-7.6,,50000,138.4,5,3.7
2018,4,4,01:00,UTC,,1004,89,,,-8.3,,50000,132.2,3.9,3.2
2018,4,4,02:00,UTC,,1004.4,89,,,-8.4,,50000,133.8,4.3,3.5
2018,4,4,03:00,UTC,,1005.1,92,,,-9.4,,50000,133.2,3.1,2.2
2018,4,4,04:00,UTC,,1005.7,92,,,-10,,50000,127.1,3.2,2.6
2018,4,4,05:00,UTC,,1006.1,87,,,-8.7,,39686,124,4.9,3.6
2018,4,4,06:00,UTC,,1006.6,81,,,-7.5,,41814,139.4,2.9,1.5
2018,4,4,07:00,UTC,,1007.1,78,,,-5.5,,50000,148.7,2.9,2.3
2018,4,4,08:00,UTC,,1007.6,73,,,-3.8,,33298,141,2.4,1.6
2018,4,4,09:00,UTC,,1007.7,62,,,-1,,47194,125.5,3.6,2.4
2018,4,4,10:00,UTC,,1007.7,55,,,1,,50000,147.6,2.1,1.1
2018,4,4,11:00,UTC,,1007.7,57,,,1.1,,45475,51.4,2.8,1.9
2018,4,4,12:00,UTC,,1007.3,57,,,1.5,,47574,57.6,3.4,3
2018,4,4,13:00,UTC,,1006.7,57,,,1.9,,50000,55.6,5,4.1
2018,4,4,14:00,UTC,,1005.9,48,,,2.9,,48785,63.3,6.9,5.7
2018,4,4,15:00,UTC,,1005.2,50,,,2.9,,50000,74.1,7.1,5
2018,4,4,16:00,UTC,,1004.2,57,,,1.9,,50000,59.2,6.1,4.9
2018,4,4,17:00,UTC,,1003.6,55,,,2.3,,50000,60.7,7,5.9
2018,4,4,18:00,UTC,,1002.9,54,,,2.3,,50000,64.8,8.6,6.7
2018,4,4,19:00,UTC,,1002.2,55,,,2.2,,50000,63.8,9.3,7
2018,4,4,20:00,UTC,,1001.8,64,,,1.8,,32085,66.4,10.9,6.4
2018,4,4,21:00,UTC,,1001,64,,,2,,50000,63.8,7,5.5
2018,4,4,22:00,UTC,,1000.5,95,,,0,,6130,68.9,6.7,4.8
2018,4,4,23:00,UTC,,999.9,98,,,0,,5603,66.9,6.8,5.5
2018,4,5,00:00,UTC,,999.8,98,,,0.1,,10862,71,6.6,4.8
2018,4,5,01:00,UTC,,1000.1,99,,,0.3,,17802,77.2,4.5,3.5
2018,4,5,02:00,UTC,,999.7,99,,,0.4,,13352,77.7,4.6,3.4
2018,4,5,03:00,UTC,,1000.3,99,,,0.6,,34562,82.8,4,2.7
2018,4,5,04:00,UTC,,1000.4,99,,,0.9,,6489,85.9,4.4,3.2
2018,4,5,05:00,UTC,,1000.8,99,,,1.2,,23777,96.2,4,2.8
2018,4,5,06:00,UTC,,1002,99,,,1.4,,14158,123,4.9,2.9
2018,4,5,07:00,UTC,,1002.5,97,,,1.5,,48522,117.3,4.7,2.5
2018,4,5,08:00,UTC,,1002.7,93,,,1.5,,45535,121.9,4.1,3.1
2018,4,5,09:00,UTC,,1003.1,93,,,1.4,,40594,133.8,5.1,2.2
2018,4,5,10:00,UTC,,1003.5,93,,,1.4,,43173,133.8,3.4,2.4
2018,4,5,11:00,UTC,,1003.6,95,,,1.2,,34957,165.7,1.5,1.1
2018,4,5,12:00,UTC,,1003.5,95,,,0.9,,45147,16.5,2.9,1.9
2018,4,5,13:00,UTC,,1002.9,95,,,1,,12453,17.5,3.1,2.1
2018,4,5,14:00,UTC,,1002.6,96,,,1.2,,12176,23.7,2,1.4
2018,4,5,15:00,UTC,,1001.9,98,,,1.3,,6823,18.5,3.4,2.2
2018,4,5,16:00,UTC,,1000.9,99,,,1.6,,6849,27.8,4.4,3
2018,4,5,17:00,UTC,,1000.5,99,,,2.3,,11276,36,3.8,2.7
2018,4,5,18:00,UTC,,999.8,98,,,2.6,,14954,36.5,4.6,3.1
2018,4,5,19:00,UTC,,999.5,99,,,2.5,,11148,42.2,2.4,1.7
2018,4,5,20:00,UTC,,997.8,99,,,2.4,,7412,35.5,5.3,3.2
2018,4,5,21:00,UTC,,996.4,99,,,2.6,,10281,41.7,4.1,2.6
2018,4,5,22:00,UTC,,995.2,99,,,2.5,,16781,39.1,4.4,2.9
2018,4,5,23:00,UTC,,994.1,99,,,2.5,,20721,44.2,4.8,3
2018,4,6,00:00,UTC,,993,99,,,2.2,,15342,51.4,4.4,3.2
2018,4,6,01:00,UTC,,992.2,99,,,2.4,,19843,68.9,4,3.1
2018,4,6,02:00,UTC,,991.7,99,,,2.4,,12216,86.4,3.5,2.1
2018,4,6,03:00,UTC,,991.6,100,,,2.4,,9178,82.3,3.7,2.7
2018,4,6,04:00,UTC,,991.7,100,,,2.6,,9982,85.9,3.2,2.2
2018,4,6,05:00,UTC,,991.8,100,,,2.6,,1172,101.9,2.5,1.9
2018,4,6,06:00,UTC,,992.1,100,,,2.7,,1778,112.7,6.2,2.2
2018,4,6,07:00,UTC,,992.7,100,,,2.3,,2333,121.4,4.3,3
2018,4,6,08:00,UTC,,993.4,100,,,2,,4935,125.5,4.8,3.3
2018,4,6,09:00,UTC,,994.2,100,,,0.9,,3778,135.8,4.8,3.8
2018,4,6,10:00,UTC,,995.2,100,,,0.9,,8774,129.1,5.3,3.9
2018,4,6,11:00,UTC,,995.8,99,,,0.8,,9462,137.9,5.4,3.7
2018,4,6,12:00,UTC,,996.4,99,,,0.8,,43169,145.6,5.4,3.5
2018,4,6,13:00,UTC,,997.1,96,,,1,,50000,161,7.9,5.5
2018,4,6,14:00,UTC,,997.9,96,,,1,,50000,162.6,8.1,6
2018,4,6,15:00,UTC,,998.8,96,,,0.9,,16425,163.6,9.2,6.3
2018,4,6,16:00,UTC,,999.8,95,,,0.9,,41738,164.1,9.8,7.1
2018,4,6,17:00,UTC,,1001,93,,,0.8,,43206,163.6,9.5,6.4
2018,4,6,18:00,UTC,,1002,88,,,1,,50000,167.7,7,4.6
2018,4,6,19:00,UTC,,1002.9,88,,,0.2,,50000,156.4,4.8,3.7
2018,4,6,20:00,UTC,,1003.8,87,,,-0.8,,50000,142.5,4,3.2
2018,4,6,21:00,UTC,,1004.4,65,,,0.4,,50000,157.9,9.5,6.6
2018,4,6,22:00,UTC,,1005.2,63,,,0.2,,50000,157.9,8.6,6.6
2018,4,6,23:00,UTC,,1006,74,,,-1.3,,50000,149.7,6.6,5.5
2018,4,7,00:00,UTC,,1006.9,75,,,-1.6,,50000,148.2,7.6,6.2
2018,4,7,01:00,UTC,,1007.5,81,,,-3.1,,50000,133.2,5.5,4.3
2018,4,7,02:00,UTC,,1008.3,81,,,-3.6,,50000,135.8,6.6,5.2
2018,4,7,03:00,UTC,,1009.3,81,,,-4.1,,50000,136.8,6.6,5.1
2018,4,7,04:00,UTC,,1010.1,82,,,-3.9,,50000,133.2,5.8,4.3
2018,4,7,05:00,UTC,,1010.8,79,,,-2.7,,43362,133.8,6.2,4.7
2018,4,7,06:00,UTC,,1011.2,76,,,-2,,50000,132.2,6.8,5.3
2018,4,7,07:00,UTC,,1011.4,75,,,-1.5,,48779,131.7,11.5,7.1
2018,4,7,08:00,UTC,,1011.5,70,,,-0.8,,33671,132.2,9.1,6.5
2018,4,7,09:00,UTC,,1011.8,63,,,1,,50000,130.2,8.9,6.3
2018,4,7,10:00,UTC,,1012.1,65,,,1,,50000,127.1,8.9,6.5
2018,4,7,11:00,UTC,,1011.9,63,,,1.7,,42429,125.5,10.5,7.4
2018,4,7,12:00,UTC,,1012.1,62,,,2.2,,47732,126.6,9.5,6.6
2018,4,7,13:00,UTC,,1012,61,,,2.8,,50000,124.5,9.8,6.5
2018,4,7,14:00,UTC,,1012,61,,,2.6,,41774,123.5,8.7,6.4
2018,4,7,15:00,UTC,,1011.8,61,,,2.6,,50000,124.5,9.7,6.6
2018,4,7,16:00,UTC,,1011.5,66,,,1.9,,50000,119.9,8.4,5.5
2018,4,7,17:00,UTC,,1011.7,70,,,1.3,,50000,118.8,6.8,4.1
2018,4,7,18:00,UTC,,1011.6,75,,,0.1,,50000,113.2,5.3,3.7
2018,4,7,19:00,UTC,,1011.5,78,,,-0.5,,50000,113.2,5,3.5
2018,4,7,20:00,UTC,,1011.4,82,,,-0.4,,50000,114.7,4,2.6
2018,4,7,21:00,UTC,,1011.2,84,,,-0.7,,50000,107.5,4.7,3.3
2018,4,7,22:00,UTC,,1010.9,85,,,-0.4,,50000,112.7,7.6,3.1
2018,4,7,23:00,UTC,,1010.9,85,,,-0.1,,50000,115.7,5,3.3
2018,4,8,00:00,UTC,,1010.6,84,,,0.2,,50000,108,4.3,3.1
2018,4,8,01:00,UTC,,1010.5,88,,,-0.1,,50000,107.5,5.7,3.9
2018,4,8,02:00,UTC,,1010.3,92,,,-0.8,,50000,109.1,4.3,3.1
2018,4,8,03:00,UTC,,1010.7,96,,,-1.5,,50000,115.7,3.1,2.2
2018,4,8,04:00,UTC,,1011,96,,,-0.3,,50000,128.1,5.2,3.6
2018,4,8,05:00,UTC,,1011.1,92,,,-0.9,,30806,137.4,6.4,5.2
2018,4,8,06:00,UTC,,1011.8,97,,,-2.6,,31245,137.4,4.2,3.3
2018,4,8,07:00,UTC,,1012.3,63,,,-1.5,,50000,175.9,4.1,2.8
2018,4,8,08:00,UTC,,1012.9,56,,,-0.6,,50000,152.3,3,2.3
2018,4,8,09:00,UTC,,1013.6,54,,,-0.8,,50000,176.5,4.4,2.8
2018,4,8,10:00,UTC,,1013.8,48,,,0.2,,43905,144,4.5,3.1
2018,4,8,11:00,UTC,,1014.1,50,,,0.6,,50000,146.1,5.2,3.8
2018,4,8,12:00,UTC,,1014.5,51,,,0.7,,46947,140.4,5.1,3.8
2018,4,8,13:00,UTC,,1014.6,55,,,0.8,,50000,147.1,4.2,3.1
2018,4,8,14:00,UTC,,1014.5,50,,,1.2,,32054,135.3,2.9,2
2018,4,8,15:00,UTC,,1013.9,56,,,0.8,,48023,20.1,3.3,2.3
2018,4,8,16:00,UTC,,1013.9,50,,,-0.2,,50000,22.6,1.5,1.1
2018,4,8,17:00,UTC,,1013.6,56,,,-1.2,,50000,15.9,0.8,0.6
2018,4,8,18:00,UTC,,1013.1,64,,,-2.7,,50000,29.8,1.2,0.7
2018,4,8,19:00,UTC,,1012.6,72,,,-3.8,,50000,48.4,0.8,0.6
2018,4,8,20:00,UTC,,1011.8,69,,,-2.9,,49206,61.7,1.5,1.3
2018,4,8,21:00,UTC,,1011.1,66,,,-2.7,,50000,64.3,2.8,2.4
2018,4,8,22:00,UTC,,1010.4,56,,,-1.6,,50000,72.5,5.3,4.5
2018,4,8,23:00,UTC,,1009.4,69,,,-2.3,,50000,64.8,3.9,3.5
2018,4,9,00:00,UTC,,1008.6,72,,,-1.9,,50000,65.8,5.2,4
2018,4,9,01:00,UTC,,1007.4,73,,,-1.5,,50000,68.4,4.6,4
2018,4,9,02:00,UTC,,1006.4,77,,,-0.9,,50000,73.1,5,4.1
2018,4,9,03:00,UTC,,1005.5,82,,,-0.5,,50000,73.6,4.6,3.8
2018,4,9,04:00,UTC,,1004.7,90,,,-0.5,,16137,79.7,3.7,3.1
2018,4,9,05:00,UTC,,1003.9,96,,,-0.4,,8710,82.8,3.6,1.9
2018,4,9,06:00,UTC,,1003.2,98,,,0,,5983,86.4,4.5,2.1
2018,4,9,07:00,UTC,,1002.7,98,,,0.2,,10368,117.8,3.6,2.6
2018,4,9,08:00,UTC,,1002.4,98,,,0.1,,15949,131.2,6.2,4.6
2018,4,9,09:00,UTC,,1002.6,96,,,-0.4,,50000,148.2,6.1,4.7
2018,4,9,10:00,UTC,,1002.9,86,,,0,,34508,145.6,7.5,5.5
2018,4,9,11:00,UTC,,1003.3,75,,,0.2,,50000,147.1,9.3,6.9
2018,4,9,12:00,UTC,,1004.1,69,,,0.7,,44903,148.7,9.1,6.7
2018,4,9,13:00,UTC,,1004.7,58,,,1.6,,50000,148.2,11,7.5
2018,4,9,14:00,UTC,,1004.9,57,,,1.6,,42446,149.2,9.7,7.8
2018,4,9,15:00,UTC,,1005.5,57,,,1.3,,50000,150.7,10.2,7.3
2018,4,9,16:00,UTC,,1006,56,,,0.9,,50000,149.7,8.5,6.7
2018,4,9,17:00,UTC,,1006.5,58,,,-0.1,,50000,148.7,7.3,5.9
2018,4,9,18:00,UTC,,1006.8,68,,,-2.2,,50000,140.4,8,6
2018,4,9,19:00,UTC,,1007.6,61,,,0,,50000,164.1,14.4,8.3
2018,4,9,20:00,UTC,,1008.8,68,,,-1.7,,50000,165.7,11,7.7
2018,4,9,21:00,UTC,,1009.6,71,,,-2.5,,50000,164.6,9.3,6.7
2018,4,9,22:00,UTC,,1010.9,73,,,-3,,50000,163.6,11,6.8
2018,4,9,23:00,UTC,,1012.1,72,,,-3.1,,50000,166.2,11.7,7.4
2018,4,10,00:00,UTC,,1013.1,75,,,-4.3,,50000,164.1,8.7,5.9
2018,4,10,01:00,UTC,,1014.4,77,,,-4.9,,50000,166.2,8.3,5.6
2018,4,10,02:00,UTC,,1015.3,80,,,-6.1,,50000,170.3,7.3,5
2018,4,10,03:00,UTC,,1016.6,82,,,-7.1,,50000,169.8,6,4.7
2018,4,10,04:00,UTC,,1017.9,83,,,-7.5,,50000,172.3,6.4,4.5
2018,4,10,05:00,UTC,,1018.9,81,,,-6.9,,50000,171.3,4.9,3.3
2018,4,10,06:00,UTC,,1020,78,,,-5.5,,50000,168.7,5.4,3.5
2018,4,10,07:00,UTC,,1020.8,77,,,-4.8,,47548,173.4,5.6,3.7
2018,4,10,08:00,UTC,,1021.8,75,,,-4,,33733,171.8,5.7,3.5
2018,4,10,09:00,UTC,,1022.6,72,,,-2.8,,36897,152.8,4.9,3.7
2018,4,10,10:00,UTC,,1023.3,73,,,-2.4,,50000,156.9,5.8,4.7
2018,4,10,11:00,UTC,,1023.6,70,,,-1.1,,42047,155.4,5.4,3.7
2018,4,10,12:00,UTC,,1024.2,70,,,-0.5,,43817,149.2,6,4.9
2018,4,10,13:00,UTC,,1024.6,63,,,0.5,,50000,162,4.5,3.2
2018,4,10,14:00,UTC,,1024.7,67,,,0.3,,40792,151.8,6.7,5.3
2018,4,10,15:00,UTC,,1025.1,76,,,-0.4,,49040,130.7,5.4,4.4
2018,4,10,16:00,UTC,,1025.2,79,,,-1.5,,50000,144.6,4.5,3.4
2018,4,10,17:00,UTC,,1025.3,76,,,-1.7,,50000,132.2,3.8,3
2018,4,10,18:00,UTC,,1025.4,80,,,-2.8,,50000,123.5,2.2,1.7
2018,4,10,19:00,UTC,,1026,87,,,-4.5,,50000,117.8,1.9,1.4
2018,4,10,20:00,UTC,,1026.5,91,,,-7.4,,50000,148.7,0.5,0.2
2018,4,10,21:00,UTC,,1026.5,95,,,-7.6,,50000,113.2,1.6,0.9
2018,4,10,22:00,UTC,,1026.8,95,,,-7.7,,50000,99.3,1.2,0.7
2018,4,10,23:00,UTC,,1026.6,93,,,-7,,50000,104.9,3,2.2
2018,4,11,00:00,UTC,,1026.5,90,,,-6.8,,50000,91.1,3.3,2.2
2018,4,11,01:00,UTC,,1026.4,89,,,-7.2,,50000,87.5,3.4,2.2
2018,4,11,02:00,UTC,,1026.1,85,,,-7.6,,50000,84.9,2.4,1.9
2018,4,11,03:00,UTC,,1025.9,84,,,-6.6,,50000,100.3,3.5,2.7
2018,4,11,04:00,UTC,,1025.9,78,,,-5.4,,50000,100.3,3.7,2.5
2018,4,11,05:00,UTC,,1025.8,72,,,-3.7,,50000,105.5,4.6,2.2
2018,4,11,06:00,UTC,,1025.6,63,,,-1.5,,50000,110.6,4.9,2.8
2018,4,11,07:00,UTC,,1025.7,56,,,0.7,,45333,119.9,5.4,3.5
2018,4,11,08:00,UTC,,1025.6,51,,,2.4,,50000,129.1,6.2,4.3
2018,4,11,09:00,UTC,,1025.8,46,,,3.3,,48386,128.1,6.9,4.8
2018,4,11,10:00,UTC,,1025.3,48,,,3.6,,44830,128.1,6.7,5
2018,4,11,11:00,UTC,,1025.1,45,,,4.1,,44298,130.7,9.7,6.5
2018,4,11,12:00,UTC,,1024.5,42,,,4.6,,50000,127.6,8.6,5.9
2018,4,11,13:00,UTC,,1024.3,39,,,4.9,,31213,121.4,8.9,6.4
2018,4,11,14:00,UTC,,1024.5,36,,,4,,48144,126.6,8.8,5.6
2018,4,11,15:00,UTC,,1024.1,45,,,2.7,,45626,126,8.8,6
2018,4,11,16:00,UTC,,1024.1,50,,,2.3,,50000,129.1,7.9,5.4
2018,4,11,17:00,UTC,,1024,51,,,1.3,,50000,128.1,6.7,4.9
2018,4,11,18:00,UTC,,1024.3,65,,,-0.3,,50000,134.8,5.4,4.2
2018,4,11,19:00,UTC,,1024.7,79,,,-2.1,,50000,136.8,4.9,3.6
2018,4,11,20:00,UTC,,1024.7,86,,,-2.8,,50000,138.4,3.6,2.9
2018,4,11,21:00,UTC,,1025,87,,,-3.6,,50000,134.8,1.7,1.2
2018,4,11,22:00,UTC,,1025.1,90,,,-4.2,,50000,133.2,3.6,1.6
2018,4,11,23:00,UTC,,1025.2,93,,,-5.5,,50000,139.4,1.9,1.7
2018,4,12,00:00,UTC,,1025.4,94,,,-6.2,,50000,123.5,1.4,0.8
2018,4,12,01:00,UTC,,1025.7,94,,,-8.5,,50000,144.6,1.1,0.8
2018,4,12,02:00,UTC,,1025.8,93,,,-7.9,,50000,119.9,1.7,0.8
2018,4,12,03:00,UTC,,1025.8,94,,,-7.1,,50000,93.6,0.7,0.3
2018,4,12,04:00,UTC,,1026.1,93,,,-6.1,,50000,85.4,1.9,1.4
2018,4,12,05:00,UTC,,1026.2,91,,,-4.7,,38607,111.1,1.3,0.6
2018,4,12,06:00,UTC,,1026.4,86,,,-3.7,,40474,144.6,1.3,0.6
2018,4,12,07:00,UTC,,1026.6,75,,,-1.6,,50000,144,1.5,0.9
2018,4,12,08:00,UTC,,1026.7,70,,,0.4,,44834,150.7,3.9,2.7
2018,4,12,09:00,UTC,,1027.1,58,,,2.4,,33953,144,5.6,3.6
2018,4,12,10:00,UTC,,1027.2,59,,,2.1,,37204,147.1,5.2,4.1
2018,4,12,11:00,UTC,,1027.2,57,,,2.6,,50000,144.6,5.8,4.4
2018,4,12,12:00,UTC,,1027.2,58,,,3.1,,50000,141.5,5.1,4
2018,4,12,13:00,UTC,,1027.3,57,,,3.2,,46220,144.6,3.5,2.9
2018,4,12,14:00,UTC,,1027.1,65,,,2.2,,50000,144,3.6,2.7
2018,4,12,15:00,UTC,,1026.7,60,,,3,,42310,137.4,3.1,2.1
2018,4,12,16:00,UTC,,1026.8,64,,,2.5,,50000,138.4,2.2,1.9
2018,4,12,17:00,UTC,,1026.8,68,,,1.4,,50000,139.9,1.8,1.5
2018,4,12,18:00,UTC,,1026.9,81,,,-1.4,,50000,135.8,1.1,0.9
2018,4,12,19:00,UTC,,1027.2,90,,,-3.3,,50000,123.5,1.3,0.6
2018,4,12,20:00,UTC,,1027.6,92,,,-4.4,,50000,9.8,0.6,0.5
2018,4,12,21:00,UTC,,1027.8,94,,,-6.7,,50000,13.4,0.9,0.6
2018,4,12,22:00,UTC,,1027.9,89,,,-3.8,,50000,102.4,3,1.1
2018,4,12,23:00,UTC,,1028.1,95,,,-7.6,,50000,108.5,0.6,0.4
2018,4,13,00:00,UTC,,1028.6,94,,,-7.1,,50000,118.3,1,0.7
2018,4,13,01:00,UTC,,1028.8,92,,,-9.2,,50000,63.8,0.9,0.7
2018,4,13,02:00,UTC,,1028.9,93,,,-7.3,,49028,71,1.4,1.2
2018,4,13,03:00,UTC,,1029.1,93,,,-7.1,,50000,75.6,1.6,1.3
2018,4,13,04:00,UTC,,1029.3,90,,,-7,,40765,70.5,2.4,1.7
2018,4,13,05:00,UTC,,1029.5,82,,,-4.8,,50000,61.2,2.3,1.9
2018,4,13,06:00,UTC,,1029.4,75,,,-1.9,,38019,61.2,2,1.6
2018,4,13,07:00,UTC,,1029.4,66,,,0.6,,39672,63.8,2.7,2.4
2018,4,13,08:00,UTC,,1029.4,59,,,2.5,,42474,59.7,3.5,2.9
2018,4,13,09:00,UTC,,1029.2,47,,,5,,38113,54.5,2.5,2
2018,4,13,10:00,UTC,,1028.9,39,,,6.5,,36068,67.9,3.4,2.5
2018,4,13,11:00,UTC,,1028.6,40,,,6.7,,38297,59.7,3.6,2.8
2018,4,13,12:00,UTC,,1028.4,35,,,8,,44751,63.8,3.9,2.3
2018,4,13,13:00,UTC,,1028.2,41,,,6.5,,44537,145.6,3.7,3.2
2018,4,13,14:00,UTC,,1027.7,33,,,6.8,,50000,142,3.7,3.4
2018,4,13,15:00,UTC,,1027.2,31,,,6.4,,50000,142,4.3,3.4
2018,4,13,16:00,UTC,,1026.7,39,,,5.3,,50000,148.2,3.5,2.7
2018,4,13,17:00,UTC,,1025.9,41,,,4.9,,49522,157.4,1.2,1
2018,4,13,18:00,UTC,,1025.4,49,,,1.6,,50000,58.1,0.3,0.2
2018,4,13,19:00,UTC,,1025,63,,,-0.1,,50000,75.1,2.1,0.7
2018,4,13,20:00,UTC,,1024.8,69,,,-2,,50000,91.6,0.5,0.3
2018,4,13,21:00,UTC,,1024.4,71,,,-2.7,,50000,64.8,1.7,1.1
2018,4,13,22:00,UTC,,1024,66,,,-1.9,,50000,74.1,2.7,1.3
2018,4,13,23:00,UTC,,1023.7,67,,,-2.2,,50000,85.4,2.8,2.1
2018,4,14,00:00,UTC,,1023.6,67,,,-2.2,,50000,103.9,2.7,1.5
2018,4,14,01:00,UTC,,1023,71,,,-3.6,,50000,79.7,2.4,1.9
2018,4,14,02:00,UTC,,1022.5,64,,,-1.2,,50000,91.6,3.7,2.8
2018,4,14,03:00,UTC,,1022,65,,,-1.3,,50000,92.1,4.1,2.6
2018,4,14,04:00,UTC,,1021.6,64,,,-1.2,,50000,92.1,3.8,2.6
2018,4,14,05:00,UTC,,1021.1,54,,,1.2,,50000,96.2,6.3,4
2018,4,14,06:00,UTC,,1020.4,48,,,3,,50000,100.8,6.2,4.2
2018,4,14,07:00,UTC,,1020,39,,,5.6,,49264,109.6,7.9,4.9
2018,4,14,08:00,UTC,,1019.8,33,,,7.1,,39825,116.3,7.6,5.1
2018,4,14,09:00,UTC,,1019.3,32,,,8,,36564,106.5,7.8,5.1
2018,4,14,10:00,UTC,,1019,31,,,9,,50000,120.4,6.3,4.1
2018,4,14,11:00,UTC,,1018.7,29,,,9.4,,46761,119.9,7.1,4.6
2018,4,14,12:00,UTC,,1018.9,33,,,8.7,,50000,132.2,6.1,4.2
2018,4,14,13:00,UTC,,1018.3,33,,,8.9,,32309,124,7.6,4.9
2018,4,14,14:00,UTC,,1017.9,37,,,8.6,,50000,128.1,5.2,3.5
2018,4,14,15:00,UTC,,1017.7,39,,,7.7,,48390,127.1,5.6,3.8
2018,4,14,16:00,UTC,,1017.3,44,,,6.4,,49322,133.2,6.1,4.2
2018,4,14,17:00,UTC,,1017.6,43,,,5.7,,50000,132.7,5.8,4.4
2018,4,14,18:00,UTC,,1018,47,,,5,,50000,137.4,4.6,3.7
2018,4,14,19:00,UTC,,1018.2,55,,,3.8,,50000,131.7,3.4,2.3
2018,4,14,20:00,UTC,,1017.7,52,,,4,,50000,81.8,2,1.2
2018,4,14,21:00,UTC,,1018.2,66,,,2.2,,50000,14.9,2.3,1.7
2018,4,14,22:00,UTC,,1018.3,66,,,2.2,,50000,4.6,1.3,0.9
2018,4,14,23:00,UTC,,1018.6,56,,,3.3,,50000,42.7,3.1,2.1
2018,4,15,00:00,UTC,,1018.9,61,,,2.8,,50000,53,3.3,2.1
2018,4,15,01:00,UTC,,1018.9,64,,,2.6,,50000,63.3,2.7,2.4
2018,4,15,02:00,UTC,,1019.1,68,,,1.4,,50000,5.1,2,1.5
2018,4,15,03:00,UTC,,1019.3,63,,,1.8,,50000,31.4,2.7,2
2018,4,15,04:00,UTC,,1019.4,62,,,2.6,,50000,63.3,2.6,2.2
2018,4,15,05:00,UTC,,1019.8,44,,,5.3,,49332,39.6,3.7,2.2
2018,4,15,06:00,UTC,,1020,46,,,5.1,,50000,26.8,3.4,2.6
2018,4,15,07:00,UTC,,1020.1,42,,,6.6,,33687,54.5,4.4,3.4
2018,4,15,08:00,UTC,,1020.1,41,,,7.3,,50000,59.2,5,4.2
2018,4,15,09:00,UTC,,1020.2,35,,,9.1,,50000,63.3,4.9,3.6
2018,4,15,10:00,UTC,,1020,30,,,10.6,,48077,76.7,3.4,2.7
2018,4,15,11:00,UTC,,1019.7,27,,,11.5,,27490,77.7,3.2,2.3
2018,4,15,12:00,UTC,,1019.4,29,,,11.6,,46026,64.3,3.2,2.6
2018,4,15,13:00,UTC,,1019.1,27,,,12.1,,50000,63.3,2.6,2
2018,4,15,14:00,UTC,,1018.4,26,,,12.5,,6523,54,2.2,1.4
2018,4,15,15:00,UTC,,1017.9,25,,,12.7,,47481,54,2,1.5
2018,4,15,16:00,UTC,,1017.4,24,,,13.1,,50000,170.3,0.6,0.4
2018,4,15,17:00,UTC,,1017.1,44,,,7.4,,50000,13.4,2.5,1.9
2018,4,15,18:00,UTC,,1017.1,58,,,3.7,,50000,184.2,1.6,1.2
2018,4,15,19:00,UTC,,1016.9,56,,,3.3,,50000,184.7,1.1,0.7
2018,4,15,20:00,UTC,,1016.7,74,,,-0.3,,50000,15.4,1.8,1.2
2018,4,15,21:00,UTC,,1016.3,75,,,-0.3,,50000,36.5,1,0.6
2018,4,15,22:00,UTC,,1016.1,78,,,-1.8,,50000,43.7,0.8,0.6
2018,4,15,23:00,UTC,,1015.8,74,,,-0.6,,50000,68.9,2.2,1.6
2018,4,16,00:00,UTC,,1015.6,69,,,-0.8,,50000,62.8,2.1,1.7
2018,4,16,01:00,UTC,,1015.2,69,,,-0.4,,50000,63.8,2.7,2.2
2018,4,16,02:00,UTC,,1015,63,,,0.1,,50000,60.7,3.2,2.9
2018,4,16,03:00,UTC,,1014.7,62,,,0.4,,50000,67.9,3.7,2.1
2018,4,16,04:00,UTC,,1014.4,62,,,1.2,,49680,63.8,3.8,3.3
2018,4,16,05:00,UTC,,1014.3,58,,,2.6,,40399,67.4,3.3,2.7
2018,4,16,06:00,UTC,,1014.4,56,,,3.7,,46310,59.7,3.3,2.9
2018,4,16,07:00,UTC,,1014.2,52,,,5.1,,37722,60.2,3.5,3
2018,4,16,08:00,UTC,,1014,46,,,7.3,,39416,63.3,3.1,2.5
2018,4,16,09:00,UTC,,1014.1,40,,,9.2,,50000,74.1,2,1.5
2018,4,16,10:00,UTC,,1013.9,38,,,10.5,,40804,65.8,3.1,2.3
2018,4,16,11:00,UTC,,1013.6,36,,,11.6,,45276,75.6,3.1,1.9
2018,4,16,12:00,UTC,,1013.6,36,,,12.1,,49997,75.1,3.1,2.4
2018,4,16,13:00,UTC,,1013.4,46,,,8.4,,40359,134.8,4.1,2.8
2018,4,16,14:00,UTC,,1013.3,50,,,7.7,,39757,145.6,4,3.5
2018,4,16,15:00,UTC,,1013.2,50,,,7.8,,45636,139.4,4.3,3.4
2018,4,16,16:00,UTC,,1012.9,55,,,7.2,,50000,147.6,3.1,2.7
2018,4,16,17:00,UTC,,1012.8,54,,,8.1,,50000,139.9,3,2.3
2018,4,16,18:00,UTC,,1013,60,,,5.6,,49486,138.9,2.2,1.8
2018,4,16,19:00,UTC,,1012.9,70,,,3.5,,50000,148.2,0.8,0.6
2018,4,16,20:00,UTC,,1012.9,73,,,3,,50000,161,0.4,0.2
2018,4,16,21:00,UTC,,1013.1,81,,,1.2,,50000,143.5,0.9,0.8
2018,4,16,22:00,UTC,,1013.1,89,,,-0.2,,50000,14.4,1.1,0.8
2018,4,16,23:00,UTC,,1013.3,82,,,1.3,,50000,150.2,0.7,0.4
2018,4,17,00:00,UTC,,1013.6,83,,,1.4,,50000,97.2,2.2,1.6
2018,4,17,01:00,UTC,,1013.3,87,,,0.9,,50000,168.2,0.9,0.6
2018,4,17,02:00,UTC,,1013.1,87,,,0.7,,50000,3.6,1.1,0.5
2018,4,17,03:00,UTC,,1012.9,86,,,0.6,,50000,155.9,0.7,0.4
2018,4,17,04:00,UTC,,1012.9,86,,,0.2,,49690,182.1,2.3,1.5
2018,4,17,05:00,UTC,,1013.1,83,,,1.1,,44774,170.8,1.2,0.8
2018,4,17,06:00,UTC,,1013.2,66,,,5,,28124,105.5,1.3,0.6
2018,4,17,07:00,UTC,,1013.3,54,,,6.9,,39505,5.7,1.6,1
2018,4,17,08:00,UTC,,1013.5,58,,,6.1,,50000,184.7,2.1,1.5
2018,4,17,09:00,UTC,,1013.8,54,,,7.2,,40312,16.5,1.9,1.4
2018,4,17,10:00,UTC,,1013.9,45,,,9.7,,40081,113.7,1.9,0.9
2018,4,17,11:00,UTC,,1014,45,,,10.2,,38385,89.5,5.5,1.6
2018,4,17,12:00,UTC,,1014,45,,,9.5,,40690,144,2.8,1.8
2018,4,17,13:00,UTC,,1014,41,,,10.9,,50000,125.5,3.3,2.6
2018,4,17,14:00,UTC,,1014,41,,,11.2,,50000,144,3.1,2.5
2018,4,17,15:00,UTC,,1014,36,,,11.8,,47373,150.7,3.6,2
2018,4,17,16:00,UTC,,1014.2,42,,,11.2,,50000,123.5,2.4,2
2018,4,17,17:00,UTC,,1014.5,49,,,9.3,,50000,146.6,2.2,2
2018,4,17,18:00,UTC,,1014.8,63,,,5,,50000,134.8,1.1,0.7
2018,4,17,19:00,UTC,,1015.2,75,,,1.9,,50000,130.7,0.7,0.3
2018,4,17,20:00,UTC,,1015.3,82,,,0,,50000,180.1,1.6,1.3
2018,4,17,21:00,UTC,,1015.8,81,,,1,,49160,72,1.6,1
2018,4,17,22:00,UTC,,1016.1,89,,,-1.2,,50000,101.3,0.6,0.3
2018,4,17,23:00,UTC,,1016.5,90,,,-1.6,,47458,81.8,0.7,0.5
2018,4,18,00:00,UTC,,1016.4,87,,,-0.6,,50000,71,1.9,1.7
2018,4,18,01:00,UTC,,1016.6,85,,,-0.8,,50000,67.4,1.1,0.9
2018,4,18,02:00,UTC,,1016.9,88,,,-1.3,,45400,57.6,1.5,1.2
2018,4,18,03:00,UTC,,1017,93,,,-2.3,,45436,89.5,0.5,0.3
2018,4,18,04:00,UTC,,1017.1,87,,,-0.4,,34054,62.2,2,1.1
2018,4,18,05:00,UTC,,1017.2,87,,,2.1,,42244,74.1,2.7,2.3
2018,4,18,06:00,UTC,,1017.1,82,,,4.4,,50000,69.4,2.3,1.8
2018,4,18,07:00,UTC,,1017.1,74,,,6.6,,40972,60.2,2.3,1.8
2018,4,18,08:00,UTC,,1017.2,66,,,8.8,,34003,69.4,2.6,2
2018,4,18,09:00,UTC,,1017.1,60,,,10.3,,50000,35,1.7,1.1
2018,4,18,10:00,UTC,,1017,58,,,10.1,,32834,149.7,2.3,1.8
2018,4,18,11:00,UTC,,1016.9,48,,,10,,43143,145.1,4.5,3.4
2018,4,18,12:00,UTC,,1016.6,40,,,11,,43389,151.8,2.7,2.3
2018,4,18,13:00,UTC,,1016.4,40,,,11.1,,42125,143.5,3.6,2.9
2018,4,18,14:00,UTC,,1016.1,45,,,10.9,,41596,147.6,4.2,3.2
2018,4,18,15:00,UTC,,1015.8,42,,,10.7,,42021,182.1,2.3,1.1
2018,4,18,16:00,UTC,,1015.5,46,,,9.9,,48048,134.8,1.5,1.1
2018,4,18,17:00,UTC,,1015.5,58,,,6.5,,50000,137.9,2.2,1.6
2018,4,18,18:00,UTC,,1015.7,60,,,4.3,,44587,143,1.7,1.3
2018,4,18,19:00,UTC,,1015.7,65,,,2.6,,50000,133.2,3.1,2.4
2018,4,18,20:00,UTC,,1015.6,71,,,1.4,,50000,135.8,2.1,1.4
2018,4,18,21:00,UTC,,1015.6,68,,,1.8,,50000,90,1.2,0.6
2018,4,18,22:00,UTC,,1015.6,86,,,-1.6,,47701,184.7,1.4,0.5
2018,4,18,23:00,UTC,,1015.6,79,,,-0.3,,50000,70.5,2.4,1.3
2018,4,19,00:00,UTC,,1015.6,77,,,0.1,,50000,78.7,1.9,1.1
2018,4,19,01:00,UTC,,1015.7,84,,,-1.4,,50000,64.3,1.3,1.1
2018,4,19,02:00,UTC,,1015.6,83,,,-1,,50000,77.7,1.8,1.4
2018,4,19,03:00,UTC,,1015.8,84,,,-1.5,,50000,91.6,1.4,1
2018,4,19,04:00,UTC,,1016.1,81,,,-0.6,,47592,82.8,3.2,1.5
2018,4,19,05:00,UTC,,1016.5,80,,,1.4,,47245,121.4,2,1.1
2018,4,19,06:00,UTC,,1016.9,79,,,2.2,,50000,141,5.9,4.6
2018,4,19,07:00,UTC,,1017.2,73,,,3.2,,36703,148.2,3.5,2.8
2018,4,19,08:00,UTC,,1017.7,74,,,3.1,,43417,142,3.7,3
2018,4,19,09:00,UTC,,1018.5,78,,,3.2,,48644,143.5,4.2,3.3
2018,4,19,10:00,UTC,,1018.9,74,,,3.1,,49476,144,4.5,3.5
2018,4,19,11:00,UTC,,1019.3,63,,,5.8,,40401,141,4.6,3.2
2018,4,19,12:00,UTC,,1019.6,61,,,5.9,,50000,139.9,5.4,4.1
2018,4,19,13:00,UTC,,1019.7,60,,,8,,50000,153.3,4.8,3.6
2018,4,19,14:00,UTC,,1020,56,,,8.2,,50000,169.3,8.2,5.4
2018,4,19,15:00,UTC,,1020.2,59,,,7.9,,50000,170.3,5.9,3.9
2018,4,19,16:00,UTC,,1020.5,61,,,7,,50000,168.2,6.5,4.4
2018,4,19,17:00,UTC,,1020.6,66,,,5.5,,50000,1,2.3,1.5
2018,4,19,18:00,UTC,,1020.3,69,,,4.5,,50000,3.6,1.5,0.9
2018,4,19,19:00,UTC,,1020.3,82,,,1.3,,50000,142,1.3,1.1
2018,4,19,20:00,UTC,,1020.3,87,,,0,,50000,138.4,1.4,1.1
2018,4,19,21:00,UTC,,1019.8,91,,,-0.4,,50000,165.1,0.3,0.1
2018,4,19,22:00,UTC,,1019.3,90,,,-0.3,,50000,77.7,1.1,0.7
2018,4,19,23:00,UTC,,1018.5,90,,,-0.5,,50000,79.7,0.9,0.5
2018,4,20,00:00,UTC,,1017.7,92,,,-0.7,,50000,73.1,1.2,0.9
2018,4,20,01:00,UTC,,1017.1,90,,,-0.1,,50000,79.2,1.6,1.2
2018,4,20,02:00,UTC,,1016.2,91,,,0,,44725,70,1.1,0.7
2018,4,20,03:00,UTC,,1015.2,95,,,0.1,,20472,55,3,2.5
2018,4,20,04:00,UTC,,1013.2,96,,,0.5,,22996,67.4,5.3,4.5
2018,4,20,05:00,UTC,,1012.6,96,,,0.9,,37656,77.7,4.7,3.5
2018,4,20,06:00,UTC,,1010.8,97,,,1.6,,22725,66.9,5.6,4.7
2018,4,20,07:00,UTC,,1009.6,97,,,2,,14282,83.3,4.8,3.6
2018,4,20,08:00,UTC,,1008.4,99,,,2.9,,20222,80.8,4.4,3.4
2018,4,20,09:00,UTC,,1007.9,97,,,4.3,,50000,105.5,3.6,2.5
2018,4,20,10:00,UTC,,1007.1,92,,,5.5,,45603,129.6,5.4,3.4
2018,4,20,11:00,UTC,,1006.7,93,,,3.3,,41990,137.9,7.3,5.4
2018,4,20,12:00,UTC,,1006.4,98,,,1.6,,5502,135.8,7.3,5.2
2018,4,20,13:00,UTC,,1006.1,99,,,1.2,,2233,143,5.8,4.3
2018,4,20,14:00,UTC,,1005.8,99,,,1.9,,3898,149.7,5.8,4.6
2018,4,20,15:00,UTC,,1005.4,98,,,2.3,,33428,157.4,6.3,4.1
2018,4,20,16:00,UTC,,1005.1,96,,,2.4,,50000,157.4,4.7,3
2018,4,20,17:00,UTC,,1004.4,96,,,2.1,,50000,154.3,3.4,2.5
2018,4,20,18:00,UTC,,1003.8,95,,,2.2,,50000,133.8,2.1,1.8
2018,4,20,19:00,UTC,,1003.2,96,,,2,,50000,140.4,2.8,1.6
2018,4,20,20:00,UTC,,1002.5,95,,,2,,50000,146.6,1.9,1.3
2018,4,20,21:00,UTC,,1001.5,95,,,1.7,,50000,17.5,0.5,0.2
2018,4,20,22:00,UTC,,1000.1,97,,,1.3,,50000,19.5,2.3,1.1
2018,4,20,23:00,UTC,,999.9,97,,,1.3,,31296,15.4,1.6,1.1
2018,4,21,00:00,UTC,,999.3,97,,,1.2,,50000,23.7,3.8,2.4
2018,4,21,01:00,UTC,,998.6,99,,,1,,7959,35.5,2.2,1.4
2018,4,21,02:00,UTC,,998,99,,,0.8,,3274,184.7,2.4,1.5
2018,4,21,03:00,UTC,,997.4,99,,,0.9,,10572,39.6,3,1.5
2018,4,21,04:00,UTC,,997.3,99,,,1,,15082,10.8,1.7,1
2018,4,21,05:00,UTC,,996.9,99,,,1.2,,16417,25.7,2.9,1.9
2018,4,21,06:00,UTC,,996.8,95,,,1.6,,50000,35,4,2.9
2018,4,21,07:00,UTC,,997,91,,,1.7,,50000,33.4,3.8,2.8
2018,4,21,08:00,UTC,,997.5,88,,,2.3,,50000,39.6,3.8,2.8
2018,4,21,09:00,UTC,,998,83,,,2.6,,50000,32.4,5.1,3.3
2018,4,21,10:00,UTC,,998.5,79,,,3.1,,50000,41.7,4.9,2.9
2018,4,21,11:00,UTC,,999.1,76,,,3.5,,50000,44.2,4.5,2.9
2018,4,21,12:00,UTC,,999.5,71,,,4,,50000,42.7,4.5,2.8
2018,4,21,13:00,UTC,,999.9,66,,,4.2,,50000,32.9,4.6,2.6
2018,4,21,14:00,UTC,,1000.3,65,,,4.4,,47920,44.2,6.3,4
2018,4,21,15:00,UTC,,1000.8,67,,,3.7,,50000,37,5.6,3.7
2018,4,21,16:00,UTC,,1001.5,67,,,3.1,,50000,48.4,6.6,5
2018,4,21,17:00,UTC,,1001.9,69,,,2.6,,50000,47.8,5.9,4.1
2018,4,21,18:00,UTC,,1002.6,71,,,2.3,,50000,45.3,5.3,3.7
2018,4,21,19:00,UTC,,1003.3,72,,,1.8,,50000,44.2,4.6,3.1
2018,4,21,20:00,UTC,,1003.8,72,,,1.5,,50000,43.2,5.5,3.5
2018,4,21,21:00,UTC,,1004.3,73,,,1.1,,32453,43.2,4.9,3.4
2018,4,21,22:00,UTC,,1004.9,73,,,0.9,,50000,41.7,4.8,3.1
2018,4,21,23:00,UTC,,1005.8,75,,,0.6,,50000,42.7,4.6,2.7
2018,4,22,00:00,UTC,,1006.5,72,,,0.4,,50000,47.3,4.8,3.6
2018,4,22,01:00,UTC,,1007.5,73,,,0.2,,50000,43.2,4.9,3.1
2018,4,22,02:00,UTC,,1008.2,74,,,0,,50000,45.3,3.4,2.1
2018,4,22,03:00,UTC,,1008.8,75,,,-0.1,,50000,39.6,4,2.3
2018,4,22,04:00,UTC,,1009.5,72,,,-0.1,,50000,47.3,3.9,2.7
2018,4,22,05:00,UTC,,1010.3,70,,,0.2,,50000,49.4,3.9,2.4
2018,4,22,06:00,UTC,,1011,61,,,1,,45089,56.1,4.2,2.9
2018,4,22,07:00,UTC,,1011.4,60,,,1.4,,46804,29.8,2.8,1.8
2018,4,22,08:00,UTC,,1012,57,,,2.3,,46715,4.6,2.1,1.2
2018,4,22,09:00,UTC,,1012.4,56,,,2.8,,50000,173.9,2.9,1.7
2018,4,22,10:00,UTC,,1012.8,56,,,2.5,,42613,133.2,4.5,2.9
2018,4,22,11:00,UTC,,1013.1,56,,,2.9,,48019,140.4,4.1,2.2
2018,4,22,12:00,UTC,,1013.4,50,,,4.2,,37906,106,2.2,0.9
2018,4,22,13:00,UTC,,1013.4,54,,,4,,41898,3.1,3.5,2.3
2018,4,22,14:00,UTC,,1013.4,58,,,3.1,,46879,176.5,4.9,3.4
2018,4,22,15:00,UTC,,1013.3,54,,,3.7,,50000,184.2,2.8,1.7
2018,4,22,16:00,UTC,,1013.4,57,,,3.4,,48840,180.1,2.3,1.5
2018,4,22,17:00,UTC,,1013.5,63,,,2.6,,50000,174.4,2,1.3
2018,4,22,18:00,UTC,,1013.7,63,,,1.7,,50000,154.3,1.5,1.3
2018,4,22,19:00,UTC,,1013.8,71,,,0.8,,50000,147.6,0.8,0.6
2018,4,22,20:00,UTC,,1013.7,79,,,-0.6,,50000,134.8,0.9,0.6
2018,4,22,21:00,UTC,,1013.8,81,,,-0.4,,50000,50.4,0.5,0.3
2018,4,22,22:00,UTC,,1014,87,,,-1.1,,50000,2.1,1.5,0.9
2018,4,22,23:00,UTC,,1013.9,85,,,-1.2,,50000,16.5,0.8,0.5
2018,4,23,00:00,UTC,,1013.8,90,,,-1.9,,50000,152.8,0.5,0.4
2018,4,23,01:00,UTC,,1013.6,84,,,-0.9,,50000,173.9,1.2,0.5
2018,4,23,02:00,UTC,,1013.4,87,,,-1.5,,50000,75.6,1.3,0.8
2018,4,23,03:00,UTC,,1013.1,83,,,-0.9,,50000,77.7,4.3,2.1
2018,4,23,04:00,UTC,,1013.1,80,,,-0.4,,50000,89,3.9,2
2018,4,23,05:00,UTC,,1012.7,79,,,0.1,,50000,75.1,4.1,2.5
2018,4,23,06:00,UTC,,1012.5,71,,,2.2,,49276,76.1,7,3.2
2018,4,23,07:00,UTC,,1012.3,67,,,3.8,,50000,76.1,3.1,2.3
2018,4,23,08:00,UTC,,1011.9,61,,,6.2,,49019,76.1,4.2,3.3
2018,4,23,09:00,UTC,,1011.6,59,,,7.1,,49079,103.4,6.6,2.9
2018,4,23,10:00,UTC,,1011.1,57,,,7.9,,50000,92.1,4.1,2.8
2018,4,23,11:00,UTC,,1010.6,53,,,8.5,,25831,74.6,5,3.3
2018,4,23,12:00,UTC,,1010,49,,,9.2,,48298,80.8,4.8,3.4
2018,4,23,13:00,UTC,,1009.3,47,,,9.5,,50000,103.9,4.2,2.6
2018,4,23,14:00,UTC,,1008.6,49,,,9.5,,43795,99.3,5.6,3.4
2018,4,23,15:00,UTC,,1008.1,48,,,9.8,,50000,96.2,5.1,3.1
2018,4,23,16:00,UTC,,1007.4,53,,,8.3,,50000,104.4,4,2.8
2018,4,23,17:00,UTC,,1006.8,53,,,8,,50000,80.8,3.2,2.4
2018,4,23,18:00,UTC,,1006.2,57,,,7.1,,50000,74.1,3.4,2.7
2018,4,23,19:00,UTC,,1005.7,62,,,5.7,,50000,68.4,2.9,2.6
2018,4,23,20:00,UTC,,1005.2,68,,,3.9,,50000,65.8,4.2,3.5
2018,4,23,21:00,UTC,,1004.5,67,,,3.5,,49606,66.4,4.4,3.6
2018,4,23,22:00,UTC,,1004,66,,,3.7,,50000,68.4,4.8,4
2018,4,23,23:00,UTC,,1003.5,67,,,3.6,,50000,68.4,5.5,3.9
2018,4,24,00:00,UTC,,1002.7,71,,,2.7,,50000,64.8,5,4.3
2018,4,24,01:00,UTC,,1001.9,70,,,3,,50000,65.8,5.8,4.6
2018,4,24,02:00,UTC,,1001.3,68,,,3.1,,50000,70.5,6.6,5
2018,4,24,03:00,UTC,,1000.5,65,,,3.1,,50000,67.9,7,4.8
2018,4,24,04:00,UTC,,999.6,58,,,3.6,,50000,67.9,7.6,5.8
2018,4,24,05:00,UTC,,998.7,53,,,4.4,,50000,69.4,8.3,6.3
2018,4,24,06:00,UTC,,998,52,,,5,,50000,68.9,9.2,6.7
2018,4,24,07:00,UTC,,997.4,53,,,5.3,,37757,70,8.5,6.7
2018,4,24,08:00,UTC,,996.7,57,,,5,,50000,66.4,9.3,7.1
2018,4,24,09:00,UTC,,996.2,68,,,4.5,,50000,69.4,10.1,7.6
2018,4,24,10:00,UTC,,995.9,69,,,4.5,,49536,77.2,11.3,7.8
2018,4,24,11:00,UTC,,995.5,69,,,5,,32459,75.1,12.8,8.8
2018,4,24,12:00,UTC,,995,69,,,5.1,,47044,74.1,12,7.6
2018,4,24,13:00,UTC,,994.2,69,,,5.4,,50000,73.1,10.8,7.5
2018,4,24,14:00,UTC,,993.8,73,,,4.9,,50000,72.5,10,7.4
2018,4,24,15:00,UTC,,993,68,,,5.5,,50000,71.5,9,7
2018,4,24,16:00,UTC,,992.5,68,,,5.6,,48757,74.1,9,6.7
2018,4,24,17:00,UTC,,992,70,,,5.3,,50000,76.7,11.4,7.1
2018,4,24,18:00,UTC,,992.5,87,,,3.7,,8863,117.3,7.5,5.2
2018,4,24,19:00,UTC,,992.6,93,,,3.4,,13936,101.3,5.3,3.6
2018,4,24,20:00,UTC,,992.3,93,,,2.9,,50000,87.5,6,3.9
2018,4,24,21:00,UTC,,992.1,94,,,3,,50000,84.4,4.9,3.5
2018,4,24,22:00,UTC,,991.8,95,,,3,,50000,86.4,4.9,3.4
2018,4,24,23:00,UTC,,991.8,95,,,3.2,,50000,85.9,4.2,3.3
2018,4,25,00:00,UTC,,991.7,91,,,3.6,,50000,96.2,4.5,3.2
2018,4,25,01:00,UTC,,991.6,96,,,3.3,,50000,82.8,4.3,3.2
2018,4,25,02:00,UTC,,991.4,98,,,3.2,,26212,79.2,3.7,2.8
2018,4,25,03:00,UTC,,991.2,98,,,3.4,,36761,78.2,3.9,3
2018,4,25,04:00,UTC,,990.9,97,,,3.6,,35623,77.7,4.8,3.4
2018,4,25,05:00,UTC,,990.9,97,,,3.8,,38122,81.8,4.3,3.3
2018,4,25,06:00,UTC,,990.8,96,,,4.4,,42301,81.3,5.2,4
2018,4,25,07:00,UTC,,990.6,94,,,4.9,,50000,82.3,5.4,4.1
2018,4,25,08:00,UTC,,990.5,92,,,5.6,,50000,81.8,5.8,4.2
2018,4,25,09:00,UTC,,990.3,87,,,6.5,,49704,83.3,5.3,3.9
2018,4,25,10:00,UTC,,990.1,83,,,6.6,,47905,90,6.4,4.8
2018,4,25,11:00,UTC,,990.1,78,,,7.5,,50000,86.4,5.9,4.1
2018,4,25,12:00,UTC,,989.9,74,,,8.4,,50000,99.3,5.9,4
2018,4,25,13:00,UTC,,989.8,68,,,9.5,,40153,87.5,5.2,3.7
2018,4,25,14:00,UTC,,989.4,66,,,10.1,,50000,76.1,4.4,2.6
2018,4,25,15:00,UTC,,989.2,64,,,10.3,,50000,64.8,5,2.2
2018,4,25,16:00,UTC,,989.8,90,,,5,,50000,152.8,2.5,1.4
2018,4,25,17:00,UTC,,989.7,93,,,6.1,,50000,71.5,2.6,2
2018,4,25,18:00,UTC,,989.7,91,,,6,,50000,94.1,3.2,2.3
2018,4,25,19:00,UTC,,989.8,95,,,4.3,,50000,95.7,2.4,1.7
2018,4,25,20:00,UTC,,989.6,95,,,4.2,,50000,91.1,4.2,3.2
2018,4,25,21:00,UTC,,989.6,97,,,2.9,,50000,83.3,3.2,2.6
2018,4,25,22:00,UTC,,989.4,97,,,2.5,,50000,79.7,5,2.8
2018,4,25,23:00,UTC,,989.3,97,,,1.8,,50000,72,2.5,2.2
2018,4,26,00:00,UTC,,989,98,,,2.2,,50000,74.1,2.4,1.9
2018,4,26,01:00,UTC,,989,99,,,1.6,,38401,73.6,2.2,1.8
2018,4,26,02:00,UTC,,989,99,,,1,,29120,66.4,3.2,2.9
2018,4,26,03:00,UTC,,989.2,99,,,1.5,,50000,77.2,3.3,2.5
2018,4,26,04:00,UTC,,989.3,98,,,1.8,,26225,87.5,5.6,2.3
2018,4,26,05:00,UTC,,989.7,97,,,1.9,,50000,76.7,2.4,1.5
2018,4,26,06:00,UTC,,990.2,95,,,2.5,,47836,92.6,2.2,1.4
2018,4,26,07:00,UTC,,990.4,91,,,3.4,,39519,145.6,2.2,1.5
2018,4,26,08:00,UTC,,990.9,85,,,4.2,,50000,126.6,2.9,1.2
2018,4,26,09:00,UTC,,991.3,81,,,5.2,,48435,145.6,3.8,2.2
2018,4,26,10:00,UTC,,991.6,73,,,6.7,,47724,123,4.1,2.9
2018,4,26,11:00,UTC,,992.2,76,,,5,,49933,139.9,5.7,4.6
2018,4,26,12:00,UTC,,992.6,73,,,6,,47082,150.2,4.9,3.7
2018,4,26,13:00,UTC,,993.2,74,,,5.4,,47130,145.1,5.5,4.3
2018,4,26,14:00,UTC,,993.7,75,,,5.3,,50000,166.2,5,2.9
2018,4,26,15:00,UTC,,994.1,76,,,6.4,,50000,159.5,3.2,2.1
2018,4,26,16:00,UTC,,994.6,82,,,3.7,,41763,135.3,4.3,3.7
2018,4,26,17:00,UTC,,994.9,88,,,3.1,,50000,142,5,3.9
2018,4,26,18:00,UTC,,995.5,92,,,1.8,,49208,131.2,2.4,1.6
2018,4,26,19:00,UTC,,996,93,,,1.4,,47333,139.9,2,1.6
2018,4,26,20:00,UTC,,996.5,93,,,1.2,,45956,153.3,3.7,2.2
2018,4,26,21:00,UTC,,996.9,96,,,0.4,,42865,160.5,2.9,1.9
2018,4,26,22:00,UTC,,997,95,,,0.9,,50000,133.8,4.1,3.1
2018,4,26,23:00,UTC,,997.3,95,,,0.8,,50000,113.2,1.2,0.8
2018,4,27,00:00,UTC,,997.4,96,,,-0.1,,20397,184.2,1.1,0.8
2018,4,27,01:00,UTC,,997.8,97,,,-1.3,,16161,74.1,0.4,0.2
2018,4,27,02:00,UTC,,998.2,98,,,-1.8,,13183,103.9,0.4,0.2
2018,4,27,03:00,UTC,,998.5,97,,,-0.7,,33245,26.8,0.5,0.2
2018,4,27,04:00,UTC,,998.9,89,,,2.7,,38345,52,0.6,0.3
2018,4,27,05:00,UTC,,999.3,82,,,4.6,,50000,102.9,1.7,0.5
2018,4,27,06:00,UTC,,999.8,78,,,5,,47322,127.1,1.8,1.1
2018,4,27,07:00,UTC,,1000.2,69,,,6.9,,47612,97.7,2.2,1.1
2018,4,27,08:00,UTC,,1000.7,63,,,8.4,,37885,94.1,1.9,0.8
2018,4,27,09:00,UTC,,1001.1,57,,,8.9,,50000,21.6,2,1
2018,4,27,10:00,UTC,,1001.4,54,,,9.6,,35507,12.9,3,1.8
2018,4,27,11:00,UTC,,1001.8,49,,,10.2,,50000,126.6,4.4,3.3
2018,4,27,12:00,UTC,,1002,45,,,10.9,,46494,184.7,4.2,2.5
2018,4,27,13:00,UTC,,1002.4,42,,,10.5,,50000,178,4,2.5
2018,4,27,14:00,UTC,,1002.8,43,,,10,,47176,148.2,4.1,3
2018,4,27,15:00,UTC,,1003.1,59,,,8,,44361,138.9,4.2,2.8
2018,4,27,16:00,UTC,,1003.4,62,,,7.3,,49858,141.5,3.8,2.9
2018,4,27,17:00,UTC,,1003.9,71,,,5.5,,50000,152.3,4.8,3.9
2018,4,27,18:00,UTC,,1004.6,83,,,2.6,,50000,140.4,3.5,2.8
2018,4,27,19:00,UTC,,1005.1,91,,,0.8,,50000,140.4,3.2,2.3
2018,4,27,20:00,UTC,,1005.4,95,,,-0.3,,50000,181.1,2.3,1.3
2018,4,27,21:00,UTC,,1005.7,95,,,-1.2,,50000,148.2,0.9,0.7
2018,4,27,22:00,UTC,,1005.9,97,,,-0.5,,50000,123,3,2.4
2018,4,27,23:00,UTC,,1006,96,,,-0.8,,50000,124.5,1.5,1.3
2018,4,28,00:00,UTC,,1006.2,97,,,-1.7,,47432,65.8,1.7,1.4
2018,4,28,01:00,UTC,,1006.3,97,,,-1.6,,50000,71,1.3,1.1
2018,4,28,02:00,UTC,,1006.5,97,,,-1.5,,28608,65.8,2.3,2
2018,4,28,03:00,UTC,,1006.5,97,,,-1.4,,47185,64.3,2.7,2.4
2018,4,28,04:00,UTC,,1006.8,94,,,0.5,,50000,64.3,2.5,2.2
2018,4,28,05:00,UTC,,1007,83,,,3.2,,50000,79.7,2.4,1.6
2018,4,28,06:00,UTC,,1007.3,72,,,5.2,,50000,71.5,3.2,2.5
2018,4,28,07:00,UTC,,1007.5,58,,,7.9,,31498,98.8,3.7,2.8
2018,4,28,08:00,UTC,,1007.7,51,,,9.7,,50000,107,4.9,3
2018,4,28,09:00,UTC,,1007.8,46,,,11,,48595,98.8,5,2.2
2018,4,28,10:00,UTC,,1008.1,51,,,10.1,,37774,144.6,4.9,3.5
2018,4,28,11:00,UTC,,1008.2,50,,,10.6,,50000,138.4,5.5,4
2018,4,28,12:00,UTC,,1008.3,47,,,11,,46430,144,6.3,4.8
2018,4,28,13:00,UTC,,1008.3,53,,,10.4,,45452,144.6,5.9,4.4
2018,4,28,14:00,UTC,,1008,53,,,10,,34986,134.8,6.3,4.5
2018,4,28,15:00,UTC,,1008.2,58,,,9.1,,50000,137.4,3,2.3
2018,4,28,16:00,UTC,,1008.2,62,,,8.1,,50000,143.5,4.5,3.2
2018,4,28,17:00,UTC,,1008.3,63,,,7.3,,50000,140.4,5.3,4.4
2018,4,28,18:00,UTC,,1008.5,66,,,6.2,,50000,136.3,2.9,2.1
2018,4,28,19:00,UTC,,1008.7,74,,,4.1,,50000,103.9,0.7,0.5
2018,4,28,20:00,UTC,,1008.6,81,,,3,,50000,76.1,1.7,1.2
2018,4,28,21:00,UTC,,1008.9,73,,,4.3,,50000,90.5,3.3,2.5
2018,4,28,22:00,UTC,,1008.8,76,,,3.3,,50000,87.5,2.4,1.8
2018,4,28,23:00,UTC,,1008.9,77,,,3.2,,50000,98.8,2.8,1.9
2018,4,29,00:00,UTC,,1008.8,84,,,1.6,,50000,84.9,2.6,2.1
2018,4,29,01:00,UTC,,1008.8,84,,,1.9,,50000,86.9,2.2,1.8
2018,4,29,02:00,UTC,,1009,88,,,0.9,,50000,79.2,0.9,0.6
2018,4,29,03:00,UTC,,1009.4,92,,,0,,50000,2.1,2.7,1.6
2018,4,29,04:00,UTC,,1009.3,88,,,2.2,,50000,79.7,3.2,2
2018,4,29,05:00,UTC,,1009.6,86,,,2.5,,50000,106.5,2.4,1.3
2018,4,29,06:00,UTC,,1009.9,82,,,3.7,,50000,109.1,2.3,1.1
2018,4,29,07:00,UTC,,1010.4,79,,,4.6,,50000,126,1.6,1.1
2018,4,29,08:00,UTC,,1010.6,77,,,5.1,,50000,7.2,1.8,1.2
2018,4,29,09:00,UTC,,1010.9,73,,,6.3,,49670,9.8,2.2,1.2
2018,4,29,10:00,UTC,,1011.2,68,,,7.9,,38131,154.3,3.2,2.1
2018,4,29,11:00,UTC,,1011.1,61,,,8,,33884,144,6.3,4.5
2018,4,29,12:00,UTC,,1011,51,,,9.5,,50000,143.5,4.8,3.6
2018,4,29,13:00,UTC,,1010.9,52,,,10.1,,38537,182.6,4.1,1.8
2018,4,29,14:00,UTC,,1010.9,60,,,8.1,,38176,176.5,3.7,2.8
2018,4,29,15:00,UTC,,1011,61,,,7.4,,49523,171.8,4.8,3.4
2018,4,29,16:00,UTC,,1011.1,60,,,7.2,,50000,173.4,4.4,3
2018,4,29,17:00,UTC,,1011.2,61,,,7.5,,50000,180.6,1.7,1.2
2018,4,29,18:00,UTC,,1011.4,65,,,6.3,,50000,177.5,1.9,1
2018,4,29,19:00,UTC,,1011.7,76,,,3.8,,50000,180.6,1.5,0.9
2018,4,29,20:00,UTC,,1011.9,80,,,3,,50000,10.3,1.1,0.5
2018,4,29,21:00,UTC,,1012,86,,,0.5,,50000,149.7,1.8,1.3
2018,4,29,22:00,UTC,,1012.3,92,,,-0.4,,50000,166.7,1.3,0.9
2018,4,29,23:00,UTC,,1012.4,93,,,-1,,50000,169.3,0.8,0.4
2018,4,30,00:00,UTC,,1012.6,95,,,-0.3,,45602,4.6,1.5,0.9
2018,4,30,01:00,UTC,,1013,94,,,0.5,,50000,50.4,1.5,1.1
2018,4,30,02:00,UTC,,1013,96,,,0,,50000,44.8,1.3,1.1
2018,4,30,03:00,UTC,,1013.2,96,,,0.1,,50000,48.9,1.8,1.1
2018,4,30,04:00,UTC,,1013.3,92,,,2.1,,50000,47.8,3.7,2.6
2018,4,30,05:00,UTC,,1013.4,85,,,3.8,,43988,51.4,4.5,3.4
2018,4,30,06:00,UTC,,1013.8,78,,,5.3,,50000,54,5.3,3.9
2018,4,30,07:00,UTC,,1014.1,77,,,5.8,,50000,43.7,5.8,3.8
2018,4,30,08:00,UTC,,1014.3,77,,,6,,46495,55,6.1,4.2
2018,4,30,09:00,UTC,,1014.3,73,,,7.3,,35057,52.5,6.6,4.8
2018,4,30,10:00,UTC,,1014.5,74,,,7,,50000,63.3,6.9,4.9
2018,4,30,11:00,UTC,,1014.7,73,,,7.4,,40404,68.4,4.4,3.3
2018,4,30,12:00,UTC,,1014.3,68,,,8.3,,45413,73.1,4.9,2.9
2018,4,30,13:00,UTC,,1013.9,63,,,9.5,,50000,78.2,4.6,2.8
2018,4,30,14:00,UTC,,1013.7,60,,,10.1,,50000,79.2,6,3.6
2018,4,30,15:00,UTC,,1013.7,62,,,9.4,,33366,147.1,3.4,1.8
2018,4,30,16:00,UTC,,1014,69,,,7.4,,50000,34.5,4.7,3.1
2018,4,30,17:00,UTC,,1014.3,73,,,6.3,,50000,35,4,2.1
2018,4,30,18:00,UTC,,1014.4,75,,,5.7,,50000,170.8,3.3,2.3
2018,4,30,19:00,UTC,,1014.4,83,,,4.2,,50000,15.4,1.7,1.3
2018,4,30,20:00,UTC,,1014.6,86,,,3.5,,50000,30.9,2.7,1.5
2018,4,30,21:00,UTC,,1014.6,86,,,4.7,,50000,46.8,2.7,1.9
2018,4,30,22:00,UTC,,1014.7,89,,,3.7,,50000,41.7,3.1,1.8
2018,4,30,23:00,UTC,,1014.8,92,,,3.3,,50000,54.5,2.2,1.7
2018,5,1,00:00,UTC,,1015,91,,,4.4,,50000,53.5,5.9,4.2
2018,5,1,01:00,UTC,,1015.2,94,,,4,,41078,49.4,3.2,2.6
2018,5,1,02:00,UTC,,1015,92,,,3.2,,50000,43.7,5.1,3.2
2018,5,1,03:00,UTC,,1015.1,89,,,3.2,,50000,50.4,4.8,3
2018,5,1,04:00,UTC,,1015.1,87,,,3.7,,41266,47.3,4.8,3.4
2018,5,1,05:00,UTC,,1015.2,82,,,4.5,,50000,55.6,8.4,6.1
2018,5,1,06:00,UTC,,1015.1,79,,,4.5,,50000,53,8.3,6.4
2018,5,1,07:00,UTC,,1015,75,,,5.1,,49414,49.9,9.4,6.5
2018,5,1,08:00,UTC,,1015.1,68,,,6.2,,43551,43.7,8.9,5.7
2018,5,1,09:00,UTC,,1014.8,61,,,6.9,,45463,43.7,8.7,6.5
2018,5,1,10:00,UTC,,1014.5,59,,,7.1,,48245,48.4,9.1,6.6
2018,5,1,11:00,UTC,,1014.2,58,,,7.6,,44689,46.3,9.6,6.6
2018,5,1,12:00,UTC,,1014.1,60,,,7.6,,50000,44.8,9.4,6.2
2018,5,1,13:00,UTC,,1014.3,68,,,6.4,,41809,44.8,9.5,6.7
2018,5,1,14:00,UTC,,1014,61,,,6.7,,50000,44.2,9.7,5.9
2018,5,1,15:00,UTC,,1013.5,53,,,7.3,,50000,45.8,8.7,5.7
2018,5,1,16:00,UTC,,1013.4,48,,,8.3,,50000,45.3,7.5,5
2018,5,1,17:00,UTC,,1013.4,51,,,8.1,,50000,56.6,7.7,6.1
2018,5,1,18:00,UTC,,1013.4,47,,,7.5,,50000,50.4,9.1,6.4
2018,5,1,19:00,UTC,,1013.5,47,,,6.8,,50000,48.9,7.7,5.7
2018,5,1,20:00,UTC,,1013.3,49,,,6.2,,50000,52.5,9.4,6.3
2018,5,1,21:00,UTC,,1013.1,50,,,5.8,,50000,53,8.7,6.1
2018,5,1,22:00,UTC,,1012.6,54,,,5.5,,50000,50.4,8.1,5.9
2018,5,1,23:00,UTC,,1012.2,58,,,5,,50000,48.4,7.6,5.6
2018,5,2,00:00,UTC,,1011.7,62,,,4.6,,50000,48.4,8.6,6
2018,5,2,01:00,UTC,,1011.4,67,,,4.4,,42636,52,9.6,6.7
2018,5,2,02:00,UTC,,1011,75,,,4,,41050,49.9,11.2,6.9
2018,5,2,03:00,UTC,,1010.7,89,,,3.2,,12570,54.5,10.9,8.1
2018,5,2,04:00,UTC,,1010.2,88,,,3.2,,50000,54,10.3,7.8
2018,5,2,05:00,UTC,,1009.9,89,,,3.3,,50000,54,10,7.4
2018,5,2,06:00,UTC,,1009.6,91,,,3.3,,19932,54.5,10.4,7.7
2018,5,2,07:00,UTC,,1009.6,88,,,3.9,,50000,54,10.3,7.2
2018,5,2,08:00,UTC,,1009.6,85,,,4.3,,50000,56.6,11.1,7.2
2018,5,2,09:00,UTC,,1009.5,87,,,4.4,,50000,57.1,11,8.2
2018,5,2,10:00,UTC,,1009.7,87,,,4.7,,50000,59.7,10.7,7.9
2018,5,2,11:00,UTC,,1009.9,87,,,4.8,,50000,58.6,8.8,6.9
2018,5,2,12:00,UTC,,1010,85,,,4.9,,50000,56.1,9.1,7.1
2018,5,2,13:00,UTC,,1009.8,84,,,5.2,,50000,58.6,8.9,5.9
2018,5,2,14:00,UTC,,1010.1,85,,,5,,48144,52,8.8,6.5
2018,5,2,15:00,UTC,,1010.4,91,,,4.6,,35122,51.4,6,4.4
2018,5,2,16:00,UTC,,1010.6,91,,,4.3,,45228,50.9,6.3,4.6
2018,5,2,17:00,UTC,,1010.8,89,,,4.1,,49132,50.9,6.8,5.2
2018,5,2,18:00,UTC,,1011.1,91,,,3.5,,50000,48.9,5,3.4
2018,5,2,19:00,UTC,,1011.5,92,,,2.9,,50000,46.8,5.1,3.5
2018,5,2,20:00,UTC,,1011.7,93,,,2.6,,50000,42.2,3.8,2.6
2018,5,2,21:00,UTC,,1012,93,,,2.5,,50000,43.2,4.7,2.4
2018,5,2,22:00,UTC,,1012.3,93,,,2.3,,50000,45.8,5.3,3.3
2018,5,2,23:00,UTC,,1012.7,94,,,2.3,,50000,44.2,4,2.5
2018,5,3,00:00,UTC,,1013.1,94,,,2.3,,50000,45.3,3.8,2.8
2018,5,3,01:00,UTC,,1013.6,94,,,2.2,,50000,45.8,3.3,2.2
2018,5,3,02:00,UTC,,1013.8,95,,,1.9,,25301,42.7,4.1,2.8
2018,5,3,03:00,UTC,,1014.2,93,,,2.5,,50000,58.1,4.8,3.9
2018,5,3,04:00,UTC,,1014.3,92,,,2.8,,50000,53,5.9,4.3
2018,5,3,05:00,UTC,,1015.1,91,,,3,,50000,58.1,7.3,5.5
2018,5,3,06:00,UTC,,1015.6,90,,,3.5,,50000,57.1,6.8,5.5
2018,5,3,07:00,UTC,,1016.1,86,,,4.2,,50000,59.7,7.1,5.6
2018,5,3,08:00,UTC,,1016.6,83,,,5,,50000,54.5,6.8,5.4
2018,5,3,09:00,UTC,,1017.3,81,,,5.6,,50000,65.8,7.8,5.6
2018,5,3,10:00,UTC,,1017.5,82,,,5.4,,50000,62.2,7.6,6.1
2018,5,3,11:00,UTC,,1017.9,86,,,5.4,,38916,65.8,7.8,6.1
2018,5,3,12:00,UTC,,1018.2,82,,,5.9,,50000,67.9,7.6,6
2018,5,3,13:00,UTC,,1018,81,,,6.5,,50000,63.3,8.8,6.7
2018,5,3,14:00,UTC,,1018.1,78,,,6.9,,50000,64.3,8.9,5.8
2018,5,3,15:00,UTC,,1017.9,81,,,6.6,,49914,61.7,8.3,6.7
2018,5,3,16:00,UTC,,1017.6,80,,,6.5,,50000,61.7,8.7,6.8
2018,5,3,17:00,UTC,,1017.6,82,,,6.2,,50000,57.1,9.2,7.1
2018,5,3,18:00,UTC,,1017.8,82,,,5.9,,50000,54.5,8.6,6.3
2018,5,3,19:00,UTC,,1017.7,85,,,5.5,,50000,56.1,9.9,7.7
2018,5,3,20:00,UTC,,1017.7,86,,,5.1,,50000,56.1,10.6,7.9
2018,5,3,21:00,UTC,,1017.9,85,,,4.9,,50000,58.1,10.3,8
2018,5,3,22:00,UTC,,1017.6,85,,,4.7,,50000,57.1,10.8,7.4
2018,5,3,23:00,UTC,,1017.3,86,,,4.3,,50000,56.6,10.6,7.9
2018,5,4,00:00,UTC,,1017.1,87,,,4.1,,50000,58.6,10.5,8.3
2018,5,4,01:00,UTC,,1016.8,87,,,3.9,,50000,58.1,9.2,7.1
2018,5,4,02:00,UTC,,1016.5,90,,,3.7,,23651,53,9.9,6.8
2018,5,4,03:00,UTC,,1015.6,92,,,3.4,,40440,48.9,8.2,5.7
2018,5,4,04:00,UTC,,1014.9,93,,,3.3,,47348,46.8,8.2,5.4
2018,5,4,05:00,UTC,,1014.5,93,,,3.5,,26987,48.4,8.8,6.1
2018,5,4,06:00,UTC,,1013.6,94,,,3.9,,50000,45.3,7.5,4.7
2018,5,4,07:00,UTC,,1013.3,93,,,4.1,,29155,44.8,8.5,5.8
2018,5,4,08:00,UTC,,1012.5,94,,,4.2,,20379,37,8.9,5.3
2018,5,4,09:00,UTC,,1012.2,94,,,2.9,,19958,34,9.5,6.2
2018,5,4,10:00,UTC,,1011.8,97,,,1,,14296,27.3,7.7,5.2
2018,5,4,11:00,UTC,,1011.5,96,,,2.1,,49118,27.8,8,5.1
2018,5,4,12:00,UTC,,1011.5,96,,,1.9,,23079,31.4,6.4,4.2
2018,5,4,13:00,UTC,,1011.4,96,,,2.6,,12329,30.9,5.9,3.7
2018,5,4,14:00,UTC,,1011.7,95,,,3.3,,50000,28.8,4.6,3
2018,5,4,15:00,UTC,,1012.1,97,,,3.3,,12506,11.8,3.6,2.3
2018,5,4,16:00,UTC,,1012.4,97,,,3.4,,23733,7.7,3.2,2.3
2018,5,4,17:00,UTC,,1012.8,98,,,2.9,,26876,178,3,2
2018,5,4,18:00,UTC,,1013.6,98,,,2.5,,8603,171.8,4.4,3.3
2018,5,4,19:00,UTC,,1014.2,99,,,1.7,,7004,156.9,4.6,3.5
2018,5,4,20:00,UTC,,1014.7,99,,,1.6,,7735,157.4,4.6,3.2
2018,5,4,21:00,UTC,,1015.5,100,,,1.5,,7926,157.4,4.5,3.4
2018,5,4,22:00,UTC,,1016,100,,,1.3,,13334,156.4,4.7,3.2
2018,5,4,23:00,UTC,,1016.4,100,,,1.1,,48431,157.4,4.5,3.3
2018,5,5,00:00,UTC,,1016.7,99,,,1.1,,50000,154.3,4.5,3.6
2018,5,5,01:00,UTC,,1017.5,99,,,1,,50000,155.4,6.5,4.6
2018,5,5,02:00,UTC,,1018.1,98,,,0.5,,50000,164.6,6.2,4.6
2018,5,5,03:00,UTC,,1018.6,96,,,0.8,,50000,152.8,4.7,2.9
2018,5,5,04:00,UTC,,1019.1,93,,,0.8,,50000,150.7,6.1,4.9
2018,5,5,05:00,UTC,,1019.6,93,,,0.8,,50000,156.4,6.5,4.5
2018,5,5,06:00,UTC,,1019.8,90,,,1.6,,50000,154.3,4.7,3.3
2018,5,5,07:00,UTC,,1020,86,,,2.4,,44929,149.2,3.1,2.1
2018,5,5,08:00,UTC,,1020.3,81,,,3,,50000,126,3.5,2.4
2018,5,5,09:00,UTC,,1020.7,82,,,3.5,,49246,113.7,3.6,2.3
2018,5,5,10:00,UTC,,1020.5,80,,,4.9,,50000,100.3,3.1,2.1
2018,5,5,11:00,UTC,,1020.7,77,,,6.1,,50000,115.7,2.8,1.8
2018,5,5,12:00,UTC,,1020.4,73,,,7.2,,50000,134.8,3.6,2.5
2018,5,5,13:00,UTC,,1020.2,68,,,9.3,,50000,108.5,5.9,3.7
2018,5,5,14:00,UTC,,1019.8,63,,,10.7,,50000,123,6.5,3.6
2018,5,5,15:00,UTC,,1019.5,61,,,11,,45185,117.8,8.2,5.3
2018,5,5,16:00,UTC,,1019,60,,,10.8,,50000,116.8,8.4,5.8
2018,5,5,17:00,UTC,,1018.9,63,,,9.9,,50000,119.9,7.3,5
2018,5,5,18:00,UTC,,1018.9,67,,,8.8,,50000,119.4,5.7,3.4
2018,5,5,19:00,UTC,,1018.8,68,,,8,,50000,116.3,6.1,3.9
2018,5,5,20:00,UTC,,1018.5,73,,,7.2,,50000,117.3,5.5,3.6
2018,5,5,21:00,UTC,,1018.4,79,,,5.9,,50000,117.3,3.5,2.4
2018,5,5,22:00,UTC,,1018,83,,,5.3,,50000,114.2,3.4,2.2
2018,5,5,23:00,UTC,,1017.8,88,,,4.5,,50000,106,3.2,2.3
2018,5,6,00:00,UTC,,1017.5,91,,,4.1,,50000,110.1,3.5,2.5
2018,5,6,01:00,UTC,,1017.2,92,,,3.6,,50000,102.4,2.7,1.8
2018,5,6,02:00,UTC,,1017.2,93,,,4,,50000,112.1,3.6,2.5
2018,5,6,03:00,UTC,,1016.8,89,,,5.2,,50000,113.2,3.4,2.1
2018,5,6,04:00,UTC,,1016.2,84,,,6.4,,50000,103.9,5,3.2
2018,5,6,05:00,UTC,,1015.8,79,,,8,,50000,101.3,3.8,2.6
2018,5,6,06:00,UTC,,1015.3,71,,,10.4,,50000,96.7,4.3,2.8
2018,5,6,07:00,UTC,,1014.7,59,,,13.4,,27422,97.7,5,3.1
2018,5,6,08:00,UTC,,1013.5,53,,,15,,43770,89,6.5,4.2
2018,5,6,09:00,UTC,,1013,54,,,15.5,,50000,94.7,4.9,3.5
2018,5,6,10:00,UTC,,1012.5,52,,,16.6,,50000,106.5,5.5,3.6
2018,5,6,11:00,UTC,,1013.2,87,,,9.2,,44914,132.2,10.4,7
2018,5,6,12:00,UTC,,1013.2,72,,,12.4,,34827,126.6,10.5,7.1
2018,5,6,13:00,UTC,,1013.7,62,,,13.6,,39480,135.3,8.4,6.2
2018,5,6,14:00,UTC,,1014.3,63,,,13.3,,46210,139.4,7.9,5.5
2018,5,6,15:00,UTC,,1015.1,67,,,11,,44168,134.3,8.4,6.1
2018,5,6,16:00,UTC,,1015.9,72,,,7.7,,50000,137.9,8.4,6.1
2018,5,6,17:00,UTC,,1016.3,58,,,10.2,,50000,153.3,9.7,5.8
2018,5,6,18:00,UTC,,1017.2,43,,,10,,50000,158.4,11.1,8.1
2018,5,6,19:00,UTC,,1018,40,,,9,,50000,158.4,11.6,7.9
2018,5,6,20:00,UTC,,1018.9,45,,,8.3,,50000,161.5,8.1,5.4
2018,5,6,21:00,UTC,,1019.8,48,,,7.3,,50000,166.2,7,4.5
2018,5,6,22:00,UTC,,1020.6,53,,,5.8,,50000,167.2,4.1,2.8
2018,5,6,23:00,UTC,,1021.1,61,,,4.2,,50000,164.1,4.7,3
2018,5,7,00:00,UTC,,1021.4,70,,,3,,50000,168.2,3.9,2.5
2018,5,7,01:00,UTC,,1021.8,78,,,1.7,,50000,26.2,1,0.7
2018,5,7,02:00,UTC,,1021.7,88,,,-0.3,,50000,17.5,0.8,0.5
2018,5,7,03:00,UTC,,1021.2,87,,,0.5,,50000,67.4,1.8,1.4
2018,5,7,04:00,UTC,,1020.9,69,,,3.9,,50000,69.4,2.5,2
2018,5,7,05:00,UTC,,1020.6,52,,,6.6,,48265,66.9,5.3,4.1
2018,5,7,06:00,UTC,,1020,49,,,8.2,,41345,69.4,4.4,3.7
2018,5,7,07:00,UTC,,1019.2,41,,,10.1,,50000,70.5,7,4.8
2018,5,7,08:00,UTC,,1018.5,42,,,10.6,,50000,78.2,5,3.7
2018,5,7,09:00,UTC,,1017,49,,,10.3,,50000,72.5,5.6,4.3
2018,5,7,10:00,UTC,,1016.2,44,,,11.1,,49790,67.9,5.5,4
2018,5,7,11:00,UTC,,1014.5,47,,,12,,50000,70.5,7.5,5.6
2018,5,7,12:00,UTC,,1012.8,51,,,12.4,,37214,74.1,8.9,6
2018,5,7,13:00,UTC,,1012,58,,,11.9,,47435,84.9,8,5.2
2018,5,7,14:00,UTC,,1011.7,84,,,10,,46129,89.5,4.9,3
2018,5,7,15:00,UTC,,1012.6,91,,,5.8,,48146,137.9,12.7,9.8
2018,5,7,16:00,UTC,,1013.2,87,,,7,,48627,135.8,7.1,5.5
2018,5,7,17:00,UTC,,1014,88,,,6.6,,42480,139.9,9.6,7.2
2018,5,7,18:00,UTC,,1015.1,90,,,4,,50000,137.4,7.7,5.9
2018,5,7,19:00,UTC,,1015.4,63,,,6,,50000,138.4,7.9,6.1
2018,5,7,20:00,UTC,,1016.3,72,,,4,,50000,125.5,6,4.4
2018,5,7,21:00,UTC,,1017,70,,,4.1,,50000,139.4,7,4.9
2018,5,7,22:00,UTC,,1017.3,58,,,6.7,,50000,155.4,8.9,6.8
2018,5,7,23:00,UTC,,1018,62,,,5.7,,50000,157.4,9.8,7
2018,5,8,00:00,UTC,,1018.6,64,,,5.3,,50000,159,8.6,6
2018,5,8,01:00,UTC,,1019.1,63,,,5.3,,50000,159,8.9,5.9
2018,5,8,02:00,UTC,,1019.5,69,,,4.3,,50000,167.7,7.7,4.8
2018,5,8,03:00,UTC,,1020.2,67,,,4.6,,50000,166.2,5.6,4
2018,5,8,04:00,UTC,,1020.5,68,,,4.9,,46109,171.8,5.7,3.5
2018,5,8,05:00,UTC,,1021,67,,,5.1,,50000,175.4,2.8,1.8
2018,5,8,06:00,UTC,,1021.4,58,,,7.2,,43361,169.3,2.8,1.5
2018,5,8,07:00,UTC,,1022,53,,,8.7,,39617,154.3,3.2,1.5
2018,5,8,08:00,UTC,,1022.5,59,,,7.7,,46426,144,5.2,3.7
2018,5,8,09:00,UTC,,1022.7,54,,,8.9,,44739,143.5,4.4,3.4
2018,5,8,10:00,UTC,,1022.7,49,,,10.1,,47164,156.4,5.5,4
2018,5,8,11:00,UTC,,1022.8,46,,,10.5,,50000,143.5,5.7,4
2018,5,8,12:00,UTC,,1022.4,40,,,10.8,,42910,156.9,4.9,3.3
2018,5,8,13:00,UTC,,1022.4,40,,,11.3,,48542,147.1,6.1,4.5
2018,5,8,14:00,UTC,,1022.1,37,,,10.5,,50000,154.8,5.7,3.7
2018,5,8,15:00,UTC,,1022,43,,,10.1,,50000,9.3,2.9,2.2
2018,5,8,16:00,UTC,,1021.5,43,,,9.9,,50000,179,2.5,1.8
2018,5,8,17:00,UTC,,1021.4,51,,,9.1,,50000,184.7,2.5,1.8
2018,5,8,18:00,UTC,,1021.2,57,,,7.8,,50000,2.1,1.5,1
2018,5,8,19:00,UTC,,1021.1,66,,,5,,50000,173.4,1.9,1
2018,5,8,20:00,UTC,,1021.3,80,,,4,,50000,180.1,2,1.3
2018,5,8,21:00,UTC,,1021.2,74,,,4.2,,50000,20.1,2,1.5
2018,5,8,22:00,UTC,,1021.2,66,,,4.9,,50000,52,3.3,2.7
2018,5,8,23:00,UTC,,1020.9,68,,,4.8,,50000,70,4,3.6
2018,5,9,00:00,UTC,,1020.7,65,,,4.9,,50000,74.6,4.3,3.5
2018,5,9,01:00,UTC,,1020.8,64,,,5.1,,50000,75.6,4.5,3.6
2018,5,9,02:00,UTC,,1020.9,68,,,4.3,,48175,70.5,4.6,4
2018,5,9,03:00,UTC,,1020.8,61,,,6.3,,49504,78.2,6,4.4
2018,5,9,04:00,UTC,,1021,56,,,8.1,,50000,81.3,5.3,4
2018,5,9,05:00,UTC,,1020.9,49,,,10.2,,50000,80.8,5.9,4.3
2018,5,9,06:00,UTC,,1020.8,48,,,11.3,,50000,80.3,5.7,4.4
2018,5,9,07:00,UTC,,1020.7,38,,,14.8,,50000,80.8,7.5,5.1
2018,5,9,08:00,UTC,,1020.5,35,,,16.9,,50000,84.4,7.3,5.4
2018,5,9,09:00,UTC,,1020.4,33,,,18,,31949,90,9.4,6.1
2018,5,9,10:00,UTC,,1020.2,33,,,19.2,,50000,90.5,9,6.2
2018,5,9,11:00,UTC,,1019.8,33,,,20.2,,42205,98.3,9.7,6
2018,5,9,12:00,UTC,,1019.3,33,,,20.7,,28784,90,9,5.4
2018,5,9,13:00,UTC,,1018.9,35,,,20.7,,50000,107.5,7.6,4.2
2018,5,9,14:00,UTC,,1018.7,46,,,17.1,,48122,148.2,6.7,5.2
2018,5,9,15:00,UTC,,1018.4,43,,,17,,50000,143.5,7.1,5
2018,5,9,16:00,UTC,,1018.6,41,,,16.5,,50000,137.9,6.3,3.2
2018,5,9,17:00,UTC,,1018.5,44,,,15.9,,50000,141.5,4.2,3.3
2018,5,9,18:00,UTC,,1019,51,,,13.1,,50000,161.5,3,1.5
2018,5,9,19:00,UTC,,1019.4,54,,,12.3,,50000,68.4,1.1,0.6
2018,5,9,20:00,UTC,,1019.5,58,,,12,,50000,79.2,3.6,2.4
2018,5,9,21:00,UTC,,1019.8,59,,,11.4,,50000,82.3,3.1,2.5
2018,5,9,22:00,UTC,,1020.1,83,,,8.2,,50000,52,1.7,0.6
2018,5,9,23:00,UTC,,1020.3,76,,,7.3,,50000,73.1,2.9,2.2
2018,5,10,00:00,UTC,,1020.5,65,,,9.2,,50000,88.5,3.6,2.8
2018,5,10,01:00,UTC,,1020.7,62,,,8.4,,50000,76.7,3.3,2.9
2018,5,10,02:00,UTC,,1021,66,,,6.8,,50000,75.1,3.7,2.8
2018,5,10,03:00,UTC,,1021.1,64,,,8.6,,45156,79.2,4,3.3
2018,5,10,04:00,UTC,,1021.6,57,,,10.3,,50000,81.3,4.9,2.9
2018,5,10,05:00,UTC,,1021.7,54,,,12.1,,34505,83.9,4.4,3.3
2018,5,10,06:00,UTC,,1022,40,,,14.5,,48545,102.9,5.8,3.7
2018,5,10,07:00,UTC,,1022.2,37,,,15.9,,39086,96.2,5,3.4
2018,5,10,08:00,UTC,,1022.1,34,,,17.3,,38844,83.3,6.4,3.4
2018,5,10,09:00,UTC,,1021.8,29,,,18.6,,36986,89.5,5.5,3.1
2018,5,10,10:00,UTC,,1021.4,28,,,19.8,,37875,88.5,6.8,4
2018,5,10,11:00,UTC,,1021,26,,,20.7,,46299,84.9,6.7,4.9
2018,5,10,12:00,UTC,,1020.7,22,,,21.6,,37034,92.1,8.2,4.9
2018,5,10,13:00,UTC,,1020.4,21,,,22.5,,50000,94.7,6.3,3.6
2018,5,10,14:00,UTC,,1020.5,35,,,17.5,,50000,183.1,4.8,3.3
2018,5,10,15:00,UTC,,1020.5,39,,,15.9,,43117,180.1,3.8,2.6
2018,5,10,16:00,UTC,,1020.3,38,,,15.4,,34613,175.9,3.8,2.8
2018,5,10,17:00,UTC,,1020.2,41,,,14.8,,20705,177.5,3.1,2.1
2018,5,10,18:00,UTC,,1020.3,41,,,14.5,,49143,184.2,1.2,0.8
2018,5,10,19:00,UTC,,1020.3,43,,,13.5,,37790,39.6,1.5,0.9
2018,5,10,20:00,UTC,,1020.6,52,,,11.5,,44537,60.2,2,1.8
2018,5,10,21:00,UTC,,1020.6,55,,,10.8,,50000,64.8,2.7,2.3
2018,5,10,22:00,UTC,,1020.9,50,,,11.9,,50000,80.3,4.5,3.1
2018,5,10,23:00,UTC,,1021.3,59,,,10.7,,50000,85.9,3.9,3
2018,5,11,00:00,UTC,,1021.7,59,,,9.9,,50000,83.9,3.9,3
2018,5,11,01:00,UTC,,1021.9,59,,,8.7,,50000,81.8,3.1,2.6
2018,5,11,02:00,UTC,,1022.3,63,,,7.8,,50000,78.7,3.5,2.9
2018,5,11,03:00,UTC,,1022.4,62,,,8.5,,49643,72.5,3.6,2.6
2018,5,11,04:00,UTC,,1022.6,57,,,10.6,,45877,76.7,4.5,3.4
2018,5,11,05:00,UTC,,1022.8,51,,,13.1,,49510,79.2,3.8,2.5
2018,5,11,06:00,UTC,,1023,45,,,15,,49263,74.6,5.5,3.1
2018,5,11,07:00,UTC,,1023.2,40,,,17.3,,50000,99.3,3.1,1.9
2018,5,11,08:00,UTC,,1023,37,,,18.4,,50000,77.2,3.8,2.3
2018,5,11,09:00,UTC,,1022.8,35,,,20.2,,42734,71,3.8,2.5
2018,5,11,10:00,UTC,,1022.6,30,,,21.8,,29314,80.3,5.3,3.3
2018,5,11,11:00,UTC,,1022.5,29,,,22.7,,45940,48.9,3.5,2.3
2018,5,11,12:00,UTC,,1022.4,34,,,21.8,,28033,2.6,3.4,1.8
2018,5,11,13:00,UTC,,1022.2,32,,,22,,32468,170.8,5.3,3.9
2018,5,11,14:00,UTC,,1022,35,,,20.5,,50000,174.9,5.6,3.9
2018,5,11,15:00,UTC,,1021.8,35,,,20.4,,50000,174.9,4.8,3.3
2018,5,11,16:00,UTC,,1021.5,33,,,20.4,,42801,172.3,4.9,3
2018,5,11,17:00,UTC,,1021.6,38,,,18.5,,50000,176.5,3.3,2.2
2018,5,11,18:00,UTC,,1021.6,43,,,17.9,,38862,180.1,2.6,1.5
2018,5,11,19:00,UTC,,1021.9,40,,,17.4,,50000,170.8,1.5,0.9
2018,5,11,20:00,UTC,,1022.1,59,,,12.6,,41055,181.1,1.4,0.8
2018,5,11,21:00,UTC,,1022.4,84,,,11.1,,50000,177.5,0.9,0.7
2018,5,11,22:00,UTC,,1022.4,81,,,9.8,,50000,3.6,1.8,1.3
2018,5,11,23:00,UTC,,1022.6,74,,,9.2,,38792,74.6,2.6,1.5
2018,5,12,00:00,UTC,,1022.5,86,,,8.1,,50000,7.7,1.3,0.9
2018,5,12,01:00,UTC,,1022.5,77,,,8.2,,49575,68.4,1.7,1.3
2018,5,12,02:00,UTC,,1022.6,81,,,7.7,,42241,57.1,1.9,1.3
2018,5,12,03:00,UTC,,1022.9,75,,,8.9,,34951,66.9,4.1,2.8
2018,5,12,04:00,UTC,,1022.9,64,,,10.5,,29703,70.5,2.8,2.3
2018,5,12,05:00,UTC,,1023,56,,,13.5,,50000,79.2,3.9,1.5
2018,5,12,06:00,UTC,,1023.1,44,,,17.2,,42370,52.5,1.9,1.2
2018,5,12,07:00,UTC,,1023.1,40,,,19.3,,50000,19.5,1.9,1.2
2018,5,12,08:00,UTC,,1023.1,38,,,22.2,,50000,98.3,2.1,1.2
2018,5,12,09:00,UTC,,1023,25,,,23.6,,41693,60.2,1.8,0.7
2018,5,12,10:00,UTC,,1022.7,19,,,24.4,,47917,38.6,1.8,0.6
2018,5,12,11:00,UTC,,1022.5,28,,,23.9,,29105,170.8,2.9,1.8
2018,5,12,12:00,UTC,,1022.5,31,,,23,,45412,143.5,5.9,4.5
2018,5,12,13:00,UTC,,1022.5,26,,,23.4,,50000,146.6,6.4,5.1
2018,5,12,14:00,UTC,,1022.4,37,,,20.3,,37398,145.1,6,4.4
2018,5,12,15:00,UTC,,1022.2,44,,,20,,50000,161.5,4.3,2.9
2018,5,12,16:00,UTC,,1022.1,42,,,18.6,,48811,180.6,3.9,2.8
2018,5,12,17:00,UTC,,1021.9,46,,,16.6,,48257,175.9,2.7,1.8
2018,5,12,18:00,UTC,,1022.1,50,,,15.1,,43113,177.5,2.6,2
2018,5,12,19:00,UTC,,1022.3,53,,,13.3,,50000,170.3,1.2,0.8
2018,5,12,20:00,UTC,,1022.4,64,,,11.2,,50000,174.4,0.7,0.4
2018,5,12,21:00,UTC,,1022.5,69,,,10.2,,48691,70.5,1.5,1.2
2018,5,12,22:00,UTC,,1022.4,72,,,8.9,,50000,69.4,1.1,0.6
2018,5,12,23:00,UTC,,1022.7,81,,,7.8,,50000,173.9,1.7,1.1
2018,5,13,00:00,UTC,,1022.9,84,,,7.5,,50000,179,1.4,0.8
2018,5,13,01:00,UTC,,1023.1,83,,,7.5,,50000,79.7,1,0.7
2018,5,13,02:00,UTC,,1023.1,82,,,7.7,,50000,77.2,0.8,0.6
2018,5,13,03:00,UTC,,1023.3,80,,,9.3,,50000,64.3,2,1.4
2018,5,13,04:00,UTC,,1023.6,76,,,11.8,,40122,181.1,3,1.5
2018,5,13,05:00,UTC,,1023.4,62,,,15.1,,40331,26.8,1.3,0.8
2018,5,13,06:00,UTC,,1023.6,44,,,17.4,,48582,7.2,1.9,1.4
2018,5,13,07:00,UTC,,1023.7,36,,,19.9,,42913,9.8,1.6,1.1
2018,5,13,08:00,UTC,,1023.7,35,,,21.4,,42297,130.2,4,2.6
2018,5,13,09:00,UTC,,1023.6,29,,,22.8,,44544,138.9,4.3,2.3
2018,5,13,10:00,UTC,,1023.6,31,,,22.5,,43022,4.1,2.9,1.7
2018,5,13,11:00,UTC,,1023.5,36,,,23,,44013,153.3,5.1,3
2018,5,13,12:00,UTC,,1023.5,31,,,23.7,,50000,154.3,5.3,3.6
2018,5,13,13:00,UTC,,1023.4,36,,,22.7,,50000,179,4.7,3.5
2018,5,13,14:00,UTC,,1023.4,39,,,20.4,,43382,173.4,5.6,4.3
2018,5,13,15:00,UTC,,1023.2,46,,,20.2,,28242,171.8,5.1,3.6
2018,5,13,16:00,UTC,,1023,40,,,20.6,,50000,173.9,4.8,3.3
2018,5,13,17:00,UTC,,1022.7,40,,,20.1,,44467,172.9,3.5,2.6
2018,5,13,18:00,UTC,,1022.5,49,,,18.4,,50000,175.9,2.1,1.5
2018,5,13,19:00,UTC,,1022.5,56,,,16.7,,33045,180.1,1.3,0.9
2018,5,13,20:00,UTC,,1022.5,68,,,13.1,,50000,184.2,1.6,0.9
2018,5,13,21:00,UTC,,1022.8,73,,,12.2,,50000,174.4,1.8,1.2
2018,5,13,22:00,UTC,,1022.8,80,,,11.2,,48684,182.1,1.6,1
2018,5,13,23:00,UTC,,1022.6,85,,,10.1,,50000,12.9,0.9,0.5
2018,5,14,00:00,UTC,,1022.6,90,,,9.5,,50000,37.6,1,0.7
2018,5,14,01:00,UTC,,1022.5,90,,,8.6,,50000,183.7,0.4,0.3
2018,5,14,02:00,UTC,,1022.3,93,,,8.3,,48900,179,1,0.8
2018,5,14,03:00,UTC,,1022.2,89,,,10.4,,31288,7.2,1.1,0.8
2018,5,14,04:00,UTC,,1022.1,83,,,13.5,,48262,181.1,2.2,1.5
2018,5,14,05:00,UTC,,1021.6,67,,,16.5,,50000,10.3,1.8,1.3
2018,5,14,06:00,UTC,,1021.3,58,,,18.9,,37636,182.1,2.1,1.3
2018,5,14,07:00,UTC,,1021,51,,,20.9,,42162,5.1,1.8,1.1
2018,5,14,08:00,UTC,,1020.7,45,,,23,,50000,3.1,2,1.3
2018,5,14,09:00,UTC,,1020.4,47,,,22,,49333,124,6.9,5.5
2018,5,14,10:00,UTC,,1020.3,45,,,22.7,,43020,156.9,6.9,5.1
2018,5,14,11:00,UTC,,1020.3,44,,,21.2,,50000,156.9,8.4,6.9
2018,5,14,12:00,UTC,,1020.5,44,,,21.8,,48327,164.6,8.7,5.7
2018,5,14,13:00,UTC,,1020.8,53,,,16.9,,48022,134.8,6.3,5.4
2018,5,14,14:00,UTC,,1020.5,33,,,17.3,,50000,135.8,7.9,5.9
2018,5,14,15:00,UTC,,1020.5,47,,,15.6,,48031,146.1,8,6.3
2018,5,14,16:00,UTC,,1019.9,45,,,15.9,,38637,140.4,7.3,5.4
2018,5,14,17:00,UTC,,1019.7,46,,,15.8,,50000,144.6,6.4,4.8
2018,5,14,18:00,UTC,,1019.4,49,,,14.9,,50000,148.2,1.3,0.8
2018,5,14,19:00,UTC,,1019.5,63,,,12.3,,49968,154.3,1.5,0.6
2018,5,14,20:00,UTC,,1019.7,75,,,11.5,,50000,2.1,1.3,0.9
2018,5,14,21:00,UTC,,1019.5,84,,,9.1,,50000,163.1,0.5,0.2
2018,5,14,22:00,UTC,,1019.7,75,,,9.7,,50000,75.1,1.2,0.8
2018,5,14,23:00,UTC,,1020,83,,,8.5,,50000,19,1.3,0.9
2018,5,15,00:00,UTC,,1019.8,83,,,8.5,,50000,65.3,3.1,2.5
2018,5,15,01:00,UTC,,1019.5,79,,,10,,49795,108.5,1.9,0.9
2018,5,15,02:00,UTC,,1019,77,,,9.8,,45930,72.5,3.1,2.4
2018,5,15,03:00,UTC,,1019.1,74,,,11.7,,48897,98.8,5.1,2.1
2018,5,15,04:00,UTC,,1018.8,62,,,13.7,,44872,99.8,3.3,2.2
2018,5,15,05:00,UTC,,1019.1,59,,,14.9,,43098,153.8,4.6,3
2018,5,15,06:00,UTC,,1019.1,59,,,13.9,,37542,139.4,7.2,4.7
2018,5,15,07:00,UTC,,1019.1,55,,,15.8,,36432,130.7,5.1,3.6
2018,5,15,08:00,UTC,,1019.1,53,,,17.5,,37938,143.5,4.5,3
2018,5,15,09:00,UTC,,1019.2,49,,,18.1,,49175,145.6,4.8,3.6
2018,5,15,10:00,UTC,,1019.1,39,,,19.7,,,141.5,4,3
2018,5,15,11:00,UTC,,1018.9,41,,,19.4,,32703,141.5,6,4.7
2018,5,15,12:00,UTC,,1018.7,44,,,19.8,,45205,145.1,5.7,4.2
2018,5,15,13:00,UTC,,1018.4,43,,,20.3,,40596,142.5,5.1,4
2018,5,15,14:00,UTC,,1018.1,47,,,19.2,,49421,150.2,5.7,4.2
2018,5,15,15:00,UTC,,1017.8,48,,,20,,50000,148.2,5.1,3.5
2018,5,15,16:00,UTC,,1017.5,56,,,18.4,,50000,132.2,3.1,2.3
2018,5,15,17:00,UTC,,1017.2,54,,,17.5,,42407,148.2,3.1,2.3
2018,5,15,18:00,UTC,,1016.8,58,,,16.8,,50000,136.8,2.7,2.2
2018,5,15,19:00,UTC,,1016.7,69,,,13.9,,50000,155.9,2.1,1.5
2018,5,15,20:00,UTC,,1016.9,79,,,12.3,,50000,164.1,2.4,1.6
2018,5,15,21:00,UTC,,1016.9,75,,,11.1,,50000,168.2,1.8,1.2
2018,5,15,22:00,UTC,,1016.9,84,,,8.9,,50000,140.4,2.4,2
2018,5,15,23:00,UTC,,1016.5,84,,,9.5,,50000,180.1,1.2,0.8
2018,5,16,00:00,UTC,,1016.2,85,,,7.9,,50000,133.8,2.2,1.7
2018,5,16,01:00,UTC,,1016.1,80,,,10.1,,50000,63.8,1.6,0.6
2018,5,16,02:00,UTC,,1015.8,88,,,9.6,,50000,130.2,1.2,0.8
2018,5,16,03:00,UTC,,1015.5,78,,,12.2,,50000,58.1,1.3,1
2018,5,16,04:00,UTC,,1015,66,,,14.2,,41515,50.9,2.1,1
2018,5,16,05:00,UTC,,1014.8,64,,,15.9,,33841,66.9,2.6,2
2018,5,16,06:00,UTC,,1014.7,58,,,18.5,,50000,65.3,1.9,0.8
2018,5,16,07:00,UTC,,1014.4,53,,,20.7,,36493,183.1,1.5,0.8
2018,5,16,08:00,UTC,,1014.2,47,,,21.9,,41032,176.5,2.4,1.3
2018,5,16,09:00,UTC,,1013.8,46,,,23.2,,32181,7.2,3.2,1.9
2018,5,16,10:00,UTC,,1013.4,36,,,24.7,,18293,1.5,2.7,1.5
2018,5,16,11:00,UTC,,1012.9,41,,,24.3,,50000,178,3.3,2.6
2018,5,16,12:00,UTC,,1012.6,44,,,23,,50000,178.5,6,3.5
2018,5,16,13:00,UTC,,1012.3,43,,,23,,42027,174.9,5.4,3.9
2018,5,16,14:00,UTC,,1012,42,,,23.6,,50000,177,4.2,2.6
2018,5,16,15:00,UTC,,1011.5,38,,,22.6,,50000,172.9,6.4,3.8
2018,5,16,16:00,UTC,,1011.4,40,,,22.3,,50000,172.9,4.7,3.2
2018,5,16,17:00,UTC,,1011.2,38,,,22.6,,50000,175.9,2.8,1.9
2018,5,16,18:00,UTC,,1011.4,54,,,19.3,,50000,130.7,4.1,2.7
2018,5,16,19:00,UTC,,1011.4,55,,,18,,50000,143.5,2,1.2
2018,5,16,20:00,UTC,,1011.5,72,,,15.6,,45665,16.5,1.3,0.9
2018,5,16,21:00,UTC,,1011.5,72,,,13.9,,50000,59.2,3.9,1.4
2018,5,16,22:00,UTC,,1011.5,78,,,12.2,,48985,121.9,1.4,1
2018,5,16,23:00,UTC,,1012.1,65,,,13.6,,50000,161.5,4.7,3
2018,5,17,00:00,UTC,,1011.8,71,,,12.6,,50000,167.7,1.3,0.8
2018,5,17,01:00,UTC,,1011.7,74,,,11.3,,50000,141.5,3.2,2.6
2018,5,17,02:00,UTC,,1011.6,83,,,9.7,,50000,149.2,1.9,1.4
2018,5,17,03:00,UTC,,1011.7,83,,,10.6,,50000,157.9,3.5,2.8
2018,5,17,04:00,UTC,,1011.9,81,,,12.3,,49513,166.7,5.4,3.4
2018,5,17,05:00,UTC,,1012.4,73,,,12.2,,40290,168.7,9.4,5.3
2018,5,17,06:00,UTC,,1012.5,68,,,11.4,,32343,168.2,8.8,5.7
2018,5,17,07:00,UTC,,1012.4,62,,,12.9,,46231,169.8,8.3,5.5
2018,5,17,08:00,UTC,,1012.5,56,,,14.6,,45588,162.6,8,5.7
2018,5,17,09:00,UTC,,1012.6,52,,,14.4,,32846,170.3,9.7,6.7
2018,5,17,10:00,UTC,,1012.6,53,,,14.6,,27486,166.2,10.6,7.3
2018,5,17,11:00,UTC,,1012.2,58,,,14.1,,47537,167.2,9.9,7.2
2018,5,17,12:00,UTC,,1012.3,64,,,13,,40296,166.2,12.8,9.3
2018,5,17,13:00,UTC,,1012.2,65,,,12.7,,48050,168.2,12.9,8.5
2018,5,17,14:00,UTC,,1012.4,64,,,12.7,,45778,169.8,12.7,8
2018,5,17,15:00,UTC,,1012.1,61,,,12.5,,46189,168.7,10.7,6.8
2018,5,17,16:00,UTC,,1012.5,64,,,11.4,,37444,167.2,11.9,8.4
2018,5,17,17:00,UTC,,1012.7,68,,,10.7,,43383,171.3,8.3,5.7
2018,5,17,18:00,UTC,,1012.8,71,,,10.1,,50000,177,7.3,4.7
2018,5,17,19:00,UTC,,1013,73,,,9.3,,50000,175.4,5.8,3.7
2018,5,17,20:00,UTC,,1013,73,,,8.8,,50000,176.5,8.6,4.5
2018,5,17,21:00,UTC,,1012.9,73,,,8.4,,50000,173.9,5.6,3.5
2018,5,17,22:00,UTC,,1012.7,76,,,7.5,,50000,170.8,7.4,4.5
2018,5,17,23:00,UTC,,1012.5,78,,,7.2,,50000,177.5,5.9,3.5
2018,5,18,00:00,UTC,,1012.4,78,,,6.9,,49909,169.8,7.4,4.4
2018,5,18,01:00,UTC,,1012.4,80,,,6.2,,45655,166.2,5.2,3.9
2018,5,18,02:00,UTC,,1012.4,78,,,6.4,,50000,169.8,8.2,5.4
2018,5,18,03:00,UTC,,1012.4,80,,,6.1,,50000,169.8,7.7,4.7
2018,5,18,04:00,UTC,,1012.3,74,,,6.7,,43344,170.3,8.2,5.4
2018,5,18,05:00,UTC,,1012.7,71,,,7.1,,50000,165.7,8.3,6.1
2018,5,18,06:00,UTC,,1012.9,68,,,7.9,,44633,164.1,8.8,5.7
2018,5,18,07:00,UTC,,1013.2,65,,,8.1,,50000,158.4,8.7,6.6
2018,5,18,08:00,UTC,,1013.5,64,,,8.8,,50000,163.1,7.8,5.8
2018,5,18,09:00,UTC,,1013.4,52,,,11,,47055,155.4,9,7
2018,5,18,10:00,UTC,,1013.5,47,,,11.9,,40108,155.9,10.6,7.7
2018,5,18,11:00,UTC,,1013.5,46,,,12,,32345,145.1,11.4,8.8
2018,5,18,12:00,UTC,,1013.9,46,,,12.7,,50000,149.2,9.5,7.3
2018,5,18,13:00,UTC,,1013.8,43,,,13.3,,50000,148.2,8.9,6.4
2018,5,18,14:00,UTC,,1013.9,56,,,12.4,,48007,139.4,8.2,6.1
2018,5,18,15:00,UTC,,1014,53,,,12.5,,50000,137.9,7.3,5.7
2018,5,18,16:00,UTC,,1014.3,57,,,11.7,,50000,141.5,7.7,6.2
2018,5,18,17:00,UTC,,1014.4,48,,,12.2,,50000,140.4,5.6,4.1
2018,5,18,18:00,UTC,,1014.6,53,,,10.8,,50000,153.3,5,3.7
2018,5,18,19:00,UTC,,1014.9,62,,,9.3,,50000,165.7,2.5,1.5
2018,5,18,20:00,UTC,,1015.1,76,,,6.8,,50000,140.4,4,2.9
2018,5,18,21:00,UTC,,1015.3,78,,,5.9,,50000,139.9,4.1,3.3
2018,5,18,22:00,UTC,,1015.5,83,,,6.2,,48783,134.3,1.9,1.1
2018,5,18,23:00,UTC,,1015.7,91,,,4.4,,50000,130.7,1.7,1.4
2018,5,19,00:00,UTC,,1015.8,95,,,4.4,,50000,137.9,1.4,0.9
2018,5,19,01:00,UTC,,1016,92,,,4.2,,50000,162.6,2.2,1.7
2018,5,19,02:00,UTC,,1016.2,83,,,5.5,,50000,166.2,3,2.4
2018,5,19,03:00,UTC,,1016.5,77,,,8.5,,50000,5.1,0.9,0.4
2018,5,19,04:00,UTC,,1016.6,64,,,10.2,,50000,21.1,2.2,1.4
2018,5,19,05:00,UTC,,1016.8,50,,,11.3,,39830,10.3,2,0.9
2018,5,19,06:00,UTC,,1016.8,56,,,12.5,,40176,131.2,2.9,1.8
2018,5,19,07:00,UTC,,1016.8,42,,,13.8,,49628,133.2,4.5,2.9
2018,5,19,08:00,UTC,,1017,33,,,14,,42168,136.3,5.4,3.8
2018,5,19,09:00,UTC,,1016.8,26,,,14.6,,50000,132.2,6.5,4.3
2018,5,19,10:00,UTC,,1016.9,33,,,14.6,,45498,141.5,6.6,4.5
2018,5,19,11:00,UTC,,1016.8,37,,,14.6,,41648,134.3,7.9,6.1
2018,5,19,12:00,UTC,,1017,34,,,13.3,,50000,144.6,8,6.3
2018,5,19,13:00,UTC,,1016.8,42,,,13.1,,48267,138.4,8.8,6.1
2018,5,19,14:00,UTC,,1016.9,44,,,12.4,,50000,140.4,8,6
2018,5,19,15:00,UTC,,1016.7,34,,,13.6,,41794,139.4,9,6.1
2018,5,19,16:00,UTC,,1016.6,50,,,12.7,,50000,141.5,7.2,5.2
2018,5,19,17:00,UTC,,1016.5,35,,,12.8,,50000,128.1,8.2,6
2018,5,19,18:00,UTC,,1016.4,41,,,12,,49971,123.5,8.4,5.7
2018,5,19,19:00,UTC,,1016.5,44,,,10.9,,50000,119.4,6.1,4.2
2018,5,19,20:00,UTC,,1016.3,49,,,10.4,,50000,113.2,4.8,3.2
2018,5,19,21:00,UTC,,1016.3,51,,,10.2,,50000,121.9,6.2,4.5
2018,5,19,22:00,UTC,,1016.7,61,,,9.1,,50000,131.2,6.3,4.6
2018,5,19,23:00,UTC,,1017,73,,,7.5,,50000,125.5,3.3,2.3
2018,5,20,00:00,UTC,,1017.3,79,,,6.5,,50000,117.3,2.5,1.5
2018,5,20,01:00,UTC,,1017.6,86,,,5,,43984,120.4,1.3,1
2018,5,20,02:00,UTC,,1018.1,83,,,7.1,,50000,122.4,3.7,2.8
2018,5,20,03:00,UTC,,1018.3,75,,,8.8,,50000,133.2,2.9,2.2
2018,5,20,04:00,UTC,,1019,55,,,10,,50000,139.9,5.2,3.8
2018,5,20,05:00,UTC,,1019.6,45,,,10.8,,50000,148.7,5.6,4.1
2018,5,20,06:00,UTC,,1019.8,51,,,10.9,,37825,131.7,6.2,4.1
2018,5,20,07:00,UTC,,1020.1,37,,,11.8,,50000,131.2,5.8,3.8
2018,5,20,08:00,UTC,,1020.4,32,,,12.7,,36299,128.1,5.8,4.2
2018,5,20,09:00,UTC,,1020.6,40,,,13.5,,50000,144.6,6.8,4.9
2018,5,20,10:00,UTC,,1020.5,42,,,14.5,,50000,138.9,8.2,5.4
2018,5,20,11:00,UTC,,1020.2,44,,,14.9,,50000,140.4,6.9,5.1
2018,5,20,12:00,UTC,,1020.1,45,,,15.3,,43218,137.4,7.7,5.5
2018,5,20,13:00,UTC,,1019.7,47,,,15.7,,50000,143,5.6,4.2
2018,5,20,14:00,UTC,,1019.4,42,,,16.7,,43665,134.3,4.9,3.7
2018,5,20,15:00,UTC,,1019,38,,,17.2,,44624,133.8,4.6,3.5
2018,5,20,16:00,UTC,,1018.5,36,,,17.5,,50000,101.3,3,2.1
2018,5,20,17:00,UTC,,1018.1,41,,,17.3,,46658,86.4,2.2,1.8
2018,5,20,18:00,UTC,,1017.8,44,,,16.7,,50000,97.2,2.1,1.7
2018,5,20,19:00,UTC,,1018.1,54,,,13.3,,50000,123,5.2,3.7
2018,5,20,20:00,UTC,,1018.3,65,,,11.7,,50000,119.9,7.5,5.4
2018,5,20,21:00,UTC,,1018.4,66,,,11,,50000,113.2,3.9,2.4
2018,5,20,22:00,UTC,,1018.4,67,,,10.4,,50000,114.2,2.7,1.7
2018,5,20,23:00,UTC,,1018.1,65,,,10.4,,50000,111.1,3.3,2
2018,5,21,00:00,UTC,,1018.3,74,,,9.1,,50000,81.3,2.8,2.1
2018,5,21,01:00,UTC,,1018,74,,,8.5,,50000,78.7,3.6,2.8
2018,5,21,02:00,UTC,,1018.1,72,,,9,,50000,88.5,2.9,2
2018,5,21,03:00,UTC,,1018.2,70,,,9.4,,50000,75.1,3.4,2.8
2018,5,21,04:00,UTC,,1018.6,70,,,10.2,,50000,82.8,4.6,3.3
2018,5,21,05:00,UTC,,1019,58,,,12.7,,50000,98.3,4.2,2.2
2018,5,21,06:00,UTC,,1019.1,55,,,13.9,,42439,120.9,2.8,1.5
2018,5,21,07:00,UTC,,1019.2,50,,,16.1,,46718,13.9,2.7,1.7
2018,5,21,08:00,UTC,,1019.4,50,,,16.4,,50000,149.2,5.5,3.6
2018,5,21,09:00,UTC,,1019.4,53,,,16.7,,50000,141,6.3,4.7
2018,5,21,10:00,UTC,,1019.4,57,,,16.5,,34448,144,6.3,4.4
2018,5,21,11:00,UTC,,1019.4,52,,,17.3,,46524,137.9,7.8,5.8
2018,5,21,12:00,UTC,,1020.3,58,,,15.4,,46308,145.1,8.3,6.6
2018,5,21,13:00,UTC,,1020.5,49,,,17.9,,49161,141,5.8,3.6
2018,5,21,14:00,UTC,,1020.8,50,,,17.9,,45950,146.6,5.1,4
2018,5,21,15:00,UTC,,1020.8,50,,,18.5,,42927,144.6,5.2,3.8
2018,5,21,16:00,UTC,,1020.9,52,,,17.8,,50000,132.7,5.4,3.8
2018,5,21,17:00,UTC,,1021.1,50,,,16.5,,50000,141,5.2,4.1
2018,5,21,18:00,UTC,,1021.2,54,,,16,,47050,140.4,4.1,3.2
2018,5,21,19:00,UTC,,1021.8,62,,,13.8,,47961,143,5.3,3.7
2018,5,21,20:00,UTC,,1022,64,,,13.3,,50000,119.4,4.6,3.5
2018,5,21,21:00,UTC,,1022.3,73,,,11.4,,50000,151.8,3.1,2.2
2018,5,21,22:00,UTC,,1022.4,78,,,10.1,,50000,107,2.1,1.5
2018,5,21,23:00,UTC,,1022.8,85,,,8.6,,50000,121.4,1,0.6
2018,5,22,00:00,UTC,,1022.7,87,,,8.1,,48101,96.7,0.9,0.4
2018,5,22,01:00,UTC,,1022.8,89,,,8,,49916,90,2,1.4
2018,5,22,02:00,UTC,,1022.7,87,,,7.9,,50000,114.7,0.5,0.2
2018,5,22,03:00,UTC,,1022.4,84,,,10,,50000,66.9,4.3,1.6
2018,5,22,04:00,UTC,,1022.3,76,,,11.5,,36441,59.2,2.2,1.4
2018,5,22,05:00,UTC,,1021.9,61,,,14.6,,26622,62.2,2.9,1.8
2018,5,22,06:00,UTC,,1021.3,51,,,16.7,,50000,63.8,4.6,3.1
2018,5,22,07:00,UTC,,1020.6,50,,,18,,35104,74.1,4.9,3.7
2018,5,22,08:00,UTC,,1020.1,41,,,21.2,,36199,79.2,5.6,3.7
2018,5,22,09:00,UTC,,1019.4,30,,,22.8,,46246,93.1,8.4,6.1
2018,5,22,10:00,UTC,,1018.5,26,,,23.7,,50000,86.4,7.6,5.2
2018,5,22,11:00,UTC,,1017.4,27,,,24.4,,47508,101.9,8,5.5
2018,5,22,12:00,UTC,,1017.3,43,,,20.5,,38901,138.4,8.8,6
2018,5,22,13:00,UTC,,1016.5,40,,,21.7,,47153,137.9,7.6,5.4
2018,5,22,14:00,UTC,,1016.2,46,,,19.7,,36784,137.9,7.4,5.3
2018,5,22,15:00,UTC,,1015.9,43,,,20,,50000,134.8,7,5.3
2018,5,22,16:00,UTC,,1015.6,43,,,19.1,,50000,129.6,6.9,4.8
2018,5,22,17:00,UTC,,1015.3,48,,,18.4,,43720,141,5.8,3.4
2018,5,22,18:00,UTC,,1015.2,48,,,17.4,,50000,153.8,4.1,3
2018,5,22,19:00,UTC,,1014.9,39,,,16.4,,50000,119.9,5.5,2.8
2018,5,22,20:00,UTC,,1014.7,43,,,14.6,,50000,120.4,4.5,2.2
2018,5,22,21:00,UTC,,1014,49,,,13.1,,50000,113.7,4.3,3
2018,5,22,22:00,UTC,,1014.7,75,,,9.1,,50000,157.4,4.5,3.3
2018,5,22,23:00,UTC,,1014.6,82,,,9,,50000,169.3,4.3,3.2
2018,5,23,00:00,UTC,,1015.2,69,,,10.6,,50000,176.5,7,4.5
2018,5,23,01:00,UTC,,1015.9,64,,,10.8,,50000,174.4,7.1,4.8
2018,5,23,02:00,UTC,,1016.5,64,,,10.2,,50000,179,8.7,4.6
2018,5,23,03:00,UTC,,1017.1,57,,,9.9,,50000,178,8.6,5.5
2018,5,23,04:00,UTC,,1017.9,55,,,10.3,,40450,184.2,10.1,5.8
2018,5,23,05:00,UTC,,1018.7,51,,,11.1,,50000,184.7,10.1,6.3
2018,5,23,06:00,UTC,,1019.4,44,,,11.4,,35607,1.5,11.2,6.5
2018,5,23,07:00,UTC,,1020.2,42,,,12.3,,39595,181.1,8.5,4.9
2018,5,23,08:00,UTC,,1021.2,43,,,11.6,,46930,168.2,12,8.3
2018,5,23,09:00,UTC,,1021.8,42,,,11.7,,50000,168.2,12.2,7.8
2018,5,23,10:00,UTC,,1022.1,36,,,12.7,,50000,164.6,10.3,7.6
2018,5,23,11:00,UTC,,1022.5,36,,,13.1,,44688,168.7,9.9,6.9
2018,5,23,12:00,UTC,,1023.2,34,,,13.3,,31376,167.7,10.9,6.9
2018,5,23,13:00,UTC,,1023.4,32,,,13.4,,46504,167.2,11.3,7.8
2018,5,23,14:00,UTC,,1023.6,30,,,13.5,,48901,160.5,10.8,7.9
2018,5,23,15:00,UTC,,1023.8,31,,,13.5,,50000,161.5,10.9,7
2018,5,23,16:00,UTC,,1024.1,33,,,13.3,,38804,162,10.2,7.2
2018,5,23,17:00,UTC,,1024.5,33,,,13.1,,50000,162.6,8,5.5
2018,5,23,18:00,UTC,,1024.6,36,,,12.5,,50000,164.1,6.8,4.9
2018,5,23,19:00,UTC,,1025.4,41,,,11.3,,50000,164.6,5.3,3.8
2018,5,23,20:00,UTC,,1026,51,,,9.7,,50000,169.3,5,3.3
2018,5,23,21:00,UTC,,1026.6,58,,,8.6,,50000,167.2,4.6,3.1
2018,5,23,22:00,UTC,,1027.1,69,,,8.1,,50000,167.2,4.4,3.2
2018,5,23,23:00,UTC,,1027.5,82,,,6.3,,50000,170.3,2,1.3
2018,5,24,00:00,UTC,,1027.8,87,,,4.7,,50000,168.2,2.3,1.5
2018,5,24,01:00,UTC,,1028.3,88,,,4.3,,50000,159,0.6,0.4
2018,5,24,02:00,UTC,,1028.5,89,,,4.3,,48181,64.3,1,0.5
2018,5,24,03:00,UTC,,1028.6,86,,,6.5,,48390,63.3,2,1.4
2018,5,24,04:00,UTC,,1028.9,75,,,9,,44171,75.1,2.4,1.5
2018,5,24,05:00,UTC,,1029,56,,,11.6,,47822,95.7,2.8,1.8
2018,5,24,06:00,UTC,,1029.2,45,,,12.8,,30278,133.8,4.1,2.6
2018,5,24,07:00,UTC,,1029.2,36,,,14,,43878,133.8,4.5,3.1
2018,5,24,08:00,UTC,,1029.5,36,,,13.7,,50000,144.6,6,4.7
2018,5,24,09:00,UTC,,1029,32,,,14.3,,31992,141.5,6.4,4.8
2018,5,24,10:00,UTC,,1028.7,35,,,15,,50000,140.4,8.1,6.1
2018,5,24,11:00,UTC,,1028.5,33,,,14.9,,50000,137.9,10.8,7.5
2018,5,24,12:00,UTC,,1028.3,35,,,14.8,,39137,140.4,10.6,7.6
2018,5,24,13:00,UTC,,1028.2,37,,,13.6,,31408,137.9,9.4,6.7
2018,5,24,14:00,UTC,,1027.7,36,,,13.6,,50000,137.9,8.4,6
2018,5,24,15:00,UTC,,1027.1,30,,,14.5,,42326,139.4,7.2,5.2
2018,5,24,16:00,UTC,,1026.6,34,,,15.1,,48657,134.8,6.2,4.1
2018,5,24,17:00,UTC,,1026.3,40,,,14,,50000,131.2,6.9,4.8
2018,5,24,18:00,UTC,,1026.2,39,,,13.1,,50000,128.6,5,3.5
2018,5,24,19:00,UTC,,1026.2,40,,,12.4,,49361,124.5,4.5,2.9
2018,5,24,20:00,UTC,,1026.1,42,,,11.6,,50000,117.8,5.3,3.4
2018,5,24,21:00,UTC,,1026.2,47,,,10.5,,50000,118.3,4.2,2.7
2018,5,24,22:00,UTC,,1026.2,50,,,10.2,,50000,107,3.9,3
2018,5,24,23:00,UTC,,1026.1,53,,,9.7,,50000,98.3,3.7,2.5
2018,5,25,00:00,UTC,,1026.1,59,,,8.3,,50000,89.5,2.5,1.5
2018,5,25,01:00,UTC,,1025.8,61,,,8,,50000,90,2.7,2
2018,5,25,02:00,UTC,,1025.6,61,,,7.5,,45166,75.6,3.1,2.5
2018,5,25,03:00,UTC,,1025.6,56,,,8.7,,50000,77.7,5.8,3
2018,5,25,04:00,UTC,,1025.5,51,,,11.5,,49498,89,4.3,2.3
2018,5,25,05:00,UTC,,1025.2,39,,,14.5,,50000,91.6,5.9,3.3
2018,5,25,06:00,UTC,,1025,28,,,17.2,,50000,107,5.8,4.3
2018,5,25,07:00,UTC,,1024.7,26,,,18.2,,50000,106,8.4,5.4
2018,5,25,08:00,UTC,,1024.5,25,,,19.8,,29067,110.1,8,5.4
2018,5,25,09:00,UTC,,1024.3,25,,,21,,49653,118.3,8.2,6.1
2018,5,25,10:00,UTC,,1024.1,27,,,20.8,,50000,127.1,9.7,6.9
2018,5,25,11:00,UTC,,1023.8,26,,,22.1,,48162,123,10.5,6.7
2018,5,25,12:00,UTC,,1023.5,27,,,22.1,,28249,127.1,9.7,5.7
2018,5,25,13:00,UTC,,1023.1,26,,,21.5,,26686,132.2,9,6.1
2018,5,25,14:00,UTC,,1022.8,34,,,19.6,,50000,146.6,7.6,5.9
2018,5,25,15:00,UTC,,1022.5,40,,,17.9,,45869,139.9,7.4,5.5
2018,5,25,16:00,UTC,,1022.3,39,,,19.6,,30677,124,6.5,4.4
2018,5,25,17:00,UTC,,1022.2,49,,,17.5,,46157,136.3,6.9,5.3
2018,5,25,18:00,UTC,,1022.3,55,,,14.9,,41779,129.1,10.4,7.7
2018,5,25,19:00,UTC,,1022.4,57,,,13.7,,50000,115.2,8.4,6
2018,5,25,20:00,UTC,,1022.4,62,,,12.9,,50000,111.1,6.7,4.1
2018,5,25,21:00,UTC,,1022.4,63,,,12.5,,50000,119.9,5.8,3.7
2018,5,25,22:00,UTC,,1022.7,69,,,11.3,,50000,129.1,6,1.9
2018,5,25,23:00,UTC,,1023,72,,,10.7,,50000,128.6,4.5,2.9
2018,5,26,00:00,UTC,,1023.4,71,,,10.4,,46195,132.7,6.1,4.4
2018,5,26,01:00,UTC,,1023.5,74,,,9.4,,50000,115.7,2.6,1.7
2018,5,26,02:00,UTC,,1023.6,73,,,9.8,,50000,125.5,2.6,2.1
2018,5,26,03:00,UTC,,1023.7,67,,,11.2,,46026,135.3,6,4
2018,5,26,04:00,UTC,,1024.2,63,,,12.6,,50000,143.5,7.3,5.3
2018,5,26,05:00,UTC,,1024.6,58,,,14.1,,43641,146.6,5.9,4.6
2018,5,26,06:00,UTC,,1024.6,50,,,14.8,,38778,160.5,8.4,6.3
2018,5,26,07:00,UTC,,1024.9,46,,,14.8,,49897,161.5,10.9,7.2
2018,5,26,08:00,UTC,,1025.3,49,,,14.5,,47806,158.4,11,7
2018,5,26,09:00,UTC,,1025.5,39,,,15.3,,39251,160,8.9,6.7
2018,5,26,10:00,UTC,,1025.7,44,,,14.8,,50000,145.1,9,7.1
2018,5,26,11:00,UTC,,1025.9,39,,,14.9,,47326,150.7,10.2,8
2018,5,26,12:00,UTC,,1025.8,36,,,15.4,,49396,149.7,10.7,7.6
2018,5,26,13:00,UTC,,1025.7,34,,,15.8,,47533,152.3,9.6,7.6
2018,5,26,14:00,UTC,,1025.5,31,,,15.8,,38365,151.8,9.8,7.4
2018,5,26,15:00,UTC,,1025.5,41,,,14.4,,40878,137.9,8.1,5.7
2018,5,26,16:00,UTC,,1025.2,46,,,13.7,,49562,136.3,6.9,5.5
2018,5,26,17:00,UTC,,1025.1,58,,,12.7,,50000,139.4,7.2,5.5
2018,5,26,18:00,UTC,,1025.2,58,,,11.9,,50000,138.4,9,6.3
2018,5,26,19:00,UTC,,1025.1,59,,,11.6,,50000,134.3,9,6.1
2018,5,26,20:00,UTC,,1025.2,63,,,10.8,,50000,134.3,5.6,4
2018,5,26,21:00,UTC,,1025.1,55,,,10.4,,50000,149.2,6.4,4.8
2018,5,26,22:00,UTC,,1025.6,62,,,10.6,,50000,167.7,5.1,3.4
2018,5,26,23:00,UTC,,1025.6,47,,,11.6,,50000,170.8,7.7,4.8
2018,5,27,00:00,UTC,,1026.4,52,,,11.1,,50000,172.3,8.9,4.9
2018,5,27,01:00,UTC,,1026.6,57,,,10.3,,50000,173.4,4.8,2.9
2018,5,27,02:00,UTC,,1027.1,44,,,10.2,,50000,182.6,4.9,3
2018,5,27,03:00,UTC,,1027.4,54,,,10.4,,50000,171.8,5.1,3.1
2018,5,27,04:00,UTC,,1027.8,46,,,10.2,,49438,182.6,5,3.1
2018,5,27,05:00,UTC,,1028.2,43,,,10.5,,50000,4.1,5.5,3.3
2018,5,27,06:00,UTC,,1028.6,40,,,11.2,,48576,5.7,4.7,2.8
2018,5,27,07:00,UTC,,1028.9,41,,,11.3,,50000,150.2,7.1,4.9
2018,5,27,08:00,UTC,,1029.3,36,,,11.9,,39832,150.7,7.2,5.5
2018,5,27,09:00,UTC,,1029.6,34,,,11.9,,25275,154.3,9.1,6
2018,5,27,10:00,UTC,,1030,32,,,12,,28044,157.4,8.6,6.5
2018,5,27,11:00,UTC,,1030.2,34,,,12.2,,50000,155.4,8.3,6.5
2018,5,27,12:00,UTC,,1030,30,,,13,,33115,153.8,8.5,5.9
2018,5,27,13:00,UTC,,1029.5,35,,,13,,43025,150.2,11.2,6
2018,5,27,14:00,UTC,,1029.5,33,,,13.6,,35895,146.1,8.1,6
2018,5,27,15:00,UTC,,1029.3,36,,,13.2,,50000,146.1,7.5,5.6
2018,5,27,16:00,UTC,,1029.1,40,,,12.9,,49638,137.9,7.1,5.2
2018,5,27,17:00,UTC,,1029.1,49,,,12.1,,47401,129.6,5.4,3.8
2018,5,27,18:00,UTC,,1029.2,51,,,11.5,,50000,139.9,4.8,3.7
2018,5,27,19:00,UTC,,1029,59,,,11.3,,46856,139.9,5.1,3.7
2018,5,27,20:00,UTC,,1029.3,65,,,9.6,,50000,135.8,6,4.5
2018,5,27,21:00,UTC,,1029.5,68,,,8.6,,50000,130.7,3.8,3
2018,5,27,22:00,UTC,,1029.7,68,,,7.7,,50000,124.5,4.4,3.3
2018,5,27,23:00,UTC,,1029.7,69,,,7.4,,50000,116.8,3.1,2.4
2018,5,28,00:00,UTC,,1029.5,67,,,7.7,,50000,112.1,3.6,2.9
2018,5,28,01:00,UTC,,1029.2,65,,,7.7,,50000,82.3,2.6,2.1
2018,5,28,02:00,UTC,,1029.2,58,,,9.3,,50000,105.5,4.2,3
2018,5,28,03:00,UTC,,1029.1,51,,,10.8,,43462,106.5,4.3,3
2018,5,28,04:00,UTC,,1029,43,,,13,,48031,118.3,6.6,4.8
2018,5,28,05:00,UTC,,1029.1,45,,,13.5,,47461,116.3,7.6,5.2
2018,5,28,06:00,UTC,,1028.8,39,,,15.8,,25514,118.3,7.5,5.1
2018,5,28,07:00,UTC,,1028.5,35,,,16.7,,28161,124.5,10,6.9
2018,5,28,08:00,UTC,,1028.4,32,,,18.5,,50000,118.3,9.1,6.3
2018,5,28,09:00,UTC,,1028.1,30,,,19,,37329,118.8,10.2,7
2018,5,28,10:00,UTC,,1027.6,29,,,20.4,,33121,120.9,9.2,6.2
2018,5,28,11:00,UTC,,1026.9,30,,,20.4,,36145,127.6,8.6,6.3
2018,5,28,12:00,UTC,,1026.4,28,,,21.5,,38541,121.4,8.6,6.3
2018,5,28,13:00,UTC,,1025.8,29,,,21.2,,40111,129.6,10,7.6
2018,5,28,14:00,UTC,,1025.2,29,,,21.3,,50000,128.1,10.8,7.2
2018,5,28,15:00,UTC,,1024.5,32,,,20.7,,32709,127.6,9.8,7.5
2018,5,28,16:00,UTC,,1023.8,31,,,19.9,,50000,120.4,11.2,7
2018,5,28,17:00,UTC,,1022.8,31,,,19.4,,50000,111.6,11,6.6
2018,5,28,18:00,UTC,,1022.6,32,,,18.2,,50000,120.9,7.9,5.1
2018,5,28,19:00,UTC,,1022.4,35,,,16.3,,50000,117.3,8.2,5.8
2018,5,28,20:00,UTC,,1021.9,39,,,15.8,,50000,113.2,7.3,4.4
2018,5,28,21:00,UTC,,1021.7,37,,,15.7,,50000,114.7,7.7,4.8
2018,5,28,22:00,UTC,,1021.2,38,,,15.6,,50000,120.9,9,5.9
2018,5,28,23:00,UTC,,1021,39,,,15.5,,50000,124,9.7,5.8
2018,5,29,00:00,UTC,,1020,40,,,14.8,,50000,123,8.3,5.7
2018,5,29,01:00,UTC,,1019.5,41,,,15,,50000,120.9,8.2,5.1
2018,5,29,02:00,UTC,,1018.6,44,,,14.5,,50000,112.7,6.8,4.6
2018,5,29,03:00,UTC,,1017.7,43,,,15.9,,41771,116.3,8.1,5.6
2018,5,29,04:00,UTC,,1017.3,46,,,15.4,,50000,123,7.9,6.1
2018,5,29,05:00,UTC,,1016.4,46,,,16,,50000,120.4,9.2,6.6
2018,5,29,06:00,UTC,,1016.3,48,,,16.2,,33216,128.6,8.4,6.1
2018,5,29,07:00,UTC,,1015.3,50,,,16.6,,37579,123,10.5,6.9
2018,5,29,08:00,UTC,,1014.6,51,,,17.2,,47062,129.6,8.6,6
2018,5,29,09:00,UTC,,1013.6,50,,,18.3,,50000,115.7,7.9,6
2018,5,29,10:00,UTC,,1012.5,48,,,19,,34741,125,7.6,5.9
2018,5,29,11:00,UTC,,1012.1,44,,,20.7,,43706,130.2,10.4,6.7
2018,5,29,12:00,UTC,,1011.6,48,,,20.2,,26459,131.7,9.8,7
2018,5,29,13:00,UTC,,1011.3,60,,,15,,40273,136.3,13.3,9.7
2018,5,29,14:00,UTC,,1010.7,54,,,16.2,,49637,135.3,8.5,6.3
2018,5,29,15:00,UTC,,1010.6,46,,,17.6,,47593,141,9.6,6.5
2018,5,29,16:00,UTC,,1010.6,28,,,19.8,,49609,156.9,12.8,9.1
2018,5,29,17:00,UTC,,1011,34,,,17.9,,45057,160.5,13.4,9
2018,5,29,18:00,UTC,,1011.9,44,,,15.9,,50000,165.1,11.4,7
2018,5,29,19:00,UTC,,1012.9,53,,,14.4,,50000,164.6,8.7,6.1
2018,5,29,20:00,UTC,,1014.3,54,,,14.2,,50000,163.1,7.4,5.2
2018,5,29,21:00,UTC,,1015.3,49,,,14.5,,50000,173.4,9.4,5.7
2018,5,29,22:00,UTC,,1016.1,51,,,13.6,,50000,171.8,10.1,6.2
2018,5,29,23:00,UTC,,1016.8,61,,,12,,50000,166.7,10.4,6.3
2018,5,30,00:00,UTC,,1017.6,66,,,11.3,,50000,166.7,8.9,6.1
2018,5,30,01:00,UTC,,1018,64,,,11.2,,50000,170.3,10.8,6.8
2018,5,30,02:00,UTC,,1018.5,64,,,11,,50000,170.8,11,6.4
2018,5,30,03:00,UTC,,1018.8,64,,,11.1,,50000,170.3,8.7,6.2
2018,5,30,04:00,UTC,,1019,66,,,11.2,,41698,171.8,9.5,6
2018,5,30,05:00,UTC,,1019.6,64,,,11.7,,46641,168.7,9.4,5.8
2018,5,30,06:00,UTC,,1020,59,,,11.9,,40198,168.7,10.1,6.5
2018,5,30,07:00,UTC,,1020.2,60,,,12.4,,41222,164.1,10.4,7.1
2018,5,30,08:00,UTC,,1020.6,57,,,12.7,,43005,170.3,10.9,7.3
2018,5,30,09:00,UTC,,1020.9,56,,,13.2,,41339,170.8,9.8,6.2
2018,5,30,10:00,UTC,,1021.1,55,,,13,,42328,166.2,9.9,6.1
2018,5,30,11:00,UTC,,1021.1,47,,,14.3,,35678,169.8,11.1,7
2018,5,30,12:00,UTC,,1021,44,,,14.4,,43293,152.8,9.4,7.5
2018,5,30,13:00,UTC,,1021.1,41,,,15.5,,46928,154.8,9.1,6.7
2018,5,30,14:00,UTC,,1020.9,51,,,14.9,,50000,136.3,10.4,7.5
2018,5,30,15:00,UTC,,1020.9,51,,,15.4,,50000,138.4,9.4,6.9
2018,5,30,16:00,UTC,,1021.1,43,,,14.6,,48464,165.7,9.8,5.9
2018,5,30,17:00,UTC,,1021.4,41,,,14.9,,50000,170.3,6.9,5
2018,5,30,18:00,UTC,,1022.4,36,,,14.3,,50000,5.7,11.6,7.9
2018,5,30,19:00,UTC,,1023.6,38,,,13,,50000,9.8,9.8,6.6
2018,5,30,20:00,UTC,,1024.6,47,,,11.1,,50000,22.1,6.3,4.1
2018,5,30,21:00,UTC,,1025.2,50,,,10,,50000,19,3.9,2.6
2018,5,30,22:00,UTC,,1026.1,52,,,9.3,,50000,5.1,5.1,3.6
2018,5,30,23:00,UTC,,1026.6,54,,,8.6,,50000,13.4,5.1,2.5
2018,5,31,00:00,UTC,,1026.5,63,,,7.7,,49849,9.8,3.9,2.6
2018,5,31,01:00,UTC,,1027,65,,,7,,50000,3.1,3.1,1.9
2018,5,31,02:00,UTC,,1027.4,64,,,7.5,,50000,2.1,2.5,1.4
2018,5,31,03:00,UTC,,1027.5,61,,,8.1,,50000,8.7,4.5,2.5
2018,5,31,04:00,UTC,,1027.5,59,,,8.5,,50000,19,3.9,2.2
2018,5,31,05:00,UTC,,1027.6,55,,,9.5,,43408,10.8,2.4,1.3
2018,5,31,06:00,UTC,,1027.5,49,,,11.2,,39447,175.9,4.4,1.8
2018,5,31,07:00,UTC,,1027.3,48,,,10.7,,47234,174.4,5.4,3.3
2018,5,31,08:00,UTC,,1027.1,44,,,12,,27312,156.4,3.3,1.4
2018,5,31,09:00,UTC,,1026.6,41,,,12.2,,45247,179,4.3,2.5
2018,5,31,10:00,UTC,,1026.1,39,,,12.2,,36568,151.2,6.6,3.9
2018,5,31,11:00,UTC,,1025.3,45,,,12.2,,48096,145.1,6.3,4
2018,5,31,12:00,UTC,,1024.6,40,,,12.4,,46913,170.8,5.4,3.1
2018,5,31,13:00,UTC,,1023.8,38,,,13.4,,50000,127.6,5.1,3
2018,5,31,14:00,UTC,,1023,33,,,14.2,,44579,139.4,4.1,2
2018,5,31,15:00,UTC,,1022.1,37,,,14.5,,41677,141.5,3.9,2.3
2018,5,31,16:00,UTC,,1021.6,42,,,13.3,,39984,148.7,5.9,4.3
2018,5,31,17:00,UTC,,1020.7,39,,,13,,50000,143.5,6.3,4.5
2018,5,31,18:00,UTC,,1019.9,41,,,12.6,,50000,137.9,3.7,2.5
2018,5,31,19:00,UTC,,1019.1,42,,,12.5,,50000,91.6,2.9,2.3
2018,5,31,20:00,UTC,,1018.4,48,,,11.5,,50000,89.5,3.3,2.4
2018,5,31,21:00,UTC,,1017.5,45,,,11.5,,50000,90.5,5.1,3.5
2018,5,31,22:00,UTC,,1016.9,49,,,10.9,,50000,98.3,5.9,3.4
2018,5,31,23:00,UTC,,1015.8,56,,,9.7,,50000,89.5,5.3,3.3
2018,6,1,00:00,UTC,,1014.8,53,,,10.9,,,,,
2018,6,1,01:00,UTC,,1014,49,,,11.5,,,,,
2018,6,1,02:00,UTC,,1013.1,48,,,12.2,,,,,
2018,6,1,03:00,UTC,,1012.1,44,,,13.6,,,,,
2018,6,1,04:00,UTC,,1011.3,45,,,14.7,,,,,
2018,6,1,05:00,UTC,,1011.1,51,,,15,,,,,
2018,6,1,06:00,UTC,,1010.9,61,,,14.5,,,,,
2018,6,1,07:00,UTC,,1010.2,64,,,13.8,,,,,
2018,6,1,08:00,UTC,,1009.8,56,,,16.3,,,,,
2018,6,1,09:00,UTC,,1009.9,65,,,13.9,,,,,
2018,6,1,10:00,UTC,,1009.6,65,,,14.3,,,,,
2018,6,1,11:00,UTC,,1009.8,63,,,14.8,,,,,
2018,6,1,12:00,UTC,,1009.9,63,,,15,,,,,
2018,6,1,13:00,UTC,,1009.7,59,,,16,,,,,
2018,6,1,14:00,UTC,,1009.4,60,,,16.1,,,,,
2018,6,1,15:00,UTC,,1009.3,57,,,16.5,,,,,
2018,6,1,16:00,UTC,,1008.8,51,,,18.1,,,,,
2018,6,1,17:00,UTC,,1008.5,51,,,18.2,,,,,
2018,6,1,18:00,UTC,,1008,49,,,18.4,,,,,
2018,6,1,19:00,UTC,,1008,63,,,16,,,,,
2018,6,1,20:00,UTC,,1008,83,,,12.8,,,,,
2018,6,1,21:00,UTC,,1008.3,88,,,11.7,,,,,
2018,6,1,22:00,UTC,,1008.3,92,,,10.5,,,,,
2018,6,1,23:00,UTC,,1007.8,92,,,9.5,,,,,
2018,6,2,00:00,UTC,,1007.6,96,,,8.6,,,,,
2018,6,2,01:00,UTC,,1007.5,94,,,8.5,,,,,
2018,6,2,02:00,UTC,,1007.3,89,,,9.4,,,,,
2018,6,2,03:00,UTC,,1007.1,82,,,12.2,,,,,
2018,6,2,04:00,UTC,,1007,56,,,14.2,,,,,
2018,6,2,05:00,UTC,,1006.8,54,,,15.7,,,,,
2018,6,2,06:00,UTC,,1006.7,48,,,17.9,,,,,
2018,6,2,07:00,UTC,,1006.7,40,,,18,,,,,
2018,6,2,08:00,UTC,,1006.8,33,,,18.2,,,,,
2018,6,2,09:00,UTC,,1006.8,31,,,18.1,,,,,
2018,6,2,10:00,UTC,,1006.7,29,,,18.7,,,,,
2018,6,2,11:00,UTC,,1006.6,27,,,19.3,,,,,
2018,6,2,12:00,UTC,,1006.7,27,,,18.1,,,,,
2018,6,2,13:00,UTC,,1006.3,25,,,18.3,,,,,
2018,6,2,14:00,UTC,,1006.4,29,,,18.4,,,,,
2018,6,2,15:00,UTC,,1006.1,35,,,17.6,,,,,
2018,6,2,16:00,UTC,,1006,40,,,17.3,,,,,
2018,6,2,17:00,UTC,,1005.8,39,,,16.9,,,,,
2018,6,2,18:00,UTC,,1005.8,57,,,15.8,,,,,
2018,6,2,19:00,UTC,,1005.7,67,,,13.9,,,,,
2018,6,2,20:00,UTC,,1005.7,72,,,12.4,,,,,
2018,6,2,21:00,UTC,,1005.8,68,,,12.1,,,,,
2018,6,2,22:00,UTC,,1005.7,68,,,11.8,,,,,
2018,6,2,23:00,UTC,,1005.1,70,,,12.5,,,,,
2018,6,3,00:00,UTC,,1004.6,75,,,11.1,,,,,
2018,6,3,01:00,UTC,,1004.5,84,,,8.9,,,,,
2018,6,3,02:00,UTC,,1004.4,77,,,11.5,,,,,
2018,6,3,03:00,UTC,,1004.3,65,,,12.2,,,,,
2018,6,3,04:00,UTC,,1004.3,56,,,12.3,,,,,
2018,6,3,05:00,UTC,,1004.3,52,,,13.2,,,,,
2018,6,3,06:00,UTC,,1004.3,53,,,14.1,,,,,
2018,6,3,07:00,UTC,,1004.4,50,,,14.5,,,,,
2018,6,3,08:00,UTC,,1004.4,48,,,14.7,,,,,
2018,6,3,09:00,UTC,,1004.2,50,,,13.7,,,,,
2018,6,3,10:00,UTC,,1004.2,41,,,14.6,,,,,
2018,6,3,11:00,UTC,,1003.6,40,,,14.5,,,,,
2018,6,3,12:00,UTC,,1003.6,47,,,13.8,,,,,
2018,6,3,13:00,UTC,,1002.6,44,,,14.1,,,,,
2018,6,3,14:00,UTC,,1001.6,53,,,13,,,,,
2018,6,3,15:00,UTC,,1000.7,48,,,13.4,,,,,
2018,6,3,16:00,UTC,,999.8,51,,,12.8,,,,,
2018,6,3,17:00,UTC,,998.4,64,,,11.9,,,,,
2018,6,3,18:00,UTC,,997.5,69,,,11.5,,,,,
2018,6,3,19:00,UTC,,996.8,65,,,11.3,,,,,
2018,6,3,20:00,UTC,,995.9,57,,,11.8,,,,,
2018,6,3,21:00,UTC,,995,59,,,11.7,,,,,
2018,6,3,22:00,UTC,,994.1,60,,,11.3,,,,,
2018,6,3,23:00,UTC,,993.5,60,,,11.7,,,,,
2018,6,4,00:00,UTC,,992.7,62,,,11.3,,,,,
2018,6,4,01:00,UTC,,992.4,63,,,10.9,,,,,
2018,6,4,02:00,UTC,,992.4,62,,,10.6,,,,,
2018,6,4,03:00,UTC,,992.6,55,,,10.5,,,,,
2018,6,4,04:00,UTC,,992.8,58,,,9.2,,,,,
2018,6,4,05:00,UTC,,992.8,57,,,9.5,,,,,
2018,6,4,06:00,UTC,,993,49,,,9.6,,,,,
2018,6,4,07:00,UTC,,993.3,46,,,9.7,,,,,
2018,6,4,08:00,UTC,,993.4,44,,,10,,,,,
2018,6,4,09:00,UTC,,993,45,,,10.1,,,,,
2018,6,4,10:00,UTC,,993.1,45,,,10.8,,,,,
2018,6,4,11:00,UTC,,993.6,51,,,9.5,,,,,
2018,6,4,12:00,UTC,,993.4,44,,,11.2,,,,,
2018,6,4,13:00,UTC,,993.4,46,,,11.4,,,,,
2018,6,4,14:00,UTC,,993.4,52,,,10.6,,,,,
2018,6,4,15:00,UTC,,993.9,62,,,8.9,,,,,
2018,6,4,16:00,UTC,,994.2,77,,,7.3,,,,,
2018,6,4,17:00,UTC,,994.1,63,,,8.7,,,,,
2018,6,4,18:00,UTC,,994.5,68,,,8.5,,,,,
2018,6,4,19:00,UTC,,995.2,67,,,8.7,,,,,
2018,6,4,20:00,UTC,,995.8,65,,,8.9,,,,,
2018,6,4,21:00,UTC,,996.3,60,,,8.5,,,,,
2018,6,4,22:00,UTC,,996.7,59,,,8.5,,,,,
2018,6,4,23:00,UTC,,997.2,58,,,8,,,,,
2018,6,5,00:00,UTC,,997.5,57,,,7.6,,,,,
2018,6,5,01:00,UTC,,998,58,,,7.4,,,,,
2018,6,5,02:00,UTC,,998.6,58,,,6.9,,,,,
2018,6,5,03:00,UTC,,999.1,58,,,6.5,,,,,
2018,6,5,04:00,UTC,,999.7,59,,,6.2,,,,,
2018,6,5,05:00,UTC,,1000.3,61,,,6.8,,,,,
2018,6,5,06:00,UTC,,1000.9,60,,,7.2,,,,,
2018,6,5,07:00,UTC,,1001.3,55,,,7.9,,,,,
2018,6,5,08:00,UTC,,1001.9,52,,,8.4,,,,,
2018,6,5,09:00,UTC,,1002.4,49,,,9.5,,,,,
2018,6,5,10:00,UTC,,1002.8,45,,,10,,,,,
2018,6,5,11:00,UTC,,1003.5,49,,,9.6,,,,,
2018,6,5,12:00,UTC,,1003.8,46,,,10.4,,,,,
2018,6,5,13:00,UTC,,1004.1,40,,,11.3,,,,,
2018,6,5,14:00,UTC,,1004.1,47,,,10.4,,,,,
2018,6,5,15:00,UTC,,1004.3,50,,,10.3,,,,,
2018,6,5,16:00,UTC,,1004.5,51,,,10.4,,,,,
2018,6,5,17:00,UTC,,1005.1,58,,,9.3,,,,,
2018,6,5,18:00,UTC,,1005.6,57,,,8.8,,,,,
2018,6,5,19:00,UTC,,1006.1,67,,,8.1,,,,,
2018,6,5,20:00,UTC,,1006.4,64,,,8.3,,,,,
2018,6,5,21:00,UTC,,1006.7,50,,,8.6,,,,,
2018,6,5,22:00,UTC,,1007.2,55,,,7.8,,,,,
2018,6,5,23:00,UTC,,1007.7,56,,,7.6,,,,,
2018,6,6,00:00,UTC,,1008.1,56,,,7.5,,,,,
2018,6,6,01:00,UTC,,1008.4,53,,,7.1,,,,,
2018,6,6,02:00,UTC,,1008.7,56,,,7,,,,,
2018,6,6,03:00,UTC,,1009,56,,,6.8,,,,,
2018,6,6,04:00,UTC,,1009.3,47,,,6.7,,,,,
2018,6,6,05:00,UTC,,1009.5,54,,,6.1,,,,,
2018,6,6,06:00,UTC,,1009.9,47,,,6.3,,,,,
2018,6,6,07:00,UTC,,1010.2,47,,,6.2,,,,,
2018,6,6,08:00,UTC,,1010.7,43,,,6.6,,,,,
2018,6,6,09:00,UTC,,1010.9,44,,,6.9,,,,,
2018,6,6,10:00,UTC,,1011,42,,,7.6,,,,,
2018,6,6,11:00,UTC,,1011.3,45,,,7.3,,,,,
2018,6,6,12:00,UTC,,1011.6,40,,,8.5,,,,,
2018,6,6,13:00,UTC,,1011.6,37,,,9.4,,,,,
2018,6,6,14:00,UTC,,1011.5,38,,,9.5,,,,,
2018,6,6,15:00,UTC,,1011.3,37,,,10,,,,,
2018,6,6,16:00,UTC,,1011.2,38,,,9.6,,,,,
2018,6,6,17:00,UTC,,1011.1,49,,,8.6,,,,,
2018,6,6,18:00,UTC,,1010.9,55,,,8.2,,,,,
2018,6,6,19:00,UTC,,1010.7,52,,,7.9,,,,,
2018,6,6,20:00,UTC,,1010.3,58,,,7.1,,,,,
2018,6,6,21:00,UTC,,1009.9,63,,,6.5,,,,,
2018,6,6,22:00,UTC,,1009.3,66,,,6.7,,,,,
2018,6,6,23:00,UTC,,1008.6,69,,,6.7,,,,,
2018,6,7,00:00,UTC,,1007.8,71,,,6.7,,,,,
2018,6,7,01:00,UTC,,1006.9,69,,,7.2,,,,,
2018,6,7,02:00,UTC,,1006.2,71,,,7.3,,,,,
2018,6,7,03:00,UTC,,1006.1,76,,,5.9,,,,,
2018,6,7,04:00,UTC,,1005.7,83,,,5.5,,,,,
2018,6,7,05:00,UTC,,1005.1,89,,,5.2,,,,,
2018,6,7,06:00,UTC,,1004.3,90,,,5,,,,,
2018,6,7,07:00,UTC,,1003.9,89,,,4.9,,,,,
2018,6,7,08:00,UTC,,1003.6,90,,,5.4,,,,,
2018,6,7,09:00,UTC,,1003.9,89,,,5.2,,,,,
2018,6,7,10:00,UTC,,1004.3,86,,,5.6,,,,,
2018,6,7,11:00,UTC,,1004.9,85,,,6.1,,,,,
2018,6,7,12:00,UTC,,1005.7,79,,,6.3,,,,,
2018,6,7,13:00,UTC,,1006.3,72,,,6.8,,,,,
2018,6,7,14:00,UTC,,1006.7,68,,,8.3,,,,,
2018,6,7,15:00,UTC,,1007.5,69,,,7.1,,,,,
2018,6,7,16:00,UTC,,1007.8,61,,,8.4,,,,,
2018,6,7,17:00,UTC,,1008,62,,,8.2,,,,,
2018,6,7,18:00,UTC,,1008.7,59,,,8.8,,,,,
2018,6,7,19:00,UTC,,1008.8,59,,,8,,,,,
2018,6,7,20:00,UTC,,1009.2,69,,,6.8,,,,,
2018,6,7,21:00,UTC,,1009.3,59,,,7.6,,,,,
2018,6,7,22:00,UTC,,1009.8,59,,,7.9,,,,,
2018,6,7,23:00,UTC,,1010,66,,,7.5,,,,,
2018,6,8,00:00,UTC,,1010.1,67,,,7.6,,,,,
2018,6,8,01:00,UTC,,1010.4,67,,,7.5,,,,,
2018,6,8,02:00,UTC,,1010.7,63,,,7.5,,,,,
2018,6,8,03:00,UTC,,1010.9,61,,,7.9,,,,,
2018,6,8,04:00,UTC,,1011.3,65,,,8.5,,,,,
2018,6,8,05:00,UTC,,1011.4,54,,,9,,,,,
2018,6,8,06:00,UTC,,1011.7,61,,,9.1,,,,,
2018,6,8,07:00,UTC,,1012.2,55,,,9.2,,,,,
2018,6,8,08:00,UTC,,1012.3,56,,,9.8,,,,,
2018,6,8,09:00,UTC,,1012.6,40,,,10.5,,,,,
2018,6,8,10:00,UTC,,1013,40,,,10.7,,,,,
2018,6,8,11:00,UTC,,1013.2,39,,,11.1,,,,,
2018,6,8,12:00,UTC,,1013.5,31,,,11.3,,,,,
2018,6,8,13:00,UTC,,1013.7,35,,,10.8,,,,,
2018,6,8,14:00,UTC,,1013.6,36,,,10.8,,,,,
2018,6,8,15:00,UTC,,1013.9,32,,,10.8,,,,,
2018,6,8,16:00,UTC,,1013.9,32,,,10.4,,,,,
2018,6,8,17:00,UTC,,1014.2,38,,,10,,,,,
2018,6,8,18:00,UTC,,1014.3,41,,,9.7,,,,,
2018,6,8,19:00,UTC,,1014.6,50,,,9.1,,,,,
2018,6,8,20:00,UTC,,1014.9,57,,,8.3,,,,,
2018,6,8,21:00,UTC,,1014.8,69,,,6.6,,,,,
2018,6,8,22:00,UTC,,1015,79,,,4.9,,,,,
2018,6,8,23:00,UTC,,1015.2,82,,,3.9,,,,,
2018,6,9,00:00,UTC,,1015.4,86,,,3.2,,,,,
2018,6,9,01:00,UTC,,1015.7,90,,,3.6,,,,,
2018,6,9,02:00,UTC,,1015.9,84,,,5.4,,,,,
2018,6,9,03:00,UTC,,1015.9,62,,,9,,,,,
2018,6,9,04:00,UTC,,1015.6,55,,,9.7,,,,,
2018,6,9,05:00,UTC,,1015.5,46,,,9.7,,,,,
2018,6,9,06:00,UTC,,1015.4,41,,,10.7,,,,,
2018,6,9,07:00,UTC,,1015.3,36,,,11.4,,,,,
2018,6,9,08:00,UTC,,1015,34,,,12.2,,,,,
2018,6,9,09:00,UTC,,1014.8,32,,,12.6,,,,,
2018,6,9,10:00,UTC,,1014.4,34,,,12.8,,,,,
2018,6,9,11:00,UTC,,1014.1,34,,,13.1,,,,,
2018,6,9,12:00,UTC,,1013.8,39,,,13.4,,,,,
2018,6,9,13:00,UTC,,1013.3,38,,,12.9,,,,,
2018,6,9,14:00,UTC,,1013.2,47,,,12.4,,,,,
2018,6,9,15:00,UTC,,1012.8,50,,,12.1,,,,,
2018,6,9,16:00,UTC,,1012.5,47,,,12.5,,,,,
2018,6,9,17:00,UTC,,1012.4,47,,,12.5,,,,,
2018,6,9,18:00,UTC,,1012.3,58,,,11.5,,,,,
2018,6,9,19:00,UTC,,1012.3,63,,,10.6,,,,,
2018,6,9,20:00,UTC,,1012.5,78,,,10,,,,,
2018,6,9,21:00,UTC,,1012.2,86,,,8.5,,,,,
2018,6,9,22:00,UTC,,1012.1,89,,,7.2,,,,,
2018,6,9,23:00,UTC,,1011.9,95,,,6.7,,,,,
2018,6,10,00:00,UTC,,1012,94,,,7.6,,,,,
2018,6,10,01:00,UTC,,1011.7,90,,,8.5,,,,,
2018,6,10,02:00,UTC,,1011.4,88,,,8.6,,,,,
2018,6,10,03:00,UTC,,1011.1,87,,,8.3,,,,,
2018,6,10,04:00,UTC,,1011,86,,,8.4,,,,,
2018,6,10,05:00,UTC,,1010.6,86,,,8.8,,,,,
2018,6,10,06:00,UTC,,1010.3,74,,,10,,,,,
2018,6,10,07:00,UTC,,1010,62,,,11.6,,,,,
2018,6,10,08:00,UTC,,1009.6,57,,,12.8,,,,,
2018,6,10,09:00,UTC,,1009.1,54,,,14.3,,,,,
2018,6,10,10:00,UTC,,1008.7,54,,,15.4,,,,,
2018,6,10,11:00,UTC,,1008.5,53,,,14.5,,,,,
2018,6,10,12:00,UTC,,1008,50,,,15.1,,,,,
2018,6,10,13:00,UTC,,1007.7,51,,,14.2,,,,,
2018,6,10,14:00,UTC,,1007,47,,,14.9,,,,,
2018,6,10,15:00,UTC,,1006.4,48,,,15.4,,,,,
2018,6,10,16:00,UTC,,1006,63,,,13.9,,,,,
2018,6,10,17:00,UTC,,1005.2,52,,,14.9,,,,,
2018,6,10,18:00,UTC,,1004.6,59,,,14.2,,,,,
2018,6,10,19:00,UTC,,1004.2,62,,,13.9,,,,,
2018,6,10,20:00,UTC,,1003.8,67,,,13.5,,,,,
2018,6,10,21:00,UTC,,1003.7,80,,,10.9,,,,,
2018,6,10,22:00,UTC,,1003.1,80,,,10,,,,,
2018,6,10,23:00,UTC,,1002.5,88,,,9,,,,,
2018,6,11,00:00,UTC,,1001.9,88,,,9.2,,,,,
2018,6,11,01:00,UTC,,1001.3,89,,,9.8,,,,,
2018,6,11,02:00,UTC,,1000.5,84,,,9.6,,,,,
2018,6,11,03:00,UTC,,999.9,76,,,10.5,,,,,
2018,6,11,04:00,UTC,,999.1,67,,,13.1,,,,,
2018,6,11,05:00,UTC,,998.7,65,,,14.8,,,,,
2018,6,11,06:00,UTC,,998,61,,,15.7,,,,,
2018,6,11,07:00,UTC,,997.9,81,,,13,,,,,
2018,6,11,08:00,UTC,,997.7,87,,,11.2,,,,,
2018,6,11,09:00,UTC,,997.7,81,,,12.5,,,,,
2018,6,11,10:00,UTC,,997.8,75,,,13.8,,,,,
2018,6,11,11:00,UTC,,997.5,59,,,15.9,,,,,
2018,6,11,12:00,UTC,,997.7,42,,,16.7,,,,,
2018,6,11,13:00,UTC,,997.6,41,,,17,,,,,
2018,6,11,14:00,UTC,,997.5,42,,,16.8,,,,,
2018,6,11,15:00,UTC,,997.8,48,,,15.7,,,,,
2018,6,11,16:00,UTC,,998,43,,,15.1,,,,,
2018,6,11,17:00,UTC,,998,47,,,14.7,,,,,
2018,6,11,18:00,UTC,,998.1,49,,,14.1,,,,,
2018,6,11,19:00,UTC,,998.2,51,,,13.2,,,,,
2018,6,11,20:00,UTC,,998.5,55,,,12.2,,,,,
2018,6,11,21:00,UTC,,998.8,51,,,11.6,,,,,
2018,6,11,22:00,UTC,,998.9,57,,,10.8,,,,,
2018,6,11,23:00,UTC,,999.2,60,,,10.2,,,,,
2018,6,12,00:00,UTC,,999.4,63,,,9.8,,,,,
2018,6,12,01:00,UTC,,999.6,64,,,9.3,,,,,
2018,6,12,02:00,UTC,,1000,67,,,8.5,,,,,
2018,6,12,03:00,UTC,,1000.1,67,,,7.7,,,,,
2018,6,12,04:00,UTC,,1000.6,64,,,7.2,,,,,
2018,6,12,05:00,UTC,,1000.6,64,,,7.7,,,,,
2018,6,12,06:00,UTC,,1000.6,58,,,8.4,,,,,
2018,6,12,07:00,UTC,,1000.9,56,,,9.3,,,,,
2018,6,12,08:00,UTC,,1001.1,52,,,10.5,,,,,
2018,6,12,09:00,UTC,,1001.2,48,,,10.4,,,,,
2018,6,12,10:00,UTC,,1001.5,47,,,10.7,,,,,
2018,6,12,11:00,UTC,,1001.5,42,,,11.7,,,,,
2018,6,12,12:00,UTC,,1001.5,43,,,12,,,,,
2018,6,12,13:00,UTC,,1001.7,43,,,12.8,,,,,
2018,6,12,14:00,UTC,,1001.8,39,,,13,,,,,
2018,6,12,15:00,UTC,,1001.9,39,,,13.4,,,,,
2018,6,12,16:00,UTC,,1002.1,45,,,13.2,,,,,
2018,6,12,17:00,UTC,,1002.3,55,,,11.9,,,,,
2018,6,12,18:00,UTC,,1002.4,58,,,11.7,,,,,
2018,6,12,19:00,UTC,,1002.4,64,,,10.7,,,,,
2018,6,12,20:00,UTC,,1002.7,64,,,11.1,,,,,
2018,6,12,21:00,UTC,,1003.3,53,,,11.1,,,,,
2018,6,12,22:00,UTC,,1003.7,48,,,9.8,,,,,
2018,6,12,23:00,UTC,,1004.1,50,,,9.1,,,,,
2018,6,13,00:00,UTC,,1004.3,51,,,8.6,,,,,
2018,6,13,01:00,UTC,,1004.8,55,,,8.1,,,,,
2018,6,13,02:00,UTC,,1005.4,58,,,8.1,,,,,
2018,6,13,03:00,UTC,,1005.5,59,,,7.9,,,,,
2018,6,13,04:00,UTC,,1005.7,57,,,8.3,,,,,
2018,6,13,05:00,UTC,,1005.9,49,,,8.9,,,,,
2018,6,13,06:00,UTC,,1006.2,46,,,10,,,,,
2018,6,13,07:00,UTC,,1006.5,41,,,10.7,,,,,
2018,6,13,08:00,UTC,,1006.7,42,,,11.2,,,,,
2018,6,13,09:00,UTC,,1006.9,41,,,12.2,,,,,
2018,6,13,10:00,UTC,,1007.2,45,,,11.4,,,,,
2018,6,13,11:00,UTC,,1007.3,45,,,12,,,,,
2018,6,13,12:00,UTC,,1007.4,44,,,12.6,,,,,
2018,6,13,13:00,UTC,,1007.5,42,,,12.7,,,,,
2018,6,13,14:00,UTC,,1007.8,42,,,11.8,,,,,
2018,6,13,15:00,UTC,,1008,42,,,12.2,,,,,
2018,6,13,16:00,UTC,,1008.5,44,,,11.4,,,,,
2018,6,13,17:00,UTC,,1008.7,51,,,11.2,,,,,
2018,6,13,18:00,UTC,,1008.8,49,,,11.6,,,,,
2018,6,13,19:00,UTC,,1009.1,54,,,10.9,,,,,
2018,6,13,20:00,UTC,,1009.5,68,,,8.8,,,,,
2018,6,13,21:00,UTC,,1009.9,79,,,7.1,,,,,
2018,6,13,22:00,UTC,,1010.4,88,,,5.8,,,,,
2018,6,13,23:00,UTC,,1010.3,93,,,6,,,,,
2018,6,14,00:00,UTC,,1010.3,85,,,5.4,,,,,
2018,6,14,01:00,UTC,,1010.6,73,,,5.8,,,,,
2018,6,14,02:00,UTC,,1011,74,,,5.5,,,,,
2018,6,14,03:00,UTC,,1011.2,61,,,7.7,,,,,
2018,6,14,04:00,UTC,,1011.4,60,,,9.1,,,,,
2018,6,14,05:00,UTC,,1011.3,51,,,11.6,,,,,
2018,6,14,06:00,UTC,,1011.4,42,,,12.9,,,,,
2018,6,14,07:00,UTC,,1011.2,38,,,13.9,,,,,
2018,6,14,08:00,UTC,,1011.1,38,,,14.7,,,,,
2018,6,14,09:00,UTC,,1010.7,32,,,15.3,,,,,
2018,6,14,10:00,UTC,,1010.3,28,,,17,,,,,
2018,6,14,11:00,UTC,,1009.7,27,,,17.4,,,,,
2018,6,14,12:00,UTC,,1009.4,25,,,18.1,,,,,
2018,6,14,13:00,UTC,,1009,26,,,18.1,,,,,
2018,6,14,14:00,UTC,,1008.4,26,,,18.4,,,,,
2018,6,14,15:00,UTC,,1007.8,27,,,19.3,,,,,
2018,6,14,16:00,UTC,,1007.4,30,,,19.1,,,,,
2018,6,14,17:00,UTC,,1007,33,,,19,,,,,
2018,6,14,18:00,UTC,,1006.6,36,,,18.4,,,,,
2018,6,14,19:00,UTC,,1006.3,39,,,17.9,,,,,
2018,6,14,20:00,UTC,,1006.3,43,,,16.8,,,,,
2018,6,14,21:00,UTC,,1006.1,47,,,16.3,,,,,
2018,6,14,22:00,UTC,,1005.5,49,,,16.1,,,,,
2018,6,14,23:00,UTC,,1005.1,51,,,15.7,,,,,
2018,6,15,00:00,UTC,,1004.6,54,,,15.3,,,,,
2018,6,15,01:00,UTC,,1004.3,54,,,15.8,,,,,
2018,6,15,02:00,UTC,,1004.1,55,,,16,,,,,
2018,6,15,03:00,UTC,,1003.8,53,,,16.5,,,,,
2018,6,15,04:00,UTC,,1003.7,52,,,16.6,,,,,
2018,6,15,05:00,UTC,,1003.6,48,,,17.8,,,,,
2018,6,15,06:00,UTC,,1003.4,48,,,18.3,,,,,
2018,6,15,07:00,UTC,,1003.4,48,,,19.1,,,,,
2018,6,15,08:00,UTC,,1003.4,48,,,19.4,,,,,
2018,6,15,09:00,UTC,,1003.4,48,,,19.9,,,,,
2018,6,15,10:00,UTC,,1003.4,45,,,21.2,,,,,
2018,6,15,11:00,UTC,,1003.8,47,,,20.4,,,,,
2018,6,15,12:00,UTC,,1004.4,55,,,19.5,,,,,
2018,6,15,13:00,UTC,,1004.2,47,,,21.4,,,,,
2018,6,15,14:00,UTC,,1004.8,65,,,17.3,,,,,
2018,6,15,15:00,UTC,,1005.3,53,,,18.9,,,,,
2018,6,15,16:00,UTC,,1005.7,51,,,18.4,,,,,
2018,6,15,17:00,UTC,,1006,50,,,18.1,,,,,
2018,6,15,18:00,UTC,,1006.2,47,,,17.7,,,,,
2018,6,15,19:00,UTC,,1006.6,48,,,17.3,,,,,
2018,6,15,20:00,UTC,,1007.4,53,,,16.3,,,,,
2018,6,15,21:00,UTC,,1007.7,63,,,14.8,,,,,
2018,6,15,22:00,UTC,,1008.3,60,,,14.3,,,,,
2018,6,15,23:00,UTC,,1008.9,60,,,13.2,,,,,
2018,6,16,00:00,UTC,,1009.1,79,,,10.5,,,,,
2018,6,16,01:00,UTC,,1009.4,58,,,12.4,,,,,
2018,6,16,02:00,UTC,,1010,63,,,11.9,,,,,
2018,6,16,03:00,UTC,,1010.4,58,,,13.3,,,,,
2018,6,16,04:00,UTC,,1010.8,55,,,14.6,,,,,
2018,6,16,05:00,UTC,,1011,49,,,16.1,,,,,
2018,6,16,06:00,UTC,,1011.5,46,,,17.6,,,,,
2018,6,16,07:00,UTC,,1011.9,45,,,18.3,,,,,
2018,6,16,08:00,UTC,,1012,41,,,19.7,,,,,
2018,6,16,09:00,UTC,,1012.1,33,,,21.2,,,,,
2018,6,16,10:00,UTC,,1012.4,36,,,21,,,,,
2018,6,16,11:00,UTC,,1012.5,37,,,19.9,,,,,
2018,6,16,12:00,UTC,,1012.4,33,,,21,,,,,
2018,6,16,13:00,UTC,,1012.7,37,,,20.7,,,,,
2018,6,16,14:00,UTC,,1012.8,42,,,18.8,,,,,
2018,6,16,15:00,UTC,,1012.9,44,,,18.4,,,,,
2018,6,16,16:00,UTC,,1013.4,48,,,17.4,,,,,
2018,6,16,17:00,UTC,,1013.6,57,,,15.8,,,,,
2018,6,16,18:00,UTC,,1013.6,58,,,15.3,,,,,
2018,6,16,19:00,UTC,,1014.1,55,,,15.7,,,,,
2018,6,16,20:00,UTC,,1014.2,56,,,14.5,,,,,
2018,6,16,21:00,UTC,,1014.9,64,,,13.3,,,,,
2018,6,16,22:00,UTC,,1015.1,75,,,11.7,,,,,
2018,6,16,23:00,UTC,,1015.5,81,,,11,,,,,
2018,6,17,00:00,UTC,,1015.5,81,,,11,,,,,
2018,6,17,01:00,UTC,,1015.8,83,,,10.8,,,,,
2018,6,17,02:00,UTC,,1016,83,,,10.9,,,,,
2018,6,17,03:00,UTC,,1016.3,79,,,11.7,,,,,
2018,6,17,04:00,UTC,,1016.5,76,,,12.9,,,,,
2018,6,17,05:00,UTC,,1016.5,67,,,14.6,,,,,
2018,6,17,06:00,UTC,,1016.7,62,,,15.7,,,,,
2018,6,17,07:00,UTC,,1016.7,54,,,18.2,,,,,
2018,6,17,08:00,UTC,,1016.8,53,,,19,,,,,
2018,6,17,09:00,UTC,,1016.9,50,,,19.1,,,,,
2018,6,17,10:00,UTC,,1016.6,39,,,20.4,,,,,
2018,6,17,11:00,UTC,,1016.4,32,,,20.7,,,,,
2018,6,17,12:00,UTC,,1016.1,26,,,20.9,,,,,
2018,6,17,13:00,UTC,,1015.7,24,,,21.1,,,,,
2018,6,17,14:00,UTC,,1015.3,25,,,20.4,,,,,
2018,6,17,15:00,UTC,,1014.7,30,,,19.9,,,,,
2018,6,17,16:00,UTC,,1014.5,32,,,19.6,,,,,
2018,6,17,17:00,UTC,,1013.9,38,,,18.5,,,,,
2018,6,17,18:00,UTC,,1013.5,39,,,18.5,,,,,
2018,6,17,19:00,UTC,,1013.1,50,,,17,,,,,
2018,6,17,20:00,UTC,,1012.7,46,,,16.7,,,,,
2018,6,17,21:00,UTC,,1012.1,42,,,16.2,,,,,
2018,6,17,22:00,UTC,,1011.3,40,,,16.2,,,,,
2018,6,17,23:00,UTC,,1010.6,40,,,16,,,,,
2018,6,18,00:00,UTC,,1009.8,44,,,16,,,,,
2018,6,18,01:00,UTC,,1009,48,,,15.7,,,,,
2018,6,18,02:00,UTC,,1008.1,52,,,16.4,,,,,
2018,6,18,03:00,UTC,,1007.4,56,,,16.7,,,,,
2018,6,18,04:00,UTC,,1006.7,56,,,18.5,,,,,
2018,6,18,05:00,UTC,,1005.7,50,,,21,,,,,
2018,6,18,06:00,UTC,,1005,69,,,18.7,,,,,
2018,6,18,07:00,UTC,,1004,60,,,20.8,,,,,
2018,6,18,08:00,UTC,,1004.4,56,,,20.2,,,,,
2018,6,18,09:00,UTC,,1003.8,71,,,17.7,,,,,
2018,6,18,10:00,UTC,,1003.3,59,,,20.1,,,,,
2018,6,18,11:00,UTC,,1003,53,,,20.5,,,,,
2018,6,18,12:00,UTC,,1003,61,,,17.7,,,,,
2018,6,18,13:00,UTC,,1002.9,62,,,17.2,,,,,
2018,6,18,14:00,UTC,,1003.2,59,,,16.6,,,,,
2018,6,18,15:00,UTC,,1003.4,64,,,16.1,,,,,
2018,6,18,16:00,UTC,,1003.4,62,,,16.2,,,,,
2018,6,18,17:00,UTC,,1003.3,61,,,16,,,,,
2018,6,18,18:00,UTC,,1003.1,62,,,16.1,,,,,
2018,6,18,19:00,UTC,,1003.1,66,,,15.4,,,,,
2018,6,18,20:00,UTC,,1003.2,67,,,15,,,,,
2018,6,18,21:00,UTC,,1003.1,70,,,14.7,,,,,
2018,6,18,22:00,UTC,,1002.8,73,,,14.6,,,,,
2018,6,18,23:00,UTC,,1002.4,75,,,14.5,,,,,
2018,6,19,00:00,UTC,,1001.8,77,,,13.6,,,,,
2018,6,19,01:00,UTC,,1001.4,83,,,12.6,,,,,
2018,6,19,02:00,UTC,,1000.9,76,,,13.3,,,,,
2018,6,19,03:00,UTC,,1000.2,73,,,14.2,,,,,
2018,6,19,04:00,UTC,,999.4,66,,,15.2,,,,,
2018,6,19,05:00,UTC,,998.7,61,,,16.3,,,,,
2018,6,19,06:00,UTC,,997.6,58,,,17,,,,,
2018,6,19,07:00,UTC,,996.7,59,,,17,,,,,
2018,6,19,08:00,UTC,,996.1,70,,,15.7,,,,,
2018,6,19,09:00,UTC,,995,72,,,15.5,,,,,
2018,6,19,10:00,UTC,,994.1,87,,,14.2,,,,,
2018,6,19,11:00,UTC,,993,88,,,14.2,,,,,
2018,6,19,12:00,UTC,,991.8,92,,,13.9,,,,,
2018,6,19,13:00,UTC,,991.1,91,,,14.1,,,,,
2018,6,19,14:00,UTC,,990.6,80,,,13.1,,,,,
2018,6,19,15:00,UTC,,989.8,83,,,14,,,,,
2018,6,19,16:00,UTC,,989.3,82,,,13.1,,,,,
2018,6,19,17:00,UTC,,988.9,89,,,12.7,,,,,
2018,6,19,18:00,UTC,,988.8,86,,,11.3,,,,,
2018,6,19,19:00,UTC,,988.4,89,,,10.4,,,,,
2018,6,19,20:00,UTC,,988.7,93,,,10.6,,,,,
2018,6,19,21:00,UTC,,989.4,91,,,10.6,,,,,
2018,6,19,22:00,UTC,,990,76,,,10.7,,,,,
2018,6,19,23:00,UTC,,990.5,70,,,11.8,,,,,
2018,6,20,00:00,UTC,,990.9,68,,,11.5,,,,,
2018,6,20,01:00,UTC,,991.3,65,,,11.5,,,,,
2018,6,20,02:00,UTC,,991.8,73,,,11.2,,,,,
2018,6,20,03:00,UTC,,992.1,69,,,11.7,,,,,
2018,6,20,04:00,UTC,,992.6,67,,,11.9,,,,,
2018,6,20,05:00,UTC,,993,65,,,12.2,,,,,
2018,6,20,06:00,UTC,,993.8,66,,,12.8,,,,,
2018,6,20,07:00,UTC,,994.3,66,,,12.6,,,,,
2018,6,20,08:00,UTC,,995.2,63,,,13.1,,,,,
2018,6,20,09:00,UTC,,996,61,,,13.5,,,,,
2018,6,20,10:00,UTC,,996.8,60,,,14.8,,,,,
2018,6,20,11:00,UTC,,997,50,,,15.6,,,,,
2018,6,20,12:00,UTC,,997.3,49,,,15.9,,,,,
2018,6,20,13:00,UTC,,997.4,44,,,16.5,,,,,
2018,6,20,14:00,UTC,,997.6,44,,,16.7,,,,,
2018,6,20,15:00,UTC,,997.8,41,,,16.9,,,,,
2018,6,20,16:00,UTC,,997.9,41,,,16.9,,,,,
2018,6,20,17:00,UTC,,997.9,45,,,16.2,,,,,
2018,6,20,18:00,UTC,,997.9,48,,,15.1,,,,,
2018,6,20,19:00,UTC,,997.9,55,,,13.9,,,,,
2018,6,20,20:00,UTC,,997.9,60,,,12.8,,,,,
2018,6,20,21:00,UTC,,998.1,69,,,11.5,,,,,
2018,6,20,22:00,UTC,,998.1,70,,,11.1,,,,,
2018,6,20,23:00,UTC,,998.1,72,,,11.4,,,,,
2018,6,21,00:00,UTC,,998.5,67,,,12.1,,,,,
2018,6,21,01:00,UTC,,998.7,67,,,11.8,,,,,
2018,6,21,02:00,UTC,,999,70,,,11.9,,,,,
2018,6,21,03:00,UTC,,999.2,67,,,12.3,,,,,
2018,6,21,04:00,UTC,,999.3,67,,,12.8,,,,,
2018,6,21,05:00,UTC,,999.6,63,,,13.2,,,,,
2018,6,21,06:00,UTC,,999.9,63,,,13.3,,,,,
2018,6,21,07:00,UTC,,1000.4,56,,,13.8,,,,,
2018,6,21,08:00,UTC,,1000.6,54,,,14.7,,,,,
2018,6,21,09:00,UTC,,1000.8,58,,,14.6,,,,,
2018,6,21,10:00,UTC,,1000.9,55,,,14.6,,,,,
2018,6,21,11:00,UTC,,1001,53,,,14.9,,,,,
2018,6,21,12:00,UTC,,1001.3,52,,,15,,,,,
2018,6,21,13:00,UTC,,1001.6,43,,,15.9,,,,,
2018,6,21,14:00,UTC,,1001.6,40,,,15.7,,,,,
2018,6,21,15:00,UTC,,1001.6,42,,,15.2,,,,,
2018,6,21,16:00,UTC,,1001,41,,,15.4,,,,,
2018,6,21,17:00,UTC,,1001,42,,,15.6,,,,,
2018,6,21,18:00,UTC,,1000.9,50,,,14.9,,,,,
2018,6,21,19:00,UTC,,1000.9,59,,,14,,,,,
2018,6,21,20:00,UTC,,1000.9,61,,,13.5,,,,,
2018,6,21,21:00,UTC,,1000.5,62,,,12.1,,,,,
2018,6,21,22:00,UTC,,1000.4,66,,,12.3,,,,,
2018,6,21,23:00,UTC,,999.8,65,,,12,,,,,
2018,6,22,00:00,UTC,,999.4,66,,,11.7,,,,,
2018,6,22,01:00,UTC,,998.6,66,,,11.8,,,,,
2018,6,22,02:00,UTC,,997.2,65,,,12,,,,,
2018,6,22,03:00,UTC,,995.9,64,,,12.1,,,,,
2018,6,22,04:00,UTC,,994.9,59,,,12.5,,,,,
2018,6,22,05:00,UTC,,994.4,68,,,11.8,,,,,
2018,6,22,06:00,UTC,,993.5,83,,,10.7,,,,,
2018,6,22,07:00,UTC,,990.8,83,,,11.2,,,,,
2018,6,22,08:00,UTC,,989.3,88,,,10.7,,,,,
2018,6,22,09:00,UTC,,988,93,,,10.3,,,,,
2018,6,22,10:00,UTC,,987.5,94,,,10.6,,,,,
2018,6,22,11:00,UTC,,987.4,90,,,12.4,,,,,
2018,6,22,12:00,UTC,,987.5,91,,,13.3,,,,,
2018,6,22,13:00,UTC,,987.7,76,,,14.4,,,,,
2018,6,22,14:00,UTC,,987.9,78,,,14.3,,,,,
2018,6,22,15:00,UTC,,988,71,,,15.8,,,,,
2018,6,22,16:00,UTC,,988.4,64,,,14.8,,,,,
2018,6,22,17:00,UTC,,988.5,71,,,12.1,,,,,
2018,6,22,18:00,UTC,,989,88,,,11.4,,,,,
2018,6,22,19:00,UTC,,988.9,88,,,11,,,,,
2018,6,22,20:00,UTC,,988.5,88,,,11.2,,,,,
2018,6,22,21:00,UTC,,988.4,89,,,11,,,,,
2018,6,22,22:00,UTC,,988.4,91,,,10.5,,,,,
2018,6,22,23:00,UTC,,988.4,94,,,10.2,,,,,
2018,6,23,00:00,UTC,,988.6,94,,,10.3,,,,,
2018,6,23,01:00,UTC,,989,95,,,10.3,,,,,
2018,6,23,02:00,UTC,,989.5,96,,,10.3,,,,,
2018,6,23,03:00,UTC,,990.1,96,,,10.5,,,,,
2018,6,23,04:00,UTC,,990.8,96,,,11,,,,,
2018,6,23,05:00,UTC,,991.5,90,,,12.2,,,,,
2018,6,23,06:00,UTC,,992.3,85,,,12.4,,,,,
2018,6,23,07:00,UTC,,993.2,89,,,12,,,,,
2018,6,23,08:00,UTC,,994.4,84,,,12.4,,,,,
2018,6,23,09:00,UTC,,995.7,83,,,12.3,,,,,
2018,6,23,10:00,UTC,,996.8,85,,,11.8,,,,,
2018,6,23,11:00,UTC,,998.1,88,,,11,,,,,
2018,6,23,12:00,UTC,,999.2,81,,,11.3,,,,,
2018,6,23,13:00,UTC,,1000.1,83,,,10.9,,,,,
2018,6,23,14:00,UTC,,1000.9,74,,,11.9,,,,,
2018,6,23,15:00,UTC,,1001.2,71,,,12.9,,,,,
2018,6,23,16:00,UTC,,1001.9,78,,,12.2,,,,,
2018,6,23,17:00,UTC,,1002.6,82,,,12,,,,,
2018,6,23,18:00,UTC,,1003,81,,,11.9,,,,,
2018,6,23,19:00,UTC,,1003.5,81,,,11.6,,,,,
2018,6,23,20:00,UTC,,1004.1,80,,,11.6,,,,,
2018,6,23,21:00,UTC,,1004.4,83,,,11.1,,,,,
2018,6,23,22:00,UTC,,1004.7,85,,,10.8,,,,,
2018,6,23,23:00,UTC,,1005,85,,,10.9,,,,,
2018,6,24,00:00,UTC,,1005.3,82,,,11,,,,,
2018,6,24,01:00,UTC,,1005.9,84,,,10.6,,,,,
2018,6,24,02:00,UTC,,1006.5,84,,,10.6,,,,,
2018,6,24,03:00,UTC,,1007.3,85,,,10.6,,,,,
2018,6,24,04:00,UTC,,1008,87,,,11.2,,,,,
2018,6,24,05:00,UTC,,1008.4,72,,,13.2,,,,,
2018,6,24,06:00,UTC,,1008.9,61,,,14.3,,,,,
2018,6,24,07:00,UTC,,1009.4,55,,,14.8,,,,,
2018,6,24,08:00,UTC,,1010.1,57,,,15.3,,,,,
2018,6,24,09:00,UTC,,1010.7,59,,,15,,,,,
2018,6,24,10:00,UTC,,1010.8,50,,,15.8,,,,,
2018,6,24,11:00,UTC,,1011.1,51,,,15.9,,,,,
2018,6,24,12:00,UTC,,1011.3,49,,,15.2,,,,,
2018,6,24,13:00,UTC,,1011.5,51,,,15.3,,,,,
2018,6,24,14:00,UTC,,1011.6,49,,,16.2,,,,,
2018,6,24,15:00,UTC,,1011.5,58,,,15.2,,,,,
2018,6,24,16:00,UTC,,1011.4,52,,,15.8,,,,,
2018,6,24,17:00,UTC,,1011.5,59,,,14.9,,,,,
2018,6,24,18:00,UTC,,1011.4,59,,,14.8,,,,,
2018,6,24,19:00,UTC,,1011.5,67,,,13.7,,,,,
2018,6,24,20:00,UTC,,1011.6,75,,,12,,,,,
2018,6,24,21:00,UTC,,1011.4,82,,,10.6,,,,,
2018,6,24,22:00,UTC,,1011.6,89,,,8.7,,,,,
2018,6,24,23:00,UTC,,1011.6,92,,,8.9,,,,,
2018,6,25,00:00,UTC,,1011.2,90,,,8.9,,,,,
2018,6,25,01:00,UTC,,1011.1,90,,,8.3,,,,,
2018,6,25,02:00,UTC,,1011,82,,,11,,,,,
2018,6,25,03:00,UTC,,1011,78,,,12.4,,,,,
2018,6,25,04:00,UTC,,1011,71,,,13.4,,,,,
2018,6,25,05:00,UTC,,1011,65,,,14.9,,,,,
2018,6,25,06:00,UTC,,1011.1,66,,,14.9,,,,,
2018,6,25,07:00,UTC,,1011,56,,,16.8,,,,,
2018,6,25,08:00,UTC,,1010.8,46,,,19.1,,,,,
2018,6,25,09:00,UTC,,1010.9,45,,,20,,,,,
2018,6,25,10:00,UTC,,1010.9,44,,,20.3,,,,,
2018,6,25,11:00,UTC,,1011.1,41,,,21.1,,,,,
2018,6,25,12:00,UTC,,1011,45,,,20.4,,,,,
2018,6,25,13:00,UTC,,1011.5,49,,,19.6,,,,,
2018,6,25,14:00,UTC,,1011.7,46,,,20.4,,,,,
2018,6,25,15:00,UTC,,1011.7,45,,,20.5,,,,,
2018,6,25,16:00,UTC,,1011.9,41,,,19.8,,,,,
2018,6,25,17:00,UTC,,1012.1,43,,,19.3,,,,,
2018,6,25,18:00,UTC,,1012.3,48,,,18.9,,,,,
2018,6,25,19:00,UTC,,1012.8,50,,,17,,,,,
2018,6,25,20:00,UTC,,1013.3,66,,,15.5,,,,,
2018,6,25,21:00,UTC,,1013.3,53,,,14.9,,,,,
2018,6,25,22:00,UTC,,1013.6,54,,,14.8,,,,,
2018,6,25,23:00,UTC,,1013.4,60,,,14.2,,,,,
2018,6,26,00:00,UTC,,1013.7,60,,,14.7,,,,,
2018,6,26,01:00,UTC,,1013.9,68,,,14.1,,,,,
2018,6,26,02:00,UTC,,1014.2,74,,,14.6,,,,,
2018,6,26,03:00,UTC,,1014.9,71,,,16.1,,,,,
2018,6,26,04:00,UTC,,1015.4,57,,,16.1,,,,,
2018,6,26,05:00,UTC,,1016.1,57,,,14.9,,,,,
2018,6,26,06:00,UTC,,1016.8,53,,,15.4,,,,,
2018,6,26,07:00,UTC,,1017.4,52,,,15.6,,,,,
2018,6,26,08:00,UTC,,1017.7,51,,,15.3,,,,,
2018,6,26,09:00,UTC,,1018.2,58,,,15.6,,,,,
2018,6,26,10:00,UTC,,1018.6,60,,,15.5,,,,,
2018,6,26,11:00,UTC,,1018.6,56,,,15.4,,,,,
2018,6,26,12:00,UTC,,1018.8,55,,,15.4,,,,,
2018,6,26,13:00,UTC,,1019.1,55,,,15.3,,,,,
2018,6,26,14:00,UTC,,1019,53,,,15.5,,,,,
2018,6,26,15:00,UTC,,1018.8,41,,,17.4,,,,,
2018,6,26,16:00,UTC,,1018.6,41,,,17.3,,,,,
2018,6,26,17:00,UTC,,1018.1,40,,,17.8,,,,,
2018,6,26,18:00,UTC,,1017.9,40,,,16.7,,,,,
2018,6,26,19:00,UTC,,1017.8,46,,,16,,,,,
2018,6,26,20:00,UTC,,1017.6,56,,,14.7,,,,,
2018,6,26,21:00,UTC,,1017.1,59,,,14.1,,,,,
2018,6,26,22:00,UTC,,1017,59,,,13.6,,,,,
2018,6,26,23:00,UTC,,1016.7,62,,,13.6,,,,,
2018,6,27,00:00,UTC,,1016.9,71,,,13.3,,,,,
2018,6,27,01:00,UTC,,1017.5,76,,,12.5,,,,,
2018,6,27,02:00,UTC,,1017.7,74,,,12.7,,,,,
2018,6,27,03:00,UTC,,1018.3,65,,,13.8,,,,,
2018,6,27,04:00,UTC,,1018.7,50,,,14.3,,,,,
2018,6,27,05:00,UTC,,1019.2,54,,,13.8,,,,,
2018,6,27,06:00,UTC,,1019.6,49,,,14.8,,,,,
2018,6,27,07:00,UTC,,1020.1,54,,,14.5,,,,,
2018,6,27,08:00,UTC,,1020.8,56,,,14.6,,,,,
2018,6,27,09:00,UTC,,1021,55,,,14.6,,,,,
2018,6,27,10:00,UTC,,1021.6,54,,,14.9,,,,,
2018,6,27,11:00,UTC,,1022.1,45,,,15.8,,,,,
2018,6,27,12:00,UTC,,1022.2,41,,,15.9,,,,,
2018,6,27,13:00,UTC,,1022.5,41,,,16.3,,,,,
2018,6,27,14:00,UTC,,1022.5,39,,,16.9,,,,,
2018,6,27,15:00,UTC,,1022.4,42,,,16.6,,,,,
2018,6,27,16:00,UTC,,1022.3,40,,,16.9,,,,,
2018,6,27,17:00,UTC,,1022.3,40,,,16.9,,,,,
2018,6,27,18:00,UTC,,1022.2,45,,,15.8,,,,,
2018,6,27,19:00,UTC,,1022.4,51,,,15,,,,,
2018,6,27,20:00,UTC,,1022.3,55,,,14.1,,,,,
2018,6,27,21:00,UTC,,1022.2,58,,,13.8,,,,,
2018,6,27,22:00,UTC,,1021.6,56,,,13.7,,,,,
2018,6,27,23:00,UTC,,1021.4,58,,,13.3,,,,,
2018,6,28,00:00,UTC,,1020.8,60,,,12.7,,,,,
2018,6,28,01:00,UTC,,1020.3,62,,,13,,,,,
2018,6,28,02:00,UTC,,1019.7,64,,,13.2,,,,,
2018,6,28,03:00,UTC,,1019.6,70,,,13.4,,,,,
2018,6,28,04:00,UTC,,1019.3,74,,,13.5,,,,,
2018,6,28,05:00,UTC,,1019.2,81,,,13.1,,,,,
2018,6,28,06:00,UTC,,1019.2,88,,,12.4,,,,,
2018,6,28,07:00,UTC,,1018.6,90,,,12.2,,,,,
2018,6,28,08:00,UTC,,1018.2,90,,,11.9,,,,,
2018,6,28,09:00,UTC,,1017.5,89,,,11.7,,,,,
2018,6,28,10:00,UTC,,1016.7,89,,,11.8,,,,,
2018,6,28,11:00,UTC,,1016,89,,,12.1,,,,,
2018,6,28,12:00,UTC,,1015.3,89,,,12.4,,,,,
2018,6,28,13:00,UTC,,1014.3,91,,,12.6,,,,,
2018,6,28,14:00,UTC,,1013.1,91,,,13.1,,,,,
2018,6,28,15:00,UTC,,1012.4,89,,,12.7,,,,,
2018,6,28,16:00,UTC,,1011.7,91,,,12.4,,,,,
2018,6,28,17:00,UTC,,1010.7,93,,,12,,,,,
2018,6,28,18:00,UTC,,1010.4,93,,,11.7,,,,,
2018,6,28,19:00,UTC,,1010.1,92,,,11.5,,,,,
2018,6,28,20:00,UTC,,1009.8,94,,,11.3,,,,,
2018,6,28,21:00,UTC,,1009.6,91,,,10.9,,,,,
2018,6,28,22:00,UTC,,1009.2,93,,,10.9,,,,,
2018,6,28,23:00,UTC,,1009.5,90,,,10.5,,,,,
2018,6,29,00:00,UTC,,1009.4,85,,,10.3,,,,,
2018,6,29,01:00,UTC,,1009.6,86,,,10.1,,,,,
2018,6,29,02:00,UTC,,1009.5,85,,,10.1,,,,,
2018,6,29,03:00,UTC,,1009.3,82,,,10.3,,,,,
2018,6,29,04:00,UTC,,1009.6,80,,,10.6,,,,,
2018,6,29,05:00,UTC,,1009.8,75,,,11.4,,,,,
2018,6,29,06:00,UTC,,1009.8,69,,,12.3,,,,,
2018,6,29,07:00,UTC,,1009.9,64,,,13.1,,,,,
2018,6,29,08:00,UTC,,1009.9,62,,,13,,,,,
2018,6,29,09:00,UTC,,1010,55,,,13.6,,,,,
2018,6,29,10:00,UTC,,1010,49,,,14.3,,,,,
2018,6,29,11:00,UTC,,1010.4,48,,,13.8,,,,,
2018,6,29,12:00,UTC,,1010.2,44,,,14.6,,,,,
2018,6,29,13:00,UTC,,1010.3,39,,,15.7,,,,,
2018,6,29,14:00,UTC,,1010.6,44,,,14.4,,,,,
2018,6,29,15:00,UTC,,1010.6,39,,,15.3,,,,,
2018,6,29,16:00,UTC,,1010.8,50,,,14.4,,,,,
2018,6,29,17:00,UTC,,1011.1,48,,,14.2,,,,,
2018,6,29,18:00,UTC,,1011.5,48,,,14.6,,,,,
2018,6,29,19:00,UTC,,1011.9,52,,,14,,,,,
2018,6,29,20:00,UTC,,1012.4,53,,,13.3,,,,,
2018,6,29,21:00,UTC,,1012.9,59,,,12.6,,,,,
2018,6,29,22:00,UTC,,1013.5,56,,,12.1,,,,,
2018,6,29,23:00,UTC,,1013.9,58,,,11.6,,,,,
2018,6,30,00:00,UTC,,1014.4,61,,,10.6,,,,,
2018,6,30,01:00,UTC,,1015,61,,,10.1,,,,,
2018,6,30,02:00,UTC,,1015.5,62,,,9.7,,,,,
2018,6,30,03:00,UTC,,1015.9,59,,,9.8,,,,,
2018,6,30,04:00,UTC,,1016.5,59,,,10.3,,,,,
2018,6,30,05:00,UTC,,1016.9,55,,,10.8,,,,,
2018,6,30,06:00,UTC,,1017.1,55,,,11.9,,,,,
2018,6,30,07:00,UTC,,1017.5,50,,,12.1,,,,,
2018,6,30,08:00,UTC,,1018,52,,,12.7,,,,,
2018,6,30,09:00,UTC,,1018.5,52,,,12.9,,,,,
2018,6,30,10:00,UTC,,1018.7,49,,,14.5,,,,,
2018,6,30,11:00,UTC,,1019.2,47,,,14.8,,,,,
2018,6,30,12:00,UTC,,1019.6,49,,,14.2,,,,,
2018,6,30,13:00,UTC,,1019.7,48,,,14.9,,,,,
2018,6,30,14:00,UTC,,1020.1,49,,,14.7,,,,,
2018,6,30,15:00,UTC,,1020.5,48,,,14.9,,,,,
2018,6,30,16:00,UTC,,1020.6,46,,,15.9,,,,,
2018,6,30,17:00,UTC,,1021.2,49,,,14.7,,,,,
2018,6,30,18:00,UTC,,1021.5,48,,,15.3,,,,,
2018,6,30,19:00,UTC,,1022.1,57,,,14.1,,,,,
2018,6,30,20:00,UTC,,1022.7,59,,,13.4,,,,,
2018,6,30,21:00,UTC,,1023.2,63,,,12.1,,,,,
2018,6,30,22:00,UTC,,1023.5,73,,,9.3,,,,,
2018,6,30,23:00,UTC,,1024.1,79,,,8,,,,,
2018,7,1,00:00,UTC,,1024.4,85,,,7.6,,,,,
2018,7,1,01:00,UTC,,1024.8,92,,,7.5,,,,,
2018,7,1,02:00,UTC,,1025.4,78,,,9.7,,,,,
2018,7,1,03:00,UTC,,1025.7,64,,,12,,,,,
2018,7,1,04:00,UTC,,1026,56,,,13,,,,,
2018,7,1,05:00,UTC,,1026.4,51,,,14.4,,,,,
2018,7,1,06:00,UTC,,1026.5,47,,,15.4,,,,,
2018,7,1,07:00,UTC,,1026.8,43,,,15.7,,,,,
2018,7,1,08:00,UTC,,1026.8,40,,,16.3,,,,,
2018,7,1,09:00,UTC,,1026.7,41,,,16.7,,,,,
2018,7,1,10:00,UTC,,1026.6,40,,,17.4,,,,,
2018,7,1,11:00,UTC,,1026.2,40,,,17.2,,,,,
2018,7,1,12:00,UTC,,1025.8,40,,,18.1,,,,,
2018,7,1,13:00,UTC,,1025.5,40,,,17.6,,,,,
2018,7,1,14:00,UTC,,1025.2,38,,,17.9,,,,,
2018,7,1,15:00,UTC,,1024.9,42,,,17.4,,,,,
2018,7,1,16:00,UTC,,1024.8,46,,,17.4,,,,,
2018,7,1,17:00,UTC,,1024.4,48,,,16.7,,,,,
2018,7,1,18:00,UTC,,1024.2,51,,,16.2,,,,,
2018,7,1,19:00,UTC,,1024.1,60,,,15.4,,,,,
2018,7,1,20:00,UTC,,1024.3,72,,,14.5,,,,,
2018,7,1,21:00,UTC,,1024.3,80,,,13.3,,,,,
2018,7,1,22:00,UTC,,1024.4,88,,,11.7,,,,,
2018,7,1,23:00,UTC,,1024.3,72,,,11.6,,,,,
2018,7,2,00:00,UTC,,1024.3,66,,,11.2,,,,,
2018,7,2,01:00,UTC,,1024.3,68,,,10.6,,,,,
2018,7,2,02:00,UTC,,1024.1,64,,,11.4,,,,,
2018,7,2,03:00,UTC,,1023.7,61,,,12.2,,,,,
2018,7,2,04:00,UTC,,1023.6,57,,,13.8,,,,,
2018,7,2,05:00,UTC,,1023.2,53,,,14.5,,,,,
2018,7,2,06:00,UTC,,1022.7,49,,,15.5,,,,,
2018,7,2,07:00,UTC,,1022.1,42,,,16.7,,,,,
2018,7,2,08:00,UTC,,1021.4,39,,,18.1,,,,,
2018,7,2,09:00,UTC,,1020.6,36,,,19.4,,,,,
2018,7,2,10:00,UTC,,1019.9,33,,,19.9,,,,,
2018,7,2,11:00,UTC,,1019,29,,,21.1,,,,,
2018,7,2,12:00,UTC,,1018.4,24,,,22.4,,,,,
2018,7,2,13:00,UTC,,1017.5,25,,,23.1,,,,,
2018,7,2,14:00,UTC,,1016.6,23,,,23.8,,,,,
2018,7,2,15:00,UTC,,1016.1,21,,,24.2,,,,,
2018,7,2,16:00,UTC,,1015.5,20,,,24.1,,,,,
2018,7,2,17:00,UTC,,1015.2,19,,,23.8,,,,,
2018,7,2,18:00,UTC,,1014.9,21,,,23,,,,,
2018,7,2,19:00,UTC,,1014.9,25,,,21.7,,,,,
2018,7,2,20:00,UTC,,1014.9,29,,,20,,,,,
2018,7,2,21:00,UTC,,1014.7,33,,,18.3,,,,,
2018,7,2,22:00,UTC,,1014.4,38,,,17,,,,,
2018,7,2,23:00,UTC,,1014.2,42,,,15.4,,,,,
2018,7,3,00:00,UTC,,1013.7,46,,,14.5,,,,,
2018,7,3,01:00,UTC,,1013.4,51,,,12.7,,,,,
2018,7,3,02:00,UTC,,1013.1,50,,,12.7,,,,,
2018,7,3,03:00,UTC,,1012.6,49,,,13.5,,,,,
2018,7,3,04:00,UTC,,1012.1,50,,,14.3,,,,,
2018,7,3,05:00,UTC,,1011.5,48,,,15.6,,,,,
2018,7,3,06:00,UTC,,1011.2,49,,,16.6,,,,,
2018,7,3,07:00,UTC,,1010.6,49,,,17.5,,,,,
2018,7,3,08:00,UTC,,1010.4,50,,,17.2,,,,,
2018,7,3,09:00,UTC,,1010,50,,,18.2,,,,,
2018,7,3,10:00,UTC,,1009.3,48,,,19.2,,,,,
2018,7,3,11:00,UTC,,1009,47,,,19.6,,,,,
2018,7,3,12:00,UTC,,1008.6,49,,,19.3,,,,,
2018,7,3,13:00,UTC,,1008.2,50,,,19.3,,,,,
2018,7,3,14:00,UTC,,1007.8,49,,,19.7,,,,,
2018,7,3,15:00,UTC,,1007.3,50,,,19.8,,,,,
2018,7,3,16:00,UTC,,1007,47,,,20.3,,,,,
2018,7,3,17:00,UTC,,1007,54,,,19.1,,,,,
2018,7,3,18:00,UTC,,1007.1,64,,,17,,,,,
2018,7,3,19:00,UTC,,1007.1,69,,,16.1,,,,,
2018,7,3,20:00,UTC,,1006.9,75,,,15.3,,,,,
2018,7,3,21:00,UTC,,1006.9,85,,,14.4,,,,,
2018,7,3,22:00,UTC,,1006.9,94,,,13.6,,,,,
2018,7,3,23:00,UTC,,1006.7,96,,,13.4,,,,,
2018,7,4,00:00,UTC,,1006.3,95,,,13.4,,,,,
2018,7,4,01:00,UTC,,1006.2,97,,,13.3,,,,,
2018,7,4,02:00,UTC,,1005.9,97,,,13.2,,,,,
2018,7,4,03:00,UTC,,1005.5,97,,,13.3,,,,,
2018,7,4,04:00,UTC,,1005.4,97,,,13.4,,,,,
2018,7,4,05:00,UTC,,1005.2,96,,,13.6,,,,,
2018,7,4,06:00,UTC,,1005.4,95,,,13.9,,,,,
2018,7,4,07:00,UTC,,1005.4,95,,,14,,,,,
2018,7,4,08:00,UTC,,1005.6,95,,,14.3,,,,,
2018,7,4,09:00,UTC,,1005.5,95,,,14.3,,,,,
2018,7,4,10:00,UTC,,1005.8,93,,,13.8,,,,,
2018,7,4,11:00,UTC,,1005.8,96,,,13.9,,,,,
2018,7,4,12:00,UTC,,1005.8,92,,,14.5,,,,,
2018,7,4,13:00,UTC,,1005.8,91,,,15.4,,,,,
2018,7,4,14:00,UTC,,1005.8,86,,,17,,,,,
2018,7,4,15:00,UTC,,1005.8,77,,,18.3,,,,,
2018,7,4,16:00,UTC,,1005.9,78,,,17.5,,,,,
2018,7,4,17:00,UTC,,1006,78,,,17,,,,,
2018,7,4,18:00,UTC,,1006.1,82,,,16.4,,,,,
2018,7,4,19:00,UTC,,1006.1,82,,,16.4,,,,,
2018,7,4,20:00,UTC,,1006.1,87,,,15.7,,,,,
2018,7,4,21:00,UTC,,1006,90,,,15.8,,,,,
2018,7,4,22:00,UTC,,1006,88,,,16.1,,,,,
2018,7,4,23:00,UTC,,1005.9,90,,,15.2,,,,,
2018,7,5,00:00,UTC,,1005.8,90,,,14.2,,,,,
2018,7,5,01:00,UTC,,1005.6,91,,,14.4,,,,,
2018,7,5,02:00,UTC,,1005.4,88,,,15.1,,,,,
2018,7,5,03:00,UTC,,1005.4,86,,,15.3,,,,,
2018,7,5,04:00,UTC,,1005.1,86,,,15.9,,,,,
2018,7,5,05:00,UTC,,1004.7,80,,,16.9,,,,,
2018,7,5,06:00,UTC,,1004.4,78,,,17.5,,,,,
2018,7,5,07:00,UTC,,1004.1,79,,,16.8,,,,,
2018,7,5,08:00,UTC,,1003.3,71,,,17.9,,,,,
2018,7,5,09:00,UTC,,1002.8,72,,,17.5,,,,,
2018,7,5,10:00,UTC,,1002.2,69,,,17.4,,,,,
2018,7,5,11:00,UTC,,1001.7,70,,,17.9,,,,,
2018,7,5,12:00,UTC,,1001,71,,,18.4,,,,,
2018,7,5,13:00,UTC,,1000.8,68,,,19,,,,,
2018,7,5,14:00,UTC,,1000.7,68,,,18.8,,,,,
2018,7,5,15:00,UTC,,1000.5,66,,,18.9,,,,,
2018,7,5,16:00,UTC,,1000.6,65,,,19.1,,,,,
2018,7,5,17:00,UTC,,1001.1,68,,,17.6,,,,,
2018,7,5,18:00,UTC,,1001.7,69,,,17.2,,,,,
2018,7,5,19:00,UTC,,1002,72,,,16.7,,,,,
2018,7,5,20:00,UTC,,1002.3,75,,,16.3,,,,,
2018,7,5,21:00,UTC,,1002.5,78,,,15.8,,,,,
2018,7,5,22:00,UTC,,1002.9,79,,,15.5,,,,,
2018,7,5,23:00,UTC,,1003.1,82,,,15,,,,,
2018,7,6,00:00,UTC,,1003.5,83,,,14.8,,,,,
2018,7,6,01:00,UTC,,1003.8,83,,,14.9,,,,,
2018,7,6,02:00,UTC,,1003.8,87,,,14.3,,,,,
2018,7,6,03:00,UTC,,1004.1,86,,,14.6,,,,,
2018,7,6,04:00,UTC,,1004.4,78,,,16.6,,,,,
2018,7,6,05:00,UTC,,1004.9,75,,,16.7,,,,,
2018,7,6,06:00,UTC,,1005.3,76,,,16.1,,,,,
2018,7,6,07:00,UTC,,1005.5,73,,,16.7,,,,,
2018,7,6,08:00,UTC,,1005.6,72,,,17.3,,,,,
2018,7,6,09:00,UTC,,1005.6,66,,,19,,,,,
2018,7,6,10:00,UTC,,1005.6,65,,,20.4,,,,,
2018,7,6,11:00,UTC,,1005.7,63,,,20.7,,,,,
2018,7,6,12:00,UTC,,1005.6,61,,,21.2,,,,,
2018,7,6,13:00,UTC,,1005.5,58,,,22.8,,,,,
2018,7,6,14:00,UTC,,1005.6,57,,,22,,,,,
2018,7,6,15:00,UTC,,1005.6,61,,,20.5,,,,,
2018,7,6,16:00,UTC,,1006,62,,,20.3,,,,,
2018,7,6,17:00,UTC,,1006.2,64,,,19.7,,,,,
2018,7,6,18:00,UTC,,1006.1,66,,,18.9,,,,,
2018,7,6,19:00,UTC,,1006.3,68,,,18.5,,,,,
2018,7,6,20:00,UTC,,1006.3,74,,,17.7,,,,,
2018,7,6,21:00,UTC,,1006.4,74,,,17.6,,,,,
2018,7,6,22:00,UTC,,1006.5,72,,,17.6,,,,,
2018,7,6,23:00,UTC,,1006.7,78,,,16.5,,,,,
2018,7,7,00:00,UTC,,1006.7,80,,,16.1,,,,,
2018,7,7,01:00,UTC,,1006.7,82,,,15.6,,,,,
2018,7,7,02:00,UTC,,1006.6,82,,,15.7,,,,,
2018,7,7,03:00,UTC,,1006.7,82,,,16.2,,,,,
2018,7,7,04:00,UTC,,1006.9,81,,,16.4,,,,,
2018,7,7,05:00,UTC,,1006.9,79,,,16.7,,,,,
2018,7,7,06:00,UTC,,1007,79,,,16.6,,,,,
2018,7,7,07:00,UTC,,1006.8,72,,,18.3,,,,,
2018,7,7,08:00,UTC,,1007.2,72,,,18.9,,,,,
2018,7,7,09:00,UTC,,1007.4,68,,,18.7,,,,,
2018,7,7,10:00,UTC,,1007.4,67,,,19.6,,,,,
2018,7,7,11:00,UTC,,1007.4,61,,,20.2,,,,,
2018,7,7,12:00,UTC,,1007.8,62,,,21.4,,,,,
2018,7,7,13:00,UTC,,1007.9,56,,,21.9,,,,,
2018,7,7,14:00,UTC,,1007.9,54,,,21.3,,,,,
2018,7,7,15:00,UTC,,1008,56,,,21.1,,,,,
2018,7,7,16:00,UTC,,1008.1,61,,,20.7,,,,,
2018,7,7,17:00,UTC,,1008.8,57,,,21.5,,,,,
2018,7,7,18:00,UTC,,1009.3,60,,,20.6,,,,,
2018,7,7,19:00,UTC,,1009.7,64,,,19.5,,,,,
2018,7,7,20:00,UTC,,1010,65,,,18.8,,,,,
2018,7,7,21:00,UTC,,1010.5,69,,,18.1,,,,,
2018,7,7,22:00,UTC,,1010.9,58,,,17.8,,,,,
2018,7,7,23:00,UTC,,1011.2,59,,,17.3,,,,,
2018,7,8,00:00,UTC,,1011.4,72,,,16.1,,,,,
2018,7,8,01:00,UTC,,1011.6,72,,,15.6,,,,,
2018,7,8,02:00,UTC,,1011.8,75,,,15,,,,,
2018,7,8,03:00,UTC,,1011.8,78,,,14.8,,,,,
2018,7,8,04:00,UTC,,1012,77,,,15.3,,,,,
2018,7,8,05:00,UTC,,1012.2,74,,,15.9,,,,,
2018,7,8,06:00,UTC,,1012.5,66,,,17.2,,,,,
2018,7,8,07:00,UTC,,1012.4,62,,,18.3,,,,,
2018,7,8,08:00,UTC,,1012.7,61,,,18.3,,,,,
2018,7,8,09:00,UTC,,1012.8,58,,,19,,,,,
2018,7,8,10:00,UTC,,1012.7,56,,,19.6,,,,,
2018,7,8,11:00,UTC,,1012.7,50,,,19.8,,,,,
2018,7,8,12:00,UTC,,1012.6,51,,,20.1,,,,,
2018,7,8,13:00,UTC,,1012.3,50,,,21.3,,,,,
2018,7,8,14:00,UTC,,1012,54,,,20.5,,,,,
2018,7,8,15:00,UTC,,1011.8,48,,,21.8,,,,,
2018,7,8,16:00,UTC,,1011.8,56,,,19.6,,,,,
2018,7,8,17:00,UTC,,1011.6,53,,,20.1,,,,,
2018,7,8,18:00,UTC,,1011.6,59,,,19.4,,,,,
2018,7,8,19:00,UTC,,1011.7,74,,,17.2,,,,,
2018,7,8,20:00,UTC,,1011.9,82,,,16.4,,,,,
2018,7,8,21:00,UTC,,1012,80,,,16.3,,,,,
2018,7,8,22:00,UTC,,1012.3,80,,,15.6,,,,,
2018,7,8,23:00,UTC,,1012.4,70,,,16.3,,,,,
2018,7,9,00:00,UTC,,1012.8,80,,,14.2,,,,,
2018,7,9,01:00,UTC,,1013.3,79,,,14,,,,,
2018,7,9,02:00,UTC,,1013.4,75,,,14.5,,,,,
2018,7,9,03:00,UTC,,1013.5,73,,,15,,,,,
2018,7,9,04:00,UTC,,1013.7,69,,,15.8,,,,,
2018,7,9,05:00,UTC,,1014.3,62,,,17.2,,,,,
2018,7,9,06:00,UTC,,1014.6,54,,,18.7,,,,,
2018,7,9,07:00,UTC,,1014.8,48,,,19.5,,,,,
2018,7,9,08:00,UTC,,1015.3,47,,,20.8,,,,,
2018,7,9,09:00,UTC,,1015.4,43,,,21.9,,,,,
2018,7,9,10:00,UTC,,1015.5,42,,,22.8,,,,,
2018,7,9,11:00,UTC,,1015.7,41,,,22.8,,,,,
2018,7,9,12:00,UTC,,1015.9,41,,,23.1,,,,,
2018,7,9,13:00,UTC,,1016.1,47,,,22.6,,,,,
2018,7,9,14:00,UTC,,1016.2,46,,,22.4,,,,,
2018,7,9,15:00,UTC,,1016.4,49,,,23.2,,,,,
2018,7,9,16:00,UTC,,1016.6,47,,,22,,,,,
2018,7,9,17:00,UTC,,1016.8,52,,,21.3,,,,,
2018,7,9,18:00,UTC,,1017.1,61,,,20.6,,,,,
2018,7,9,19:00,UTC,,1017.6,66,,,20,,,,,
2018,7,9,20:00,UTC,,1018.1,77,,,18.4,,,,,
2018,7,9,21:00,UTC,,1018.6,81,,,17.3,,,,,
2018,7,9,22:00,UTC,,1019,85,,,15.7,,,,,
2018,7,9,23:00,UTC,,1019.3,91,,,14.6,,,,,
2018,7,10,00:00,UTC,,1019.9,75,,,14.4,,,,,
2018,7,10,01:00,UTC,,1020.4,66,,,13.7,,,,,
2018,7,10,02:00,UTC,,1020.6,67,,,13.7,,,,,
2018,7,10,03:00,UTC,,1021.1,58,,,15.6,,,,,
2018,7,10,04:00,UTC,,1021.5,55,,,16.8,,,,,
2018,7,10,05:00,UTC,,1021.6,51,,,18.9,,,,,
2018,7,10,06:00,UTC,,1022,42,,,20.9,,,,,
2018,7,10,07:00,UTC,,1021.9,40,,,21.7,,,,,
2018,7,10,08:00,UTC,,1022.1,41,,,21.7,,,,,
2018,7,10,09:00,UTC,,1022,37,,,22.8,,,,,
2018,7,10,10:00,UTC,,1021.8,36,,,23.2,,,,,
2018,7,10,11:00,UTC,,1021.5,35,,,24.1,,,,,
2018,7,10,12:00,UTC,,1021.3,34,,,24.2,,,,,
2018,7,10,13:00,UTC,,1021.1,37,,,24.1,,,,,
2018,7,10,14:00,UTC,,1020.9,39,,,23.7,,,,,
2018,7,10,15:00,UTC,,1020.7,39,,,23.8,,,,,
2018,7,10,16:00,UTC,,1020.6,48,,,22.3,,,,,
2018,7,10,17:00,UTC,,1020.4,44,,,22.3,,,,,
2018,7,10,18:00,UTC,,1020.6,50,,,21.6,,,,,
2018,7,10,19:00,UTC,,1020.6,53,,,20.5,,,,,
2018,7,10,20:00,UTC,,1020.7,60,,,19.4,,,,,
2018,7,10,21:00,UTC,,1021,66,,,18.2,,,,,
2018,7,10,22:00,UTC,,1021.3,71,,,17.3,,,,,
2018,7,10,23:00,UTC,,1021.2,77,,,16.1,,,,,
2018,7,11,00:00,UTC,,1021.2,63,,,16.3,,,,,
2018,7,11,01:00,UTC,,1021.4,65,,,14.7,,,,,
2018,7,11,02:00,UTC,,1021.4,62,,,15,,,,,
2018,7,11,03:00,UTC,,1021.5,64,,,15,,,,,
2018,7,11,04:00,UTC,,1021.6,58,,,16.4,,,,,
2018,7,11,05:00,UTC,,1021.7,52,,,18.2,,,,,
2018,7,11,06:00,UTC,,1021.7,46,,,20,,,,,
2018,7,11,07:00,UTC,,1021.6,39,,,21.4,,,,,
2018,7,11,08:00,UTC,,1021.5,36,,,22.9,,,,,
2018,7,11,09:00,UTC,,1021.3,32,,,23.6,,,,,
2018,7,11,10:00,UTC,,1021,30,,,24.1,,,,,
2018,7,11,11:00,UTC,,1020.7,27,,,24.8,,,,,
2018,7,11,12:00,UTC,,1020.2,21,,,24.9,,,,,
2018,7,11,13:00,UTC,,1019.9,19,,,25,,,,,
2018,7,11,14:00,UTC,,1019.5,20,,,25.7,,,,,
2018,7,11,15:00,UTC,,1019.1,19,,,25.6,,,,,
2018,7,11,16:00,UTC,,1018.9,30,,,25,,,,,
2018,7,11,17:00,UTC,,1018.7,32,,,24.3,,,,,
2018,7,11,18:00,UTC,,1018.7,41,,,22.9,,,,,
2018,7,11,19:00,UTC,,1018.7,49,,,21.6,,,,,
2018,7,11,20:00,UTC,,1018.9,51,,,20,,,,,
2018,7,11,21:00,UTC,,1018.9,68,,,15.7,,,,,
2018,7,11,22:00,UTC,,1018.8,75,,,15.2,,,,,
2018,7,11,23:00,UTC,,1019,77,,,14.6,,,,,
2018,7,12,00:00,UTC,,1018.9,68,,,14,,,,,
2018,7,12,01:00,UTC,,1018.9,68,,,12.9,,,,,
2018,7,12,02:00,UTC,,1018.8,66,,,13,,,,,
2018,7,12,03:00,UTC,,1018.5,56,,,15.5,,,,,
2018,7,12,04:00,UTC,,1018.3,51,,,17.4,,,,,
2018,7,12,05:00,UTC,,1017.9,49,,,19,,,,,
2018,7,12,06:00,UTC,,1017.8,45,,,20.3,,,,,
2018,7,12,07:00,UTC,,1017.6,39,,,22.3,,,,,
2018,7,12,08:00,UTC,,1017.4,35,,,23.8,,,,,
2018,7,12,09:00,UTC,,1017.2,29,,,24.7,,,,,
2018,7,12,10:00,UTC,,1016.9,28,,,25.1,,,,,
2018,7,12,11:00,UTC,,1016.3,28,,,25.9,,,,,
2018,7,12,12:00,UTC,,1015.9,28,,,26.1,,,,,
2018,7,12,13:00,UTC,,1015.4,28,,,26,,,,,
2018,7,12,14:00,UTC,,1015.2,40,,,24.6,,,,,
2018,7,12,15:00,UTC,,1015,35,,,23.8,,,,,
2018,7,12,16:00,UTC,,1014.8,34,,,24,,,,,
2018,7,12,17:00,UTC,,1014.7,33,,,23.8,,,,,
2018,7,12,18:00,UTC,,1014.6,36,,,23.3,,,,,
2018,7,12,19:00,UTC,,1014.6,42,,,22.3,,,,,
2018,7,12,20:00,UTC,,1014.7,52,,,19.8,,,,,
2018,7,12,21:00,UTC,,1014.8,77,,,17.4,,,,,
2018,7,12,22:00,UTC,,1014.7,67,,,15.8,,,,,
2018,7,12,23:00,UTC,,1014.6,69,,,14.7,,,,,
2018,7,13,00:00,UTC,,1014.5,74,,,15.4,,,,,
2018,7,13,01:00,UTC,,1014.3,58,,,16.7,,,,,
2018,7,13,02:00,UTC,,1014.2,56,,,17.2,,,,,
2018,7,13,03:00,UTC,,1014.2,66,,,15.8,,,,,
2018,7,13,04:00,UTC,,1014.2,66,,,16,,,,,
2018,7,13,05:00,UTC,,1014.1,49,,,19.8,,,,,
2018,7,13,06:00,UTC,,1014,49,,,21.4,,,,,
2018,7,13,07:00,UTC,,1013.9,40,,,23.2,,,,,
2018,7,13,08:00,UTC,,1013.7,33,,,25.3,,,,,
2018,7,13,09:00,UTC,,1013.5,33,,,25.7,,,,,
2018,7,13,10:00,UTC,,1013,30,,,26.8,,,,,
2018,7,13,11:00,UTC,,1012.5,28,,,27.6,,,,,
2018,7,13,12:00,UTC,,1012.3,40,,,25.9,,,,,
2018,7,13,13:00,UTC,,1011.8,37,,,25.9,,,,,
2018,7,13,14:00,UTC,,1011.6,36,,,25.7,,,,,
2018,7,13,15:00,UTC,,1011.4,41,,,25.8,,,,,
2018,7,13,16:00,UTC,,1011.3,51,,,23.8,,,,,
2018,7,13,17:00,UTC,,1011.4,51,,,22.5,,,,,
2018,7,13,18:00,UTC,,1011.2,70,,,21.7,,,,,
2018,7,13,19:00,UTC,,1011.6,69,,,21.4,,,,,
2018,7,13,20:00,UTC,,1011.9,77,,,20.5,,,,,
2018,7,13,21:00,UTC,,1011.7,79,,,19.5,,,,,
2018,7,13,22:00,UTC,,1011.7,84,,,18.3,,,,,
2018,7,13,23:00,UTC,,1011.6,85,,,18.3,,,,,
2018,7,14,00:00,UTC,,1011.4,88,,,17.8,,,,,
2018,7,14,01:00,UTC,,1011.2,89,,,17.5,,,,,
2018,7,14,02:00,UTC,,1011.2,91,,,18,,,,,
2018,7,14,03:00,UTC,,1011,95,,,17.6,,,,,
2018,7,14,04:00,UTC,,1011.4,92,,,18.5,,,,,
2018,7,14,05:00,UTC,,1011.3,87,,,20,,,,,
2018,7,14,06:00,UTC,,1011.2,74,,,20.1,,,,,
2018,7,14,07:00,UTC,,1011,68,,,20.3,,,,,
2018,7,14,08:00,UTC,,1011,70,,,20.4,,,,,
2018,7,14,09:00,UTC,,1010.8,73,,,20.3,,,,,
2018,7,14,10:00,UTC,,1010.6,64,,,20.5,,,,,
2018,7,14,11:00,UTC,,1010.2,54,,,22.6,,,,,
2018,7,14,12:00,UTC,,1010.1,48,,,23.3,,,,,
2018,7,14,13:00,UTC,,1009.7,49,,,23.2,,,,,
2018,7,14,14:00,UTC,,1009.7,52,,,23.1,,,,,
2018,7,14,15:00,UTC,,1009.5,62,,,22.8,,,,,
2018,7,14,16:00,UTC,,1009.7,61,,,22.5,,,,,
2018,7,14,17:00,UTC,,1009.7,68,,,21.5,,,,,
2018,7,14,18:00,UTC,,1009.8,70,,,21.2,,,,,
2018,7,14,19:00,UTC,,1009.8,74,,,20.2,,,,,
2018,7,14,20:00,UTC,,1010.1,79,,,19,,,,,
2018,7,14,21:00,UTC,,1010.4,87,,,17,,,,,
2018,7,14,22:00,UTC,,1010.5,94,,,17.2,,,,,
2018,7,14,23:00,UTC,,1010.5,92,,,15.3,,,,,
2018,7,15,00:00,UTC,,1010.3,90,,,14.9,,,,,
2018,7,15,01:00,UTC,,1010.6,94,,,15,,,,,
2018,7,15,02:00,UTC,,1010.6,92,,,14.2,,,,,
2018,7,15,03:00,UTC,,1010.5,87,,,15,,,,,
2018,7,15,04:00,UTC,,1010.6,80,,,16.6,,,,,
2018,7,15,05:00,UTC,,1010.8,70,,,18.8,,,,,
2018,7,15,06:00,UTC,,1010.7,62,,,20.9,,,,,
2018,7,15,07:00,UTC,,1010.8,49,,,23.4,,,,,
2018,7,15,08:00,UTC,,1010.9,47,,,23.8,,,,,
2018,7,15,09:00,UTC,,1010.9,48,,,24.4,,,,,
2018,7,15,10:00,UTC,,1010.9,43,,,26.2,,,,,
2018,7,15,11:00,UTC,,1011,59,,,24.9,,,,,
2018,7,15,12:00,UTC,,1011,60,,,24.3,,,,,
2018,7,15,13:00,UTC,,1010.7,54,,,25.4,,,,,
2018,7,15,14:00,UTC,,1010.9,46,,,25.7,,,,,
2018,7,15,15:00,UTC,,1011.1,53,,,24.9,,,,,
2018,7,15,16:00,UTC,,1011.2,50,,,25.6,,,,,
2018,7,15,17:00,UTC,,1011.3,50,,,25.1,,,,,
2018,7,15,18:00,UTC,,1011.6,51,,,23.5,,,,,
2018,7,15,19:00,UTC,,1011.8,55,,,23.3,,,,,
2018,7,15,20:00,UTC,,1011.8,59,,,21.6,,,,,
2018,7,15,21:00,UTC,,1012,61,,,20.9,,,,,
2018,7,15,22:00,UTC,,1012.3,61,,,20,,,,,
2018,7,15,23:00,UTC,,1012.7,72,,,18.5,,,,,
2018,7,16,00:00,UTC,,1012.8,79,,,17.7,,,,,
2018,7,16,01:00,UTC,,1013,88,,,17.3,,,,,
2018,7,16,02:00,UTC,,1013.4,91,,,17.5,,,,,
2018,7,16,03:00,UTC,,1013.6,81,,,20.2,,,,,
2018,7,16,04:00,UTC,,1013.9,68,,,21.7,,,,,
2018,7,16,05:00,UTC,,1013.9,52,,,23.1,,,,,
2018,7,16,06:00,UTC,,1014.3,52,,,23.8,,,,,
2018,7,16,07:00,UTC,,1014.6,58,,,23.5,,,,,
2018,7,16,08:00,UTC,,1014.9,58,,,24.1,,,,,
2018,7,16,09:00,UTC,,1015.3,49,,,24.6,,,,,
2018,7,16,10:00,UTC,,1015.5,42,,,24.9,,,,,
2018,7,16,11:00,UTC,,1015.6,44,,,25,,,,,
2018,7,16,12:00,UTC,,1015.7,44,,,24.9,,,,,
2018,7,16,13:00,UTC,,1015.5,45,,,24.7,,,,,
2018,7,16,14:00,UTC,,1015.5,42,,,25.1,,,,,
2018,7,16,15:00,UTC,,1015.4,44,,,24.9,,,,,
2018,7,16,16:00,UTC,,1015.5,47,,,24.7,,,,,
2018,7,16,17:00,UTC,,1015.6,50,,,24.2,,,,,
2018,7,16,18:00,UTC,,1015.8,57,,,23.3,,,,,
2018,7,16,19:00,UTC,,1015.9,65,,,21.7,,,,,
2018,7,16,20:00,UTC,,1016.2,69,,,20.8,,,,,
2018,7,16,21:00,UTC,,1016.4,75,,,19.8,,,,,
2018,7,16,22:00,UTC,,1016.9,74,,,18.8,,,,,
2018,7,16,23:00,UTC,,1017,81,,,16.6,,,,,
2018,7,17,00:00,UTC,,1017.2,73,,,17.4,,,,,
2018,7,17,01:00,UTC,,1017.3,74,,,16.7,,,,,
2018,7,17,02:00,UTC,,1017.5,76,,,16.3,,,,,
2018,7,17,03:00,UTC,,1017.6,68,,,17.8,,,,,
2018,7,17,04:00,UTC,,1017.6,61,,,20.6,,,,,
2018,7,17,05:00,UTC,,1017.8,53,,,22.3,,,,,
2018,7,17,06:00,UTC,,1017.8,46,,,25,,,,,
2018,7,17,07:00,UTC,,1017.6,39,,,27.4,,,,,
2018,7,17,08:00,UTC,,1017.6,38,,,28.6,,,,,
2018,7,17,09:00,UTC,,1017.5,33,,,29.4,,,,,
2018,7,17,10:00,UTC,,1017.5,31,,,30.4,,,,,
2018,7,17,11:00,UTC,,1017.2,30,,,30.7,,,,,
2018,7,17,12:00,UTC,,1017,28,,,31.7,,,,,
2018,7,17,13:00,UTC,,1016.7,28,,,31.4,,,,,
2018,7,17,14:00,UTC,,1016.4,28,,,31.7,,,,,
2018,7,17,15:00,UTC,,1016.2,27,,,31.8,,,,,
2018,7,17,16:00,UTC,,1016.2,28,,,31.7,,,,,
2018,7,17,17:00,UTC,,1016.2,27,,,31.5,,,,,
2018,7,17,18:00,UTC,,1016.2,38,,,29.9,,,,,
2018,7,17,19:00,UTC,,1016.3,50,,,28.1,,,,,
2018,7,17,20:00,UTC,,1016.5,51,,,25.8,,,,,
2018,7,17,21:00,UTC,,1016.7,77,,,23.3,,,,,
2018,7,17,22:00,UTC,,1017.1,46,,,24.7,,,,,
2018,7,17,23:00,UTC,,1017.6,53,,,23,,,,,
2018,7,18,00:00,UTC,,1017.9,58,,,21.7,,,,,
2018,7,18,01:00,UTC,,1018.1,61,,,21.4,,,,,
2018,7,18,02:00,UTC,,1018.1,62,,,21.4,,,,,
2018,7,18,03:00,UTC,,1018.1,61,,,21.9,,,,,
2018,7,18,04:00,UTC,,1018.1,58,,,23,,,,,
2018,7,18,05:00,UTC,,1018.2,56,,,23.8,,,,,
2018,7,18,06:00,UTC,,1018.1,52,,,25.2,,,,,
2018,7,18,07:00,UTC,,1018.2,47,,,26.5,,,,,
2018,7,18,08:00,UTC,,1018,38,,,27.5,,,,,
2018,7,18,09:00,UTC,,1017.8,29,,,28.4,,,,,
2018,7,18,10:00,UTC,,1017.4,24,,,29.2,,,,,
2018,7,18,11:00,UTC,,1017.2,28,,,30,,,,,
2018,7,18,12:00,UTC,,1016.7,21,,,30.3,,,,,
2018,7,18,13:00,UTC,,1016.4,26,,,30.4,,,,,
2018,7,18,14:00,UTC,,1016,22,,,30.7,,,,,
2018,7,18,15:00,UTC,,1015.7,24,,,30.5,,,,,
2018,7,18,16:00,UTC,,1015.2,26,,,30.3,,,,,
2018,7,18,17:00,UTC,,1015,30,,,30,,,,,
2018,7,18,18:00,UTC,,1015,31,,,29.1,,,,,
2018,7,18,19:00,UTC,,1015.1,39,,,27.3,,,,,
2018,7,18,20:00,UTC,,1015.4,47,,,23.8,,,,,
2018,7,18,21:00,UTC,,1015.6,48,,,23.6,,,,,
2018,7,18,22:00,UTC,,1015.9,50,,,22.3,,,,,
2018,7,18,23:00,UTC,,1016.1,50,,,21.5,,,,,
2018,7,19,00:00,UTC,,1016.4,52,,,20.8,,,,,
2018,7,19,01:00,UTC,,1016.5,57,,,19.6,,,,,
2018,7,19,02:00,UTC,,1016.4,60,,,19.5,,,,,
2018,7,19,03:00,UTC,,1016.4,61,,,19.9,,,,,
2018,7,19,04:00,UTC,,1016.3,57,,,21.3,,,,,
2018,7,19,05:00,UTC,,1016.3,56,,,22.1,,,,,
2018,7,19,06:00,UTC,,1016.2,52,,,23.4,,,,,
2018,7,19,07:00,UTC,,1016,46,,,25.1,,,,,
2018,7,19,08:00,UTC,,1015.8,40,,,26.2,,,,,
2018,7,19,09:00,UTC,,1015.6,37,,,27.6,,,,,
2018,7,19,10:00,UTC,,1015.2,34,,,28.2,,,,,
2018,7,19,11:00,UTC,,1014.7,27,,,29.9,,,,,
2018,7,19,12:00,UTC,,1014.3,24,,,30.4,,,,,
2018,7,19,13:00,UTC,,1014,21,,,31.3,,,,,
2018,7,19,14:00,UTC,,1013.6,23,,,30.8,,,,,
2018,7,19,15:00,UTC,,1013.3,24,,,30.9,,,,,
2018,7,19,16:00,UTC,,1013.2,22,,,30.5,,,,,
2018,7,19,17:00,UTC,,1013.1,25,,,29.9,,,,,
2018,7,19,18:00,UTC,,1013.2,30,,,28.6,,,,,
2018,7,19,19:00,UTC,,1013.4,38,,,26.2,,,,,
2018,7,19,20:00,UTC,,1013.7,38,,,25.4,,,,,
2018,7,19,21:00,UTC,,1013.9,42,,,24.1,,,,,
2018,7,19,22:00,UTC,,1014.1,49,,,22.1,,,,,
2018,7,19,23:00,UTC,,1014.2,53,,,21.2,,,,,
2018,7,20,00:00,UTC,,1014.2,56,,,20.6,,,,,
2018,7,20,01:00,UTC,,1014,60,,,19.8,,,,,
2018,7,20,02:00,UTC,,1014,60,,,19.8,,,,,
2018,7,20,03:00,UTC,,1013.6,59,,,20.5,,,,,
2018,7,20,04:00,UTC,,1013.6,58,,,21.8,,,,,
2018,7,20,05:00,UTC,,1013.4,52,,,23.3,,,,,
2018,7,20,06:00,UTC,,1013.2,51,,,24.3,,,,,
2018,7,20,07:00,UTC,,1013.1,45,,,25.9,,,,,
2018,7,20,08:00,UTC,,1012.8,40,,,27.4,,,,,
2018,7,20,09:00,UTC,,1012.4,38,,,28.5,,,,,
2018,7,20,10:00,UTC,,1011.9,34,,,29.3,,,,,
2018,7,20,11:00,UTC,,1011.3,31,,,29.9,,,,,
2018,7,20,12:00,UTC,,1010.9,29,,,29.9,,,,,
2018,7,20,13:00,UTC,,1010.6,28,,,30.6,,,,,
2018,7,20,14:00,UTC,,1010.1,25,,,30.6,,,,,
2018,7,20,15:00,UTC,,1009.6,26,,,30.3,,,,,
2018,7,20,16:00,UTC,,1009.3,28,,,30.3,,,,,
2018,7,20,17:00,UTC,,1009.1,29,,,29.9,,,,,
2018,7,20,18:00,UTC,,1009.1,35,,,28.5,,,,,
2018,7,20,19:00,UTC,,1009.1,45,,,26.8,,,,,
2018,7,20,20:00,UTC,,1009,68,,,23.4,,,,,
2018,7,20,21:00,UTC,,1008.7,59,,,21.6,,,,,
2018,7,20,22:00,UTC,,1008.8,54,,,22.3,,,,,
2018,7,20,23:00,UTC,,1008.8,59,,,21.7,,,,,
2018,7,21,00:00,UTC,,1008.6,62,,,21.7,,,,,
2018,7,21,01:00,UTC,,1008.3,65,,,21.2,,,,,
2018,7,21,02:00,UTC,,1008.3,66,,,21.5,,,,,
2018,7,21,03:00,UTC,,1008.2,64,,,22.5,,,,,
2018,7,21,04:00,UTC,,1007.9,65,,,22.5,,,,,
2018,7,21,05:00,UTC,,1007.6,66,,,22.6,,,,,
2018,7,21,06:00,UTC,,1007.2,66,,,22.8,,,,,
2018,7,21,07:00,UTC,,1006.9,62,,,23.6,,,,,
2018,7,21,08:00,UTC,,1006.7,63,,,23.5,,,,,
2018,7,21,09:00,UTC,,1006.5,66,,,23.3,,,,,
2018,7,21,10:00,UTC,,1006.2,69,,,22.8,,,,,
2018,7,21,11:00,UTC,,1005.9,70,,,23.1,,,,,
2018,7,21,12:00,UTC,,1005.4,69,,,23.5,,,,,
2018,7,21,13:00,UTC,,1005,64,,,24.2,,,,,
2018,7,21,14:00,UTC,,1004.5,61,,,25.2,,,,,
2018,7,21,15:00,UTC,,1003.9,62,,,25,,,,,
2018,7,21,16:00,UTC,,1003.9,66,,,24.4,,,,,
2018,7,21,17:00,UTC,,1003.6,68,,,24.4,,,,,
2018,7,21,18:00,UTC,,1003.5,71,,,23.8,,,,,
2018,7,21,19:00,UTC,,1003.3,74,,,22.2,,,,,
2018,7,21,20:00,UTC,,1003.1,87,,,21,,,,,
2018,7,21,21:00,UTC,,1002.9,91,,,20.2,,,,,
2018,7,21,22:00,UTC,,1002.8,93,,,20.1,,,,,
2018,7,21,23:00,UTC,,1002.6,92,,,20.3,,,,,
2018,7,22,00:00,UTC,,1002.1,92,,,20,,,,,
2018,7,22,01:00,UTC,,1001.7,94,,,19.6,,,,,
2018,7,22,02:00,UTC,,1001.7,94,,,19.9,,,,,
2018,7,22,03:00,UTC,,1001.8,92,,,20.3,,,,,
2018,7,22,04:00,UTC,,1001.3,90,,,20.7,,,,,
2018,7,22,05:00,UTC,,1001.1,87,,,21.3,,,,,
2018,7,22,06:00,UTC,,1001.3,84,,,21.9,,,,,
2018,7,22,07:00,UTC,,1001.3,80,,,22.6,,,,,
2018,7,22,08:00,UTC,,1001,70,,,24,,,,,
2018,7,22,09:00,UTC,,1001,65,,,24.8,,,,,
2018,7,22,10:00,UTC,,1001.4,88,,,21.7,,,,,
2018,7,22,11:00,UTC,,1001.4,90,,,21.8,,,,,
2018,7,22,12:00,UTC,,1001.5,82,,,23.6,,,,,
2018,7,22,13:00,UTC,,1001.7,83,,,22.7,,,,,
2018,7,22,14:00,UTC,,1002.1,78,,,22.3,,,,,
2018,7,22,15:00,UTC,,1002.6,75,,,22.9,,,,,
2018,7,22,16:00,UTC,,1003.4,80,,,22,,,,,
2018,7,22,17:00,UTC,,1003.5,90,,,20.6,,,,,
2018,7,22,18:00,UTC,,1003.8,84,,,20.8,,,,,
2018,7,22,19:00,UTC,,1004.1,90,,,20.4,,,,,
2018,7,22,20:00,UTC,,1004.5,84,,,20.2,,,,,
2018,7,22,21:00,UTC,,1004.9,86,,,20,,,,,
2018,7,22,22:00,UTC,,1004.9,86,,,19.5,,,,,
2018,7,22,23:00,UTC,,1005.1,94,,,18.4,,,,,
2018,7,23,00:00,UTC,,1005.2,90,,,18.6,,,,,
2018,7,23,01:00,UTC,,1005.2,88,,,18.4,,,,,
2018,7,23,02:00,UTC,,1005.6,87,,,18.2,,,,,
2018,7,23,03:00,UTC,,1005.9,88,,,18.1,,,,,
2018,7,23,04:00,UTC,,1006,88,,,18.4,,,,,
2018,7,23,05:00,UTC,,1006.3,83,,,19.9,,,,,
2018,7,23,06:00,UTC,,1006.6,78,,,20.8,,,,,
2018,7,23,07:00,UTC,,1007.1,79,,,20.4,,,,,
2018,7,23,08:00,UTC,,1007.4,74,,,20.9,,,,,
2018,7,23,09:00,UTC,,1007.8,70,,,22.1,,,,,
2018,7,23,10:00,UTC,,1008,63,,,24,,,,,
2018,7,23,11:00,UTC,,1008.3,62,,,25.1,,,,,
2018,7,23,12:00,UTC,,1008.3,67,,,24.5,,,,,
2018,7,23,13:00,UTC,,1008.2,55,,,25,,,,,
2018,7,23,14:00,UTC,,1008.7,58,,,24.7,,,,,
2018,7,23,15:00,UTC,,1009.2,64,,,23.8,,,,,
2018,7,23,16:00,UTC,,1009.4,55,,,24.4,,,,,
2018,7,23,17:00,UTC,,1009.9,58,,,23.3,,,,,
2018,7,23,18:00,UTC,,1010.1,65,,,22.6,,,,,
2018,7,23,19:00,UTC,,1010.4,64,,,21.8,,,,,
2018,7,23,20:00,UTC,,1010.9,63,,,21.1,,,,,
2018,7,23,21:00,UTC,,1011,67,,,20.2,,,,,
2018,7,23,22:00,UTC,,1011.3,66,,,19.7,,,,,
2018,7,23,23:00,UTC,,1011.5,73,,,18,,,,,
2018,7,24,00:00,UTC,,1011.5,77,,,17.1,,,,,
2018,7,24,01:00,UTC,,1011.7,83,,,15.7,,,,,
2018,7,24,02:00,UTC,,1011.8,85,,,15.4,,,,,
2018,7,24,03:00,UTC,,1012,79,,,17.1,,,,,
2018,7,24,04:00,UTC,,1012.4,72,,,18.9,,,,,
2018,7,24,05:00,UTC,,1012.6,64,,,20.9,,,,,
2018,7,24,06:00,UTC,,1012.9,51,,,23.1,,,,,
2018,7,24,07:00,UTC,,1013.1,46,,,24.5,,,,,
2018,7,24,08:00,UTC,,1013.3,44,,,25.5,,,,,
2018,7,24,09:00,UTC,,1013.3,47,,,25.7,,,,,
2018,7,24,10:00,UTC,,1013.3,47,,,26,,,,,
2018,7,24,11:00,UTC,,1013.2,49,,,25.3,,,,,
2018,7,24,12:00,UTC,,1012.8,40,,,27.3,,,,,
2018,7,24,13:00,UTC,,1012.3,40,,,27.9,,,,,
2018,7,24,14:00,UTC,,1012.1,41,,,27.4,,,,,
2018,7,24,15:00,UTC,,1012,41,,,28.2,,,,,
2018,7,24,16:00,UTC,,1011.9,47,,,27.5,,,,,
2018,7,24,17:00,UTC,,1011.9,50,,,26.9,,,,,
2018,7,24,18:00,UTC,,1012.1,54,,,25.3,,,,,
2018,7,24,19:00,UTC,,1012.4,60,,,23.3,,,,,
2018,7,24,20:00,UTC,,1012.7,66,,,22,,,,,
2018,7,24,21:00,UTC,,1012.9,68,,,21.4,,,,,
2018,7,24,22:00,UTC,,1012.9,79,,,20.5,,,,,
2018,7,24,23:00,UTC,,1013.1,87,,,18.7,,,,,
2018,7,25,00:00,UTC,,1013.6,92,,,17.9,,,,,
2018,7,25,01:00,UTC,,1013.9,92,,,17,,,,,
2018,7,25,02:00,UTC,,1014.1,90,,,16.5,,,,,
2018,7,25,03:00,UTC,,1014.2,89,,,17.3,,,,,
2018,7,25,04:00,UTC,,1014.2,84,,,19.4,,,,,
2018,7,25,05:00,UTC,,1014.4,69,,,21.9,,,,,
2018,7,25,06:00,UTC,,1014.3,55,,,24,,,,,
2018,7,25,07:00,UTC,,1014.3,46,,,25.6,,,,,
2018,7,25,08:00,UTC,,1014.3,46,,,26.7,,,,,
2018,7,25,09:00,UTC,,1014.2,42,,,28.4,,,,,
2018,7,25,10:00,UTC,,1014.1,36,,,29.5,,,,,
2018,7,25,11:00,UTC,,1013.9,38,,,29.3,,,,,
2018,7,25,12:00,UTC,,1013.9,40,,,28.2,,,,,
2018,7,25,13:00,UTC,,1013.7,35,,,28.7,,,,,
2018,7,25,14:00,UTC,,1013.3,36,,,28.7,,,,,
2018,7,25,15:00,UTC,,1013.3,36,,,28.2,,,,,
2018,7,25,16:00,UTC,,1013.3,48,,,26.3,,,,,
2018,7,25,17:00,UTC,,1013.5,50,,,26.2,,,,,
2018,7,25,18:00,UTC,,1013.8,54,,,24.7,,,,,
2018,7,25,19:00,UTC,,1014.1,54,,,24.4,,,,,
2018,7,25,20:00,UTC,,1014.4,68,,,21.2,,,,,
2018,7,25,21:00,UTC,,1014.5,70,,,20.7,,,,,
2018,7,25,22:00,UTC,,1014.5,77,,,21,,,,,
2018,7,25,23:00,UTC,,1014.7,80,,,20.4,,,,,
2018,7,26,00:00,UTC,,1014.8,76,,,21.1,,,,,
2018,7,26,01:00,UTC,,1014.6,82,,,18.7,,,,,
2018,7,26,02:00,UTC,,1014.8,78,,,19.5,,,,,
2018,7,26,03:00,UTC,,1015,77,,,20.3,,,,,
2018,7,26,04:00,UTC,,1015.3,75,,,21.3,,,,,
2018,7,26,05:00,UTC,,1015.6,68,,,22.5,,,,,
2018,7,26,06:00,UTC,,1016,56,,,23.4,,,,,
2018,7,26,07:00,UTC,,1016.1,67,,,24,,,,,
2018,7,26,08:00,UTC,,1016.5,63,,,24.5,,,,,
2018,7,26,09:00,UTC,,1016.5,57,,,26,,,,,
2018,7,26,10:00,UTC,,1016.9,57,,,25.9,,,,,
2018,7,26,11:00,UTC,,1017.4,78,,,22.3,,,,,
2018,7,26,12:00,UTC,,1017.8,73,,,22.1,,,,,
2018,7,26,13:00,UTC,,1018.2,65,,,23,,,,,
2018,7,26,14:00,UTC,,1018.6,69,,,22.3,,,,,
2018,7,26,15:00,UTC,,1018.9,67,,,22.4,,,,,
2018,7,26,16:00,UTC,,1019,66,,,23.2,,,,,
2018,7,26,17:00,UTC,,1019.2,64,,,23,,,,,
2018,7,26,18:00,UTC,,1019.7,63,,,23,,,,,
2018,7,26,19:00,UTC,,1020.4,65,,,22.7,,,,,
2018,7,26,20:00,UTC,,1021.3,61,,,22,,,,,
2018,7,26,21:00,UTC,,1022.2,64,,,20.8,,,,,
2018,7,26,22:00,UTC,,1022.7,64,,,20.2,,,,,
2018,7,26,23:00,UTC,,1023.3,67,,,19.2,,,,,
2018,7,27,00:00,UTC,,1024,70,,,18.4,,,,,
2018,7,27,01:00,UTC,,1024.5,74,,,17.7,,,,,
2018,7,27,02:00,UTC,,1024.9,75,,,17,,,,,
2018,7,27,03:00,UTC,,1025.3,75,,,16.7,,,,,
2018,7,27,04:00,UTC,,1025.7,75,,,16.8,,,,,
2018,7,27,05:00,UTC,,1026.1,71,,,17.7,,,,,
2018,7,27,06:00,UTC,,1026.3,68,,,19,,,,,
2018,7,27,07:00,UTC,,1026.6,63,,,20.4,,,,,
2018,7,27,08:00,UTC,,1026.8,59,,,21.6,,,,,
2018,7,27,09:00,UTC,,1026.8,55,,,22.1,,,,,
2018,7,27,10:00,UTC,,1026.8,50,,,23.3,,,,,
2018,7,27,11:00,UTC,,1027,53,,,23,,,,,
2018,7,27,12:00,UTC,,1026.8,52,,,23.5,,,,,
2018,7,27,13:00,UTC,,1026.7,47,,,24.3,,,,,
2018,7,27,14:00,UTC,,1026.5,43,,,24.6,,,,,
2018,7,27,15:00,UTC,,1026.5,43,,,24.6,,,,,
2018,7,27,16:00,UTC,,1026.4,44,,,24.6,,,,,
2018,7,27,17:00,UTC,,1026.5,44,,,24.3,,,,,
2018,7,27,18:00,UTC,,1026.9,51,,,23.1,,,,,
2018,7,27,19:00,UTC,,1027.1,55,,,21.7,,,,,
2018,7,27,20:00,UTC,,1027.5,60,,,20.1,,,,,
2018,7,27,21:00,UTC,,1027.9,66,,,18.5,,,,,
2018,7,27,22:00,UTC,,1028.2,70,,,17.3,,,,,
2018,7,27,23:00,UTC,,1028.4,75,,,16.1,,,,,
2018,7,28,00:00,UTC,,1028.4,77,,,15.6,,,,,
2018,7,28,01:00,UTC,,1028.4,82,,,14.6,,,,,
2018,7,28,02:00,UTC,,1028.3,83,,,14.2,,,,,
2018,7,28,03:00,UTC,,1028.2,81,,,14.6,,,,,
2018,7,28,04:00,UTC,,1028.1,76,,,15.7,,,,,
2018,7,28,05:00,UTC,,1028,70,,,17.1,,,,,
2018,7,28,06:00,UTC,,1028,65,,,18.4,,,,,
2018,7,28,07:00,UTC,,1028.2,62,,,19.6,,,,,
2018,7,28,08:00,UTC,,1028,55,,,21.2,,,,,
2018,7,28,09:00,UTC,,1027.8,53,,,21.8,,,,,
2018,7,28,10:00,UTC,,1027.5,48,,,23,,,,,
2018,7,28,11:00,UTC,,1027,43,,,23.7,,,,,
2018,7,28,12:00,UTC,,1026.5,40,,,24.5,,,,,
2018,7,28,13:00,UTC,,1026.3,36,,,25.4,,,,,
2018,7,28,14:00,UTC,,1025.7,39,,,25.3,,,,,
2018,7,28,15:00,UTC,,1025.1,40,,,25.6,,,,,
2018,7,28,16:00,UTC,,1024.8,41,,,25.5,,,,,
2018,7,28,17:00,UTC,,1024.7,46,,,24.4,,,,,
2018,7,28,18:00,UTC,,1024.7,57,,,23.2,,,,,
2018,7,28,19:00,UTC,,1025,65,,,21,,,,,
2018,7,28,20:00,UTC,,1025.3,72,,,18.9,,,,,
2018,7,28,21:00,UTC,,1025.3,79,,,17.4,,,,,
2018,7,28,22:00,UTC,,1025.3,84,,,16.8,,,,,
2018,7,28,23:00,UTC,,1025.2,86,,,17,,,,,
2018,7,29,00:00,UTC,,1025,91,,,15.8,,,,,
2018,7,29,01:00,UTC,,1024.7,93,,,15.4,,,,,
2018,7,29,02:00,UTC,,1024.4,93,,,15.6,,,,,
2018,7,29,03:00,UTC,,1024.3,89,,,17.2,,,,,
2018,7,29,04:00,UTC,,1023.9,85,,,18.1,,,,,
2018,7,29,05:00,UTC,,1023.6,80,,,19.6,,,,,
2018,7,29,06:00,UTC,,1023.3,72,,,21.5,,,,,
2018,7,29,07:00,UTC,,1023.2,65,,,23.6,,,,,
2018,7,29,08:00,UTC,,1023,58,,,25.1,,,,,
2018,7,29,09:00,UTC,,1022.9,49,,,26.6,,,,,
2018,7,29,10:00,UTC,,1022.4,47,,,27.4,,,,,
2018,7,29,11:00,UTC,,1022,44,,,28.4,,,,,
2018,7,29,12:00,UTC,,1021.7,42,,,28.5,,,,,
2018,7,29,13:00,UTC,,1021.5,36,,,29.6,,,,,
2018,7,29,14:00,UTC,,1021.1,34,,,29.6,,,,,
2018,7,29,15:00,UTC,,1020.9,33,,,29.6,,,,,
2018,7,29,16:00,UTC,,1020.7,33,,,29,,,,,
2018,7,29,17:00,UTC,,1020.5,30,,,28.2,,,,,
2018,7,29,18:00,UTC,,1020.7,28,,,26.7,,,,,
2018,7,29,19:00,UTC,,1021,28,,,24.7,,,,,
2018,7,29,20:00,UTC,,1021.6,33,,,22.8,,,,,
2018,7,29,21:00,UTC,,1022,40,,,21.1,,,,,
2018,7,29,22:00,UTC,,1021.8,46,,,19.8,,,,,
2018,7,29,23:00,UTC,,1021.9,49,,,18.9,,,,,
2018,7,30,00:00,UTC,,1022.1,51,,,18.2,,,,,
2018,7,30,01:00,UTC,,1021.8,56,,,16.9,,,,,
2018,7,30,02:00,UTC,,1022,58,,,16.8,,,,,
2018,7,30,03:00,UTC,,1022.1,55,,,18.3,,,,,
2018,7,30,04:00,UTC,,1021.9,56,,,19,,,,,
2018,7,30,05:00,UTC,,1021.8,56,,,20.1,,,,,
2018,7,30,06:00,UTC,,1022,54,,,22.1,,,,,
2018,7,30,07:00,UTC,,1021.8,54,,,23.3,,,,,
2018,7,30,08:00,UTC,,1021.5,53,,,25,,,,,
2018,7,30,09:00,UTC,,1021.3,51,,,26.9,,,,,
2018,7,30,10:00,UTC,,1021.1,50,,,28.4,,,,,
2018,7,30,11:00,UTC,,1020.9,45,,,29.5,,,,,
2018,7,30,12:00,UTC,,1020.6,40,,,30.6,,,,,
2018,7,30,13:00,UTC,,1020.2,38,,,31.1,,,,,
2018,7,30,14:00,UTC,,1020,37,,,31.6,,,,,
2018,7,30,15:00,UTC,,1019.8,36,,,31.8,,,,,
2018,7,30,16:00,UTC,,1019.6,37,,,31.5,,,,,
2018,7,30,17:00,UTC,,1019.6,40,,,30.6,,,,,
2018,7,30,18:00,UTC,,1019.9,44,,,29.4,,,,,
2018,7,30,19:00,UTC,,1020.4,47,,,27.5,,,,,
2018,7,30,20:00,UTC,,1020.8,52,,,25.7,,,,,
2018,7,30,21:00,UTC,,1021.1,58,,,24.1,,,,,
2018,7,30,22:00,UTC,,1021.3,65,,,22.5,,,,,
2018,7,30,23:00,UTC,,1021.3,69,,,21.7,,,,,
2018,7,31,00:00,UTC,,1021.2,75,,,20.4,,,,,
2018,7,31,01:00,UTC,,1021.2,77,,,19.7,,,,,
2018,7,31,02:00,UTC,,1021.2,77,,,19.2,,,,,
2018,7,31,03:00,UTC,,1021.3,75,,,19.4,,,,,
2018,7,31,04:00,UTC,,1021.2,71,,,20.5,,,,,
2018,7,31,05:00,UTC,,1021.4,67,,,22.1,,,,,
2018,7,31,06:00,UTC,,1021.5,61,,,24.2,,,,,
2018,7,31,07:00,UTC,,1021.5,57,,,26.4,,,,,
2018,7,31,08:00,UTC,,1021.7,55,,,26.7,,,,,
2018,7,31,09:00,UTC,,1021.5,50,,,29,,,,,
2018,7,31,10:00,UTC,,1021.4,52,,,28.7,,,,,
2018,7,31,11:00,UTC,,1021.2,47,,,30.1,,,,,
2018,7,31,12:00,UTC,,1020.9,44,,,30.3,,,,,
2018,7,31,13:00,UTC,,1020.5,42,,,31.2,,,,,
2018,7,31,14:00,UTC,,1019.9,46,,,30,,,,,
2018,7,31,15:00,UTC,,1019.5,44,,,29.9,,,,,
2018,7,31,16:00,UTC,,1019.3,45,,,30.1,,,,,
2018,7,31,17:00,UTC,,1019.3,33,,,30.9,,,,,
2018,7,31,18:00,UTC,,1019.5,38,,,29.4,,,,,
2018,7,31,19:00,UTC,,1019.5,46,,,26.5,,,,,
2018,7,31,20:00,UTC,,1019.6,44,,,25.2,,,,,
2018,7,31,21:00,UTC,,1019.6,43,,,23.3,,,,,
2018,7,31,22:00,UTC,,1019.7,48,,,21.1,,,,,
2018,7,31,23:00,UTC,,1019.9,53,,,19.7,,,,,
2018,8,1,00:00,UTC,,1019.8,59,,,18.2,,50000,75.1,3.7,3.1
2018,8,1,01:00,UTC,,1019.9,64,,,17.2,,50000,80.3,2.5,1.8
2018,8,1,02:00,UTC,,1020.1,67,,,17.1,,44785,75.1,2.3,1.8
2018,8,1,03:00,UTC,,1020.2,66,,,17.9,,47507,72,2.7,2.1
2018,8,1,04:00,UTC,,1020.3,68,,,19.3,,44204,75.1,2.3,1.7
2018,8,1,05:00,UTC,,1020.2,71,,,22.4,,42017,108,4.6,1.6
2018,8,1,06:00,UTC,,1020.1,74,,,23.1,,44770,121.4,2.3,1.2
2018,8,1,07:00,UTC,,1020,67,,,25.3,,36511,97.7,2.6,1.3
2018,8,1,08:00,UTC,,1020,63,,,26,,49106,90.5,4.2,2.4
2018,8,1,09:00,UTC,,1020,57,,,27.6,,34396,95.7,3.1,1.8
2018,8,1,10:00,UTC,,1019.5,49,,,28.7,,33551,102.4,4.9,2.8
2018,8,1,11:00,UTC,,1019.1,57,,,28.5,,27495,183.1,4.3,2.4
2018,8,1,12:00,UTC,,1019,49,,,29,,34809,150.2,6.7,4.7
2018,8,1,13:00,UTC,,1019.2,53,,,27.6,,48637,137.9,9.6,6
2018,8,1,14:00,UTC,,1018.7,53,,,27.4,,45449,98.3,3.9,2.8
2018,8,1,15:00,UTC,,1018.6,56,,,27.4,,50000,137.4,4.4,3.4
2018,8,1,16:00,UTC,,1018.4,58,,,26.8,,36431,141.5,5.6,4.1
2018,8,1,17:00,UTC,,1018.6,61,,,26,,49988,142.5,5.9,4.2
2018,8,1,18:00,UTC,,1018.5,62,,,25.6,,48751,150.7,4.1,2.6
2018,8,1,19:00,UTC,,1018.7,71,,,25,,50000,118.3,2.5,1.7
2018,8,1,20:00,UTC,,1018.4,62,,,24.4,,50000,129.6,5.2,3.6
2018,8,1,21:00,UTC,,1018.2,72,,,22.8,,41148,113.2,2.7,2.2
2018,8,1,22:00,UTC,,1017.9,73,,,22,,47055,91.6,3.2,2.5
2018,8,1,23:00,UTC,,1018.1,77,,,21.5,,47473,102.4,3.5,2.8
2018,8,2,00:00,UTC,,1018.2,77,,,21.3,,45701,119.4,1.7,1.1
2018,8,2,01:00,UTC,,1017.9,79,,,21,,46749,107.5,2.2,1.7
2018,8,2,02:00,UTC,,1017.7,81,,,20.6,,48817,104.9,3.3,2.5
2018,8,2,03:00,UTC,,1017.8,80,,,21.2,,33679,95.7,2.7,2
2018,8,2,04:00,UTC,,1017.5,78,,,22,,35940,103.4,4.2,3.1
2018,8,2,05:00,UTC,,1017.3,70,,,23.3,,43000,102.4,5.2,3.6
2018,8,2,06:00,UTC,,1017.1,71,,,23.9,,21058,123,5,3.5
2018,8,2,07:00,UTC,,1017.3,70,,,24.5,,50000,133.8,4.6,2.7
2018,8,2,08:00,UTC,,1017,66,,,25.5,,28501,116.3,3.5,1.9
2018,8,2,09:00,UTC,,1016.8,63,,,26.3,,50000,121.9,4.5,3
2018,8,2,10:00,UTC,,1016.7,69,,,25.8,,26061,143.5,6,4.1
2018,8,2,11:00,UTC,,1016.4,78,,,24.2,,29990,146.1,10.2,7.6
2018,8,2,12:00,UTC,,1015.8,74,,,25.3,,22724,140.4,8.8,6.7
2018,8,2,13:00,UTC,,1015.1,75,,,24.6,,46902,144,10.5,7.8
2018,8,2,14:00,UTC,,1015,76,,,24.5,,34097,141,8.4,6.7
2018,8,2,15:00,UTC,,1014.8,71,,,24.7,,28240,141,6.9,5.1
2018,8,2,16:00,UTC,,1014.6,69,,,24.8,,38164,131.2,5.7,4.2
2018,8,2,17:00,UTC,,1013.9,70,,,24.5,,35885,127.6,7.7,5.3
2018,8,2,18:00,UTC,,1013.8,67,,,24.7,,39719,131.2,7.2,5
2018,8,2,19:00,UTC,,1014.2,74,,,23.5,,49060,148.7,3.6,2.5
2018,8,2,20:00,UTC,,1013.8,80,,,22.1,,44205,138.9,2.3,1.6
2018,8,2,21:00,UTC,,1013.2,83,,,21.4,,48038,106,2.3,2
2018,8,2,22:00,UTC,,1013.3,77,,,21.8,,50000,103.9,7.3,4.3
2018,8,2,23:00,UTC,,1012.1,76,,,21.1,,50000,101.3,6.5,4.7
2018,8,3,00:00,UTC,,1012.8,84,,,19.8,,50000,104.4,4.6,3.6
2018,8,3,01:00,UTC,,1012.6,84,,,19.8,,50000,72,1.9,1.1
2018,8,3,02:00,UTC,,1012.6,85,,,19.4,,44641,22.1,2.4,1.5
2018,8,3,03:00,UTC,,1012.2,85,,,19.2,,49479,53,3.7,2.5
2018,8,3,04:00,UTC,,1011.3,84,,,18,,49420,55.6,7,4.7
2018,8,3,05:00,UTC,,1010.5,91,,,18.1,,37953,71,5.5,4.3
2018,8,3,06:00,UTC,,1010.7,88,,,19.8,,42786,89,5.7,3.5
2018,8,3,07:00,UTC,,1010.4,88,,,19.9,,49529,74.1,6.6,4.5
2018,8,3,08:00,UTC,,1010.3,92,,,19.2,,15333,96.2,1.9,1.2
2018,8,3,09:00,UTC,,,93,,,19.1,,26763,95.7,4.9,3.3
2018,8,3,10:00,UTC,,1009.9,90,,,19.7,,30168,64.3,2.3,1.3
2018,8,3,11:00,UTC,,1009.8,79,,,20.8,,43322,93.6,4.6,2.8
2018,8,3,12:00,UTC,,1009.5,72,,,22.1,,43581,123,5.1,2.7
2018,8,3,13:00,UTC,,1008.7,67,,,23.4,,26999,97.7,4.1,1.8
2018,8,3,14:00,UTC,,1008.2,69,,,22.8,,50000,141.5,4.2,2.6
2018,8,3,15:00,UTC,,1008,69,,,23.2,,34038,146.6,2.4,1.5
2018,8,3,16:00,UTC,,1008.2,75,,,22.4,,50000,142,5,3
2018,8,3,17:00,UTC,,1007.4,74,,,22.7,,33580,151.8,4.2,3
2018,8,3,18:00,UTC,,1007.6,82,,,21.5,,39039,144,5.3,3.5
2018,8,3,19:00,UTC,,1007.6,85,,,20.3,,41922,156.9,2.7,1.8
2018,8,3,20:00,UTC,,1007.6,90,,,19.4,,49364,117.8,1,0.6
2018,8,3,21:00,UTC,,1007.3,88,,,19.9,,50000,138.9,3.4,2.3
2018,8,3,22:00,UTC,,1007.1,83,,,19.8,,49869,139.9,4.4,2.9
2018,8,3,23:00,UTC,,1006.8,82,,,19.5,,50000,143,5.7,4.2
2018,8,4,00:00,UTC,,1006.7,87,,,19,,48835,159,4,2.9
2018,8,4,01:00,UTC,,1006.6,82,,,18.9,,50000,167.2,5.2,3.7
2018,8,4,02:00,UTC,,1006.5,84,,,17.8,,50000,155.9,3.1,2.4
2018,8,4,03:00,UTC,,1006.4,77,,,18.6,,50000,147.1,3.5,2.6
2018,8,4,04:00,UTC,,1006.1,76,,,18.7,,50000,157.4,3,2.2
2018,8,4,05:00,UTC,,1006.2,74,,,19,,50000,162,6,4
2018,8,4,06:00,UTC,,1006,71,,,19.1,,21689,159.5,6.2,4.3
2018,8,4,07:00,UTC,,1006.1,68,,,19.4,,44644,160.5,6.3,4.6
2018,8,4,08:00,UTC,,1005.9,69,,,19.7,,45337,157.9,6.6,4.6
2018,8,4,09:00,UTC,,1006.1,68,,,19.6,,32159,152.3,6.4,4.4
2018,8,4,10:00,UTC,,1006,64,,,20.9,,36725,159,7,4.4
2018,8,4,11:00,UTC,,1005.8,62,,,20.8,,22534,164.1,8.9,5.2
2018,8,4,12:00,UTC,,1005.9,60,,,21.1,,35344,160,8.1,5.2
2018,8,4,13:00,UTC,,1005.8,59,,,21.4,,50000,151.8,8.5,5.3
2018,8,4,14:00,UTC,,1005.6,56,,,21.8,,50000,166.7,5.7,3.7
2018,8,4,15:00,UTC,,1005.3,57,,,21.7,,50000,145.1,6.3,4.6
2018,8,4,16:00,UTC,,1005,57,,,22,,42222,139.4,6.5,4.8
2018,8,4,17:00,UTC,,1004.9,54,,,21.6,,49952,151.2,6.5,4.9
2018,8,4,18:00,UTC,,1004.7,59,,,20.8,,50000,150.7,5.8,4.4
2018,8,4,19:00,UTC,,1004.5,68,,,20,,50000,141.5,5.2,3.9
2018,8,4,20:00,UTC,,1004.3,71,,,19.7,,50000,142.5,5.5,4.3
2018,8,4,21:00,UTC,,1003.8,77,,,19.1,,50000,149.2,5.1,4
2018,8,4,22:00,UTC,,1003.6,81,,,18.6,,50000,147.6,4,3.3
2018,8,4,23:00,UTC,,1003.3,84,,,18.5,,50000,139.4,3,2.6
2018,8,5,00:00,UTC,,1002.9,88,,,18,,50000,147.1,2.3,1.9
2018,8,5,01:00,UTC,,1002.8,86,,,17.3,,50000,163.6,3.7,2.8
2018,8,5,02:00,UTC,,1002.8,90,,,16.1,,50000,172.3,1.4,0.8
2018,8,5,03:00,UTC,,1002.6,89,,,16.4,,47745,43.2,0.9,0.4
2018,8,5,04:00,UTC,,1002.6,86,,,17.2,,47215,26.8,4.2,2.6
2018,8,5,05:00,UTC,,1002.3,77,,,17,,50000,39.1,4.5,2.8
2018,8,5,06:00,UTC,,1002.1,70,,,18.4,,36238,31.9,3.9,2.5
2018,8,5,07:00,UTC,,1001.9,66,,,20,,50000,31.4,3.9,1.8
2018,8,5,08:00,UTC,,1001.5,60,,,21.1,,37642,31.9,3.4,2.1
2018,8,5,09:00,UTC,,1001.5,57,,,21.1,,43924,178.5,3,1.5
2018,8,5,10:00,UTC,,1001.3,64,,,20.5,,37433,165.1,4.8,3.4
2018,8,5,11:00,UTC,,1001.4,68,,,19.4,,43720,19,3,1.7
2018,8,5,12:00,UTC,,1001.1,59,,,20.9,,50000,26.2,3,1.4
2018,8,5,13:00,UTC,,1000.8,54,,,21.5,,50000,17,3.9,2.4
2018,8,5,14:00,UTC,,1000.5,63,,,20.2,,39313,28.3,4.4,2.8
2018,8,5,15:00,UTC,,1000.1,65,,,19.8,,50000,18,4.4,2.7
2018,8,5,16:00,UTC,,999.7,63,,,19.6,,50000,35.5,2.4,1.6
2018,8,5,17:00,UTC,,999.6,59,,,19.8,,50000,41.7,1.3,0.8
2018,8,5,18:00,UTC,,999.3,62,,,19.3,,50000,118.8,2.2,1.6
2018,8,5,19:00,UTC,,998.8,69,,,18.5,,50000,184.7,1.6,0.9
2018,8,5,20:00,UTC,,998.5,75,,,17.3,,48984,69.4,0.9,0.4
2018,8,5,21:00,UTC,,997.9,82,,,16.3,,50000,86.4,2.1,1.7
2018,8,5,22:00,UTC,,997.6,85,,,15.4,,50000,88,4.9,2
2018,8,5,23:00,UTC,,996.8,83,,,15.7,,50000,115.2,2.7,1.8
2018,8,6,00:00,UTC,,996.7,83,,,16.1,,50000,107,2.6,1.6
2018,8,6,01:00,UTC,,996.2,87,,,15.4,,50000,66.9,2.1,1.2
2018,8,6,02:00,UTC,,995.8,83,,,15.1,,50000,99.3,3.7,2.5
2018,8,6,03:00,UTC,,995.3,86,,,14.4,,50000,88.5,4.3,3
2018,8,6,04:00,UTC,,995,86,,,14.4,,50000,97.2,5,3.6
2018,8,6,05:00,UTC,,994.9,83,,,14.4,,50000,100.8,5.6,3.2
2018,8,6,06:00,UTC,,995,78,,,14.9,,50000,106.5,5.1,3.3
2018,8,6,07:00,UTC,,995.1,74,,,15.5,,50000,98.3,5.8,4.1
2018,8,6,08:00,UTC,,995.2,67,,,16.3,,50000,114.2,5.4,3.3
2018,8,6,09:00,UTC,,995.6,88,,,14.4,,50000,154.3,3.7,2
2018,8,6,10:00,UTC,,995.8,92,,,14.1,,21759,12.3,8.1,5.3
2018,8,6,11:00,UTC,,996.9,90,,,14.6,,35906,22.1,4.5,2.7
2018,8,6,12:00,UTC,,997.8,88,,,14.6,,37728,3.1,5.8,3.7
2018,8,6,13:00,UTC,,998.3,85,,,15.1,,50000,174.9,4,2.4
2018,8,6,14:00,UTC,,999,80,,,16,,50000,176.5,5.8,3.2
2018,8,6,15:00,UTC,,999.6,70,,,16.6,,42533,182.6,4.1,2.7
2018,8,6,16:00,UTC,,1000.1,72,,,16.1,,50000,167.2,3.7,2.4
2018,8,6,17:00,UTC,,1000.4,63,,,16.9,,43742,156.4,2.8,2.2
2018,8,6,18:00,UTC,,1000.5,73,,,16.3,,50000,137.9,1.8,1.4
2018,8,6,19:00,UTC,,1001,65,,,16.1,,50000,9.3,4.7,2.9
2018,8,6,20:00,UTC,,1001.8,72,,,15.1,,50000,177.5,5.5,3.3
2018,8,6,21:00,UTC,,1002.4,72,,,14.6,,50000,178,5,3.1
2018,8,6,22:00,UTC,,1003,78,,,13.8,,50000,180.6,5.7,3.1
2018,8,6,23:00,UTC,,1003.5,79,,,13.2,,47357,184.7,5.5,2.9
2018,8,7,00:00,UTC,,1004,83,,,12.4,,50000,178.5,4,2.1
2018,8,7,01:00,UTC,,1004.6,83,,,12,,50000,2.6,4.9,3.1
2018,8,7,02:00,UTC,,1005.1,82,,,11.4,,50000,2.6,4.9,2.7
2018,8,7,03:00,UTC,,1005.6,79,,,11,,48583,6.7,4.2,2.6
2018,8,7,04:00,UTC,,1006.2,74,,,11.8,,38082,24.7,3.8,2.4
2018,8,7,05:00,UTC,,1006.7,69,,,12.6,,50000,21.6,3.6,2.5
2018,8,7,06:00,UTC,,1007.1,59,,,13.9,,49890,34,3.3,1.9
2018,8,7,07:00,UTC,,1007.6,46,,,14.8,,45575,23.7,3.2,2
2018,8,7,08:00,UTC,,1008,46,,,16.1,,50000,178.5,1.8,0.7
2018,8,7,09:00,UTC,,1008.2,52,,,16.2,,43737,144.6,3.7,2.3
2018,8,7,10:00,UTC,,1008.5,48,,,16.6,,48366,132.2,4.9,3.1
2018,8,7,11:00,UTC,,1008.7,48,,,16.6,,38615,129.1,4.1,3
2018,8,7,12:00,UTC,,1008.8,53,,,16.9,,36943,137.4,4.9,3.2
2018,8,7,13:00,UTC,,1008.8,53,,,17.7,,44316,142,6.2,4.2
2018,8,7,14:00,UTC,,1008.8,48,,,17.9,,50000,147.1,5.8,4.1
2018,8,7,15:00,UTC,,1009,48,,,18.3,,50000,140.4,5,3.3
2018,8,7,16:00,UTC,,1009.2,56,,,18.2,,50000,143,6,4.6
2018,8,7,17:00,UTC,,1009.4,56,,,18,,50000,147.1,5.3,3.9
2018,8,7,18:00,UTC,,1009.7,61,,,16.9,,50000,155.4,2.5,2
2018,8,7,19:00,UTC,,1010.2,69,,,15.6,,50000,40.6,0.8,0.5
2018,8,7,20:00,UTC,,1010.6,74,,,14.5,,50000,40.1,2.7,1.8
2018,8,7,21:00,UTC,,1010.7,78,,,13,,50000,72,3,2.5
2018,8,7,22:00,UTC,,1010.8,86,,,11.2,,50000,62.2,3.4,2.8
2018,8,7,23:00,UTC,,1011.1,88,,,11.3,,47904,74.6,3.2,2.1
2018,8,8,00:00,UTC,,1010.9,91,,,10.8,,50000,75.1,2.9,2.3
2018,8,8,01:00,UTC,,1011.1,94,,,10.1,,49198,78.2,2.2,1.8
2018,8,8,02:00,UTC,,1011.1,95,,,10.6,,50000,84.4,2.8,2.3
2018,8,8,03:00,UTC,,1011,93,,,11.1,,50000,82.8,3,2.1
2018,8,8,04:00,UTC,,1011.3,90,,,11.9,,43816,76.7,3.1,2.6
2018,8,8,05:00,UTC,,1011.4,88,,,14,,50000,83.3,3.9,2.8
2018,8,8,06:00,UTC,,1011.5,80,,,17.4,,39384,99.8,5.4,3.6
2018,8,8,07:00,UTC,,1011.6,74,,,18.5,,50000,107.5,6,4.4
2018,8,8,08:00,UTC,,1011.7,69,,,19.4,,27203,103.4,6.1,3.9
2018,8,8,09:00,UTC,,1012,62,,,21.1,,33447,115.7,5.5,3.6
2018,8,8,10:00,UTC,,1012,56,,,21.9,,46087,122.4,8.4,6
2018,8,8,11:00,UTC,,1011.9,52,,,22.5,,26151,125.5,8.7,5.9
2018,8,8,12:00,UTC,,1011.8,39,,,23.9,,38257,129.1,7.8,5.7
2018,8,8,13:00,UTC,,1011.7,40,,,24,,29926,135.3,6.6,4.5
2018,8,8,14:00,UTC,,1011.9,41,,,23.8,,50000,138.4,7.5,5.1
2018,8,8,15:00,UTC,,1011.5,39,,,23.6,,50000,127.6,8.1,4.7
2018,8,8,16:00,UTC,,1011.1,42,,,23.6,,50000,119.9,6.3,4
2018,8,8,17:00,UTC,,1010.8,44,,,23.3,,50000,106.5,3.2,2.3
2018,8,8,18:00,UTC,,1010.7,52,,,22.2,,50000,82.8,2.4,1.3
2018,8,8,19:00,UTC,,1010.7,61,,,20.7,,50000,87.5,2.1,1.6
2018,8,8,20:00,UTC,,1010.7,66,,,19.5,,50000,91.6,2.5,2
2018,8,8,21:00,UTC,,1010.5,65,,,18.8,,50000,78.2,3.5,2.9
2018,8,8,22:00,UTC,,1010.3,59,,,18.1,,50000,72.5,4.4,3.4
2018,8,8,23:00,UTC,,1009.8,66,,,18,,50000,77.2,4.5,3.3
2018,8,9,00:00,UTC,,1009.2,65,,,18.8,,50000,81.8,5.2,3.7
2018,8,9,01:00,UTC,,1009,70,,,18.7,,47258,78.2,5.1,3.4
2018,8,9,02:00,UTC,,1008.8,73,,,18.4,,50000,75.6,6.4,4.1
2018,8,9,03:00,UTC,,1008.6,73,,,18.4,,50000,77.7,5.3,3
2018,8,9,04:00,UTC,,1008,71,,,19.1,,50000,80.8,5.5,4
2018,8,9,05:00,UTC,,1007.6,70,,,19.4,,45881,80.3,6.3,4.4
2018,8,9,06:00,UTC,,1007.6,85,,,18.1,,46322,85.4,5.6,3.6
2018,8,9,07:00,UTC,,1007.2,72,,,21.1,,49747,93.1,7.7,4.4
2018,8,9,08:00,UTC,,1007.1,68,,,22.1,,46510,96.2,6,4.1
2018,8,9,09:00,UTC,,1007.1,62,,,23.1,,42771,100.3,8.2,5
2018,8,9,10:00,UTC,,1006.9,53,,,25.8,,28497,112.7,10.4,6.6
2018,8,9,11:00,UTC,,1006.8,49,,,26.6,,50000,111.6,12.5,7.5
2018,8,9,12:00,UTC,,1007.2,48,,,26.6,,50000,118.3,14.6,9.2
2018,8,9,13:00,UTC,,1007.5,53,,,26.1,,49453,121.9,14.2,8.8
2018,8,9,14:00,UTC,,1007.8,56,,,25.4,,50000,124,12.9,8.6
2018,8,9,15:00,UTC,,1008.2,52,,,25.4,,40994,121.4,12.7,8.9
2018,8,9,16:00,UTC,,1008.4,55,,,24.5,,50000,123.5,13.1,8.3
2018,8,9,17:00,UTC,,1009.3,65,,,22.7,,50000,127.6,10.5,7.4
2018,8,9,18:00,UTC,,1009.7,75,,,21.3,,42907,129.6,7.9,6
2018,8,9,19:00,UTC,,1010.2,82,,,20.2,,50000,126,6,4.1
2018,8,9,20:00,UTC,,1010.7,87,,,19.5,,45828,123,5.2,3.3
2018,8,9,21:00,UTC,,1011.4,91,,,18.9,,34428,120.9,5,3
2018,8,9,22:00,UTC,,1011.6,94,,,18.4,,18547,116.3,4.2,3
2018,8,9,23:00,UTC,,1011.8,96,,,18.1,,15782,119.4,4.2,3.1
2018,8,10,00:00,UTC,,1012.2,96,,,17.5,,11559,122.4,2.8,1.9
2018,8,10,01:00,UTC,,1012.6,97,,,17,,1425,109.1,2.4,1.6
2018,8,10,02:00,UTC,,1013,98,,,16.2,,535,142.5,1.3,1.1
2018,8,10,03:00,UTC,,1012.7,98,,,16.7,,286,70,3,1.3
2018,8,10,04:00,UTC,,1013.3,98,,,16.3,,371,75.6,1.8,1.3
2018,8,10,05:00,UTC,,1013.1,98,,,15.7,,388,71,3.3,2.4
2018,8,10,06:00,UTC,,1013.1,98,,,16.3,,1789,44.2,2.6,1.3
2018,8,10,07:00,UTC,,1012.8,98,,,17.3,,36220,57.1,3.8,2.7
2018,8,10,08:00,UTC,,1012.7,78,,,20,,46940,73.6,6,4.8
2018,8,10,09:00,UTC,,1012.4,73,,,21.9,,40959,66.9,4.2,2.8
2018,8,10,10:00,UTC,,1011.6,63,,,23.3,,37635,50.4,4.3,2.7
2018,8,10,11:00,UTC,,1010.7,60,,,24.4,,36560,43.7,4.5,2.8
2018,8,10,12:00,UTC,,1010,61,,,25.2,,32688,22.1,5.4,3.5
2018,8,10,13:00,UTC,,1009.2,53,,,26.7,,27577,44.8,5.5,3
2018,8,10,14:00,UTC,,1008.4,56,,,26.4,,50000,46.8,6.2,4.4
2018,8,10,15:00,UTC,,1007.8,52,,,27.2,,50000,67.4,4.5,2.9
2018,8,10,16:00,UTC,,1006.8,57,,,25.9,,45102,37.6,2.8,2
2018,8,10,17:00,UTC,,1005.5,68,,,24.4,,43621,32.4,4.9,3.5
2018,8,10,18:00,UTC,,1006.8,90,,,21.2,,4914,96.2,8.3,4.4
2018,8,10,19:00,UTC,,1005.6,94,,,20.3,,13647,84.4,2.9,1.8
2018,8,10,20:00,UTC,,1005.3,95,,,20,,35503,68.9,6.9,5.2
2018,8,10,21:00,UTC,,1004.8,93,,,20,,48487,72.5,4.7,3.4
2018,8,10,22:00,UTC,,1004.4,94,,,19.8,,37369,67.9,4.4,3.5
2018,8,10,23:00,UTC,,1004.3,93,,,19.9,,28103,79.7,3.9,2.6
2018,8,11,00:00,UTC,,1003.9,92,,,19.9,,38048,82.3,4.6,3
2018,8,11,01:00,UTC,,1003.9,93,,,19.3,,21626,76.7,3.3,2.5
2018,8,11,02:00,UTC,,1003.6,93,,,19.1,,23570,76.1,4,2.9
2018,8,11,03:00,UTC,,1003.6,91,,,19,,33332,95.7,4.3,2.8
2018,8,11,04:00,UTC,,1003.6,83,,,19,,50000,103.4,5.8,3.8
2018,8,11,05:00,UTC,,1003.7,73,,,18.4,,35351,105.5,6.8,4.2
2018,8,11,06:00,UTC,,1003.3,67,,,19.2,,50000,99.8,8.6,6
2018,8,11,07:00,UTC,,1003.5,58,,,19.7,,31712,101.3,9.7,6.4
2018,8,11,08:00,UTC,,1003.4,57,,,19.4,,48572,104.9,10.2,6.9
2018,8,11,09:00,UTC,,1003.7,51,,,20.1,,50000,106,14.5,9
2018,8,11,10:00,UTC,,1004.1,54,,,19.2,,39881,103.4,12.2,7.7
2018,8,11,11:00,UTC,,1004.1,52,,,19,,50000,106.5,13.6,9
2018,8,11,12:00,UTC,,1004.3,55,,,19.3,,38169,110.1,10,6.9
2018,8,11,13:00,UTC,,1004.5,57,,,19.6,,50000,118.8,12.9,8.9
2018,8,11,14:00,UTC,,1004.8,56,,,19.3,,50000,115.7,13.7,8.4
2018,8,11,15:00,UTC,,1004.9,48,,,19.4,,50000,119.9,14.7,10.3
2018,8,11,16:00,UTC,,1005,48,,,19.4,,46808,114.7,12.4,7.8
2018,8,11,17:00,UTC,,1005,50,,,19,,50000,115.2,13,7.6
2018,8,11,18:00,UTC,,1004.9,56,,,18.1,,50000,112.7,10.4,6.9
2018,8,11,19:00,UTC,,1004.7,59,,,17.4,,50000,116.8,9.6,6.1
2018,8,11,20:00,UTC,,1004.7,61,,,16.7,,50000,118.8,7.5,5
2018,8,11,21:00,UTC,,1004.3,60,,,16.3,,50000,122.4,7.2,5.1
2018,8,11,22:00,UTC,,1004.3,48,,,16.4,,50000,137.4,14.7,9.6
2018,8,11,23:00,UTC,,1004,50,,,15.9,,50000,134.3,12.4,8.1
2018,8,12,00:00,UTC,,1003.6,55,,,15.6,,50000,130.2,11.6,8.5
2018,8,12,01:00,UTC,,1003.5,57,,,14.9,,50000,134.8,12.5,7.6
2018,8,12,02:00,UTC,,1003.1,62,,,14.8,,50000,134.8,8,5.6
2018,8,12,03:00,UTC,,1002.8,67,,,13.7,,50000,115.7,5,3.2
2018,8,12,04:00,UTC,,1002.3,69,,,13.5,,49067,106.5,5.4,4
2018,8,12,05:00,UTC,,1002.1,67,,,14.7,,43677,106.5,5.6,3.5
2018,8,12,06:00,UTC,,1001.6,64,,,14.7,,50000,125,8.2,5.9
2018,8,12,07:00,UTC,,1001.4,61,,,15.3,,50000,133.8,7.7,5.3
2018,8,12,08:00,UTC,,1001.1,57,,,16.3,,40316,126,7.9,5.6
2018,8,12,09:00,UTC,,1000.8,51,,,16.8,,49335,124,8.9,5.6
2018,8,12,10:00,UTC,,1000.5,45,,,17.1,,37966,121.9,8.4,6.2
2018,8,12,11:00,UTC,,1000.2,50,,,17.6,,48922,132.2,9.7,6.1
2018,8,12,12:00,UTC,,999.9,52,,,16.2,,26285,142.5,11.1,8.8
2018,8,12,13:00,UTC,,999.6,54,,,16,,44426,140.4,9.9,7.2
2018,8,12,14:00,UTC,,999.4,55,,,16.2,,38120,137.9,8,6.1
2018,8,12,15:00,UTC,,998.7,49,,,17,,43167,136.3,7.3,5.4
2018,8,12,16:00,UTC,,998.1,55,,,16.3,,50000,122.4,5.9,3.8
2018,8,12,17:00,UTC,,997.5,55,,,16.3,,50000,117.3,5.8,3.6
2018,8,12,18:00,UTC,,997.1,58,,,16,,50000,119.9,6.3,3.8
2018,8,12,19:00,UTC,,996.5,66,,,15.2,,47817,112.1,3.8,2.7
2018,8,12,20:00,UTC,,995.9,69,,,14.9,,50000,114.2,4.9,3.3
2018,8,12,21:00,UTC,,995.4,74,,,14.4,,50000,118.8,3.6,2.4
2018,8,12,22:00,UTC,,995.1,74,,,14.3,,50000,111.6,6.4,2.6
2018,8,12,23:00,UTC,,994.7,72,,,14.4,,50000,118.8,2.6,1.9
2018,8,13,00:00,UTC,,994.3,74,,,14.5,,50000,115.2,3.5,2.5
2018,8,13,01:00,UTC,,994.1,75,,,14.2,,50000,119.9,3.6,2.7
2018,8,13,02:00,UTC,,993.9,79,,,13.7,,50000,119.9,5.5,3.4
2018,8,13,03:00,UTC,,993.5,86,,,13.7,,50000,118.3,3.7,2.4
2018,8,13,04:00,UTC,,993.1,94,,,13.6,,50000,123,4.1,2.9
2018,8,13,05:00,UTC,,993.3,89,,,14.4,,50000,149.2,1.5,0.9
2018,8,13,06:00,UTC,,993.6,93,,,13.4,,1766,178.5,3.6,2.3
2018,8,13,07:00,UTC,,994.4,95,,,13.3,,39050,169.3,8,4.9
2018,8,13,08:00,UTC,,995.1,89,,,13.8,,10588,166.2,8.7,5.9
2018,8,13,09:00,UTC,,995.8,86,,,14,,45868,161,8.6,5.6
2018,8,13,10:00,UTC,,996.7,89,,,13,,8570,161.5,9.8,6.5
2018,8,13,11:00,UTC,,997.3,75,,,13.8,,50000,162.6,9.2,6.3
2018,8,13,12:00,UTC,,997.9,69,,,14.3,,49100,160.5,10.1,7.1
2018,8,13,13:00,UTC,,998.6,69,,,14.4,,38300,164.6,9.6,6.8
2018,8,13,14:00,UTC,,999.3,64,,,14.8,,50000,163.1,10.9,7.3
2018,8,13,15:00,UTC,,999.8,67,,,14,,50000,165.7,7.6,4.9
2018,8,13,16:00,UTC,,1000.1,69,,,14,,50000,161.5,5.8,4
2018,8,13,17:00,UTC,,1000.4,63,,,14.5,,50000,164.6,8.3,5.1
2018,8,13,18:00,UTC,,1000.9,80,,,12.7,,50000,168.2,8.3,4.1
2018,8,13,19:00,UTC,,1001.5,67,,,13.5,,34591,165.1,7.1,4.4
2018,8,13,20:00,UTC,,1001.8,67,,,13.4,,50000,157.9,4.7,3.2
2018,8,13,21:00,UTC,,1002.1,62,,,13.4,,50000,163.1,7.6,4.6
2018,8,13,22:00,UTC,,1002.5,60,,,13.5,,50000,166.7,6.4,4.4
2018,8,13,23:00,UTC,,1002.9,67,,,13.1,,50000,159.5,5.5,2.9
2018,8,14,00:00,UTC,,1003.2,69,,,13,,50000,169.3,4.2,3
2018,8,14,01:00,UTC,,1003.9,70,,,12.3,,50000,165.7,4.5,3.2
2018,8,14,02:00,UTC,,1004.3,72,,,11.9,,50000,171.8,5.5,3.5
2018,8,14,03:00,UTC,,1004.7,80,,,10.9,,50000,181.6,2.8,1.5
2018,8,14,04:00,UTC,,1005.1,73,,,11.7,,47855,172.3,4.3,2.6
2018,8,14,05:00,UTC,,1005.5,69,,,12.3,,45174,172.3,5.4,3.1
2018,8,14,06:00,UTC,,1006,72,,,12,,49291,169.3,5.7,3.5
2018,8,14,07:00,UTC,,1006.6,61,,,12.2,,50000,167.2,6.3,3.9
2018,8,14,08:00,UTC,,1006.9,58,,,12.7,,32031,166.2,5.9,3.8
2018,8,14,09:00,UTC,,1007.3,62,,,12.9,,41814,170.3,5.6,3.9
2018,8,14,10:00,UTC,,1007.8,59,,,13.5,,29849,165.7,5.9,3.7
2018,8,14,11:00,UTC,,1008,59,,,14.2,,32244,169.8,4.5,2.2
2018,8,14,12:00,UTC,,1008.4,62,,,13.6,,50000,174.9,5.8,3.4
2018,8,14,13:00,UTC,,1008.5,58,,,14.5,,50000,175.4,5.3,3.6
2018,8,14,14:00,UTC,,1008.8,57,,,14.6,,43491,172.3,5.4,3.8
2018,8,14,15:00,UTC,,1008.7,58,,,14.6,,50000,172.9,5.1,3.1
2018,8,14,16:00,UTC,,1008.9,56,,,14.8,,38998,171.8,3.5,2.5
2018,8,14,17:00,UTC,,1009.1,60,,,14.5,,38350,167.7,3.5,2.5
2018,8,14,18:00,UTC,,1009.3,64,,,13.8,,42852,169.3,3,1.9
2018,8,14,19:00,UTC,,1009.5,73,,,12.6,,50000,140.4,0.9,0.5
2018,8,14,20:00,UTC,,1009.7,65,,,12.6,,50000,39.6,3.3,2.4
2018,8,14,21:00,UTC,,1009.8,80,,,9.4,,50000,60.2,1.1,0.4
2018,8,14,22:00,UTC,,1010.1,80,,,9.1,,50000,48.4,1.6,1.2
2018,8,14,23:00,UTC,,1010.5,80,,,8.7,,50000,68.4,2.4,1.8
2018,8,15,00:00,UTC,,1010.7,85,,,7.8,,50000,65.3,1.7,1.5
2018,8,15,01:00,UTC,,1010.9,87,,,7.1,,50000,69.4,1.6,1.1
2018,8,15,02:00,UTC,,1010.8,89,,,6.5,,50000,49.4,2.4,1.8
2018,8,15,03:00,UTC,,1010.9,89,,,6.6,,50000,62.2,2.2,1.7
2018,8,15,04:00,UTC,,1011,82,,,8,,34160,63.8,2.6,1.9
2018,8,15,05:00,UTC,,1011.1,76,,,9.8,,46620,68.4,3.3,2.4
2018,8,15,06:00,UTC,,1011.1,64,,,12.5,,50000,63.3,4.4,3.6
2018,8,15,07:00,UTC,,1011.2,50,,,13.7,,50000,57.6,6.7,5
2018,8,15,08:00,UTC,,1011.3,41,,,14.8,,44610,58.1,8,5.3
2018,8,15,09:00,UTC,,1011.3,39,,,15.3,,40509,42.7,6.1,3.4
2018,8,15,10:00,UTC,,1011.2,39,,,16,,22708,45.8,5.6,3.9
2018,8,15,11:00,UTC,,1010.9,38,,,16.9,,41504,28.3,6.1,3.4
2018,8,15,12:00,UTC,,1011,40,,,17.1,,34278,12.9,5.5,2.4
2018,8,15,13:00,UTC,,1011,40,,,17.3,,48085,24.2,4.6,3
2018,8,15,14:00,UTC,,1011,38,,,17.3,,49747,61.7,4.4,2.3
2018,8,15,15:00,UTC,,1011.1,35,,,18.6,,44257,85.4,3.6,1.9
2018,8,15,16:00,UTC,,1011.2,41,,,17.5,,50000,146.1,2.7,1.8
2018,8,15,17:00,UTC,,1011.3,54,,,16.3,,49212,171.3,3,2.3
2018,8,15,18:00,UTC,,1011.3,59,,,16.2,,50000,182.1,1.3,0.8
2018,8,15,19:00,UTC,,1011.7,61,,,14.3,,50000,38.6,2.5,1.5
2018,8,15,20:00,UTC,,1011.9,64,,,12.8,,50000,46.3,3.1,2.1
2018,8,15,21:00,UTC,,1011.9,72,,,11.3,,50000,52.5,3.1,2.4
2018,8,15,22:00,UTC,,1012.3,75,,,10.7,,50000,70.5,2.5,2
2018,8,15,23:00,UTC,,1012.6,77,,,10.4,,50000,63.3,4.3,3.2
2018,8,16,00:00,UTC,,1012.5,81,,,9.2,,50000,63.8,3.3,2.7
2018,8,16,01:00,UTC,,1012.4,81,,,9.3,,50000,66.9,3.2,2.8
2018,8,16,02:00,UTC,,1012.6,87,,,8.6,,50000,68.9,3.5,2.9
2018,8,16,03:00,UTC,,1012.6,88,,,8.7,,50000,69.4,4.2,3.2
2018,8,16,04:00,UTC,,1012.7,86,,,9.2,,44990,65.8,4.4,3.6
2018,8,16,05:00,UTC,,1012.9,80,,,10.9,,40738,68.9,5.7,3.3
2018,8,16,06:00,UTC,,1013.1,75,,,13.5,,50000,74.6,3.9,2.6
2018,8,16,07:00,UTC,,1013.3,72,,,15.2,,37248,71.5,3.9,3.1
2018,8,16,08:00,UTC,,1013.1,67,,,17.3,,47192,70,5.6,4
2018,8,16,09:00,UTC,,1013.1,58,,,19.6,,48653,79.7,5.5,3.7
2018,8,16,10:00,UTC,,1013.1,53,,,20.5,,50000,100.3,5.8,3.2
2018,8,16,11:00,UTC,,1012.9,48,,,20.8,,50000,92.6,5.3,3.3
2018,8,16,12:00,UTC,,1013,52,,,20.3,,49619,114.2,3.5,2.3
2018,8,16,13:00,UTC,,1012.8,50,,,20.4,,44954,97.7,2.4,1.4
2018,8,16,14:00,UTC,,1013,61,,,19.5,,50000,139.4,4.5,3.5
2018,8,16,15:00,UTC,,1013,57,,,19.7,,50000,4.1,2.2,1.4
2018,8,16,16:00,UTC,,1012.6,64,,,19.3,,41369,25.2,2.5,1.5
2018,8,16,17:00,UTC,,1012.1,70,,,18.4,,50000,21.1,1.3,0.8
2018,8,16,18:00,UTC,,1012,58,,,18.5,,50000,74.1,3.9,3
2018,8,16,19:00,UTC,,1011.9,62,,,17.5,,50000,78.2,4.4,3.3
2018,8,16,20:00,UTC,,1011.7,63,,,17.3,,50000,80.3,4.9,3.8
2018,8,16,21:00,UTC,,1011.9,60,,,17.4,,50000,85.4,5,3.2
2018,8,16,22:00,UTC,,1012,61,,,17.4,,50000,86.9,5.8,3.4
2018,8,16,23:00,UTC,,1011.8,61,,,17.3,,50000,82.3,5.5,4
2018,8,17,00:00,UTC,,1011.6,62,,,17.3,,50000,81.8,6.2,4.3
2018,8,17,01:00,UTC,,1011.3,65,,,17,,50000,79.2,6.6,4.4
2018,8,17,02:00,UTC,,1011.1,69,,,16.9,,50000,79.7,6.3,4.7
2018,8,17,03:00,UTC,,1011,70,,,16.9,,49653,81.3,6.6,4.9
2018,8,17,04:00,UTC,,1010.8,72,,,17,,50000,79.7,6.3,4.6
2018,8,17,05:00,UTC,,1010.7,71,,,17.7,,50000,85.9,6.5,4.5
2018,8,17,06:00,UTC,,1010.6,70,,,18.4,,40835,88,7.4,4.9
2018,8,17,07:00,UTC,,1010.5,69,,,18.8,,50000,86.4,8.5,5.3
2018,8,17,08:00,UTC,,1010.3,70,,,18.9,,50000,83.9,9.4,5.6
2018,8,17,09:00,UTC,,1010.3,66,,,20,,44980,86.9,7.7,5
2018,8,17,10:00,UTC,,1009.9,62,,,21.7,,50000,89.5,8.9,5.6
2018,8,17,11:00,UTC,,1009.5,58,,,23.1,,32662,91.1,8.3,5.1
2018,8,17,12:00,UTC,,1009.4,57,,,22.9,,50000,92.1,12.3,7.6
2018,8,17,13:00,UTC,,1008.7,50,,,24.3,,50000,94.1,11.6,6.4
2018,8,17,14:00,UTC,,1008.4,53,,,23.8,,50000,101.3,8.6,5.7
2018,8,17,15:00,UTC,,1008.3,53,,,23.7,,50000,100.8,9.4,6.2
2018,8,17,16:00,UTC,,1008.1,55,,,23.5,,50000,106,9.1,5.9
2018,8,17,17:00,UTC,,1008.1,68,,,21.5,,10477,93.6,5,3.4
2018,8,17,18:00,UTC,,1007.9,84,,,19.3,,48762,101.3,4.3,2.3
2018,8,17,19:00,UTC,,1007.6,92,,,18.3,,26327,109.1,1.5,0.9
2018,8,17,20:00,UTC,,1008.3,91,,,17.5,,45050,102.9,7.3,5.2
2018,8,17,21:00,UTC,,1008,89,,,17.2,,50000,88.5,5.4,3.8
2018,8,17,22:00,UTC,,1008.3,87,,,16.4,,50000,90,7.3,4.8
2018,8,17,23:00,UTC,,1008.3,90,,,16.2,,27951,96.7,6.2,3.9
2018,8,18,00:00,UTC,,1008,90,,,16,,41553,96.2,8.1,5.9
2018,8,18,01:00,UTC,,1008,93,,,15.8,,24774,90.5,7.7,4.6
2018,8,18,02:00,UTC,,1007.4,92,,,15.1,,50000,85.4,6.9,4.9
2018,8,18,03:00,UTC,,1007.6,93,,,14.7,,50000,86.4,5.2,3.6
2018,8,18,04:00,UTC,,1007.4,93,,,15.3,,50000,88.5,7.2,5
2018,8,18,05:00,UTC,,1007.6,90,,,15.9,,49474,93.1,6.3,4.2
2018,8,18,06:00,UTC,,1007.5,86,,,16.1,,44686,103.4,8.3,5.4
2018,8,18,07:00,UTC,,1007.8,84,,,16.8,,45005,113.2,6.1,4
2018,8,18,08:00,UTC,,1007.7,74,,,18.6,,48951,111.6,6.2,4.3
2018,8,18,09:00,UTC,,1007.6,64,,,19.7,,36156,119.4,6.6,4.7
2018,8,18,10:00,UTC,,1007.3,56,,,20.6,,50000,111.1,6.5,4.8
2018,8,18,11:00,UTC,,1007.3,58,,,19.9,,50000,127.1,7.6,5.1
2018,8,18,12:00,UTC,,1006.8,51,,,20.5,,40912,127.1,6.9,4.7
2018,8,18,13:00,UTC,,1006.4,61,,,20,,50000,136.8,3.9,2.4
2018,8,18,14:00,UTC,,1006,65,,,19,,50000,139.9,6.3,4.7
2018,8,18,15:00,UTC,,1005.5,64,,,19.3,,50000,142.5,5.3,3.9
2018,8,18,16:00,UTC,,1005,70,,,18.5,,47903,148.2,3.1,2
2018,8,18,17:00,UTC,,1004.5,72,,,18,,49839,121.9,3.4,2.2
2018,8,18,18:00,UTC,,1004.3,74,,,17.4,,50000,96.2,2.5,1.9
2018,8,18,19:00,UTC,,1003.6,60,,,18,,50000,102.4,8.1,4.2
2018,8,18,20:00,UTC,,1003,57,,,17.4,,50000,98.8,6.8,4.4
2018,8,18,21:00,UTC,,1002,60,,,16.9,,50000,89,7.1,4.3
2018,8,18,22:00,UTC,,1001.2,66,,,16.2,,23600,97.7,8.9,5.6
2018,8,18,23:00,UTC,,1000.4,81,,,14.4,,31893,89,6.9,5
2018,8,19,00:00,UTC,,999.4,85,,,13.8,,35298,84.4,6.8,4.9
2018,8,19,01:00,UTC,,998.1,88,,,13.6,,15730,83.9,8.3,6
2018,8,19,02:00,UTC,,997.1,90,,,13.8,,14625,90.5,10.8,7
2018,8,19,03:00,UTC,,996.9,89,,,14.5,,50000,98.8,9.1,6.3
2018,8,19,04:00,UTC,,996.7,87,,,15,,50000,101.3,8.5,5.8
2018,8,19,05:00,UTC,,997.4,82,,,15.3,,50000,120.9,10.1,5.7
2018,8,19,06:00,UTC,,997.8,64,,,15.8,,35618,121.4,10.6,7.2
2018,8,19,07:00,UTC,,998.4,59,,,16.1,,47644,125.5,11.9,7.4
2018,8,19,08:00,UTC,,998.5,57,,,16.7,,40476,123.5,12.1,8.4
2018,8,19,09:00,UTC,,999,57,,,16.7,,49472,123.5,12.5,8.8
2018,8,19,10:00,UTC,,999,58,,,17.4,,39350,124.5,10.6,7.6
2018,8,19,11:00,UTC,,999.6,57,,,16.8,,45450,127.1,12.5,9.6
2018,8,19,12:00,UTC,,999.8,53,,,17.4,,37136,124.5,11.6,8.5
2018,8,19,13:00,UTC,,1000.1,51,,,17.8,,50000,120.9,14.6,8.4
2018,8,19,14:00,UTC,,1000.2,51,,,17.5,,40467,122.4,12.1,7.4
2018,8,19,15:00,UTC,,1000.1,50,,,18.1,,47887,124.5,11.4,7.4
2018,8,19,16:00,UTC,,1000.2,52,,,17.7,,44901,123.5,11.2,7.4
2018,8,19,17:00,UTC,,1000.4,58,,,16.8,,50000,120.9,9,5.7
2018,8,19,18:00,UTC,,1000.4,56,,,16.2,,50000,124,8.2,5.7
2018,8,19,19:00,UTC,,1000.6,59,,,15.6,,50000,121.4,9.7,5.7
2018,8,19,20:00,UTC,,1000.7,62,,,15.2,,50000,121.4,8.1,5.4
2018,8,19,21:00,UTC,,1000.8,58,,,15.4,,50000,127.6,11.8,6.8
2018,8,19,22:00,UTC,,1000.8,59,,,14.9,,50000,134.3,15.3,9.4
2018,8,19,23:00,UTC,,1000.8,54,,,14.5,,50000,135.8,14.3,9.6
2018,8,20,00:00,UTC,,1001,60,,,14,,50000,135.8,12.6,9.1
2018,8,20,01:00,UTC,,1001.1,62,,,13.6,,50000,134.8,10.4,7.9
2018,8,20,02:00,UTC,,1001.5,67,,,12.7,,50000,122.4,7.6,5
2018,8,20,03:00,UTC,,1001.4,68,,,12.3,,50000,120.9,7.5,4.7
2018,8,20,04:00,UTC,,1001.4,69,,,12.2,,50000,121.4,8.3,5.2
2018,8,20,05:00,UTC,,1001.4,65,,,13.1,,36752,121.4,8,5.9
2018,8,20,06:00,UTC,,1001.4,62,,,13.6,,37718,126,9.6,7.1
2018,8,20,07:00,UTC,,1001.6,62,,,13.7,,50000,129.1,9.4,6.7
2018,8,20,08:00,UTC,,1002,62,,,13.8,,47370,120.4,8.6,5.8
2018,8,20,09:00,UTC,,1002.4,61,,,14.2,,27856,121.9,8.7,5.5
2018,8,20,10:00,UTC,,1002.6,60,,,15.3,,50000,119.4,10.7,7.2
2018,8,20,11:00,UTC,,1002.7,58,,,15.3,,34510,125,8.6,6.4
2018,8,20,12:00,UTC,,1002.6,62,,,14.8,,47152,135.8,11.1,7.7
2018,8,20,13:00,UTC,,1002.7,56,,,15.8,,50000,125,8.3,5.7
2018,8,20,14:00,UTC,,1002.5,54,,,16.2,,50000,121.9,8.4,5.5
2018,8,20,15:00,UTC,,1002.5,56,,,16,,50000,130.2,7.2,5.4
2018,8,20,16:00,UTC,,1002.2,58,,,15.8,,50000,127.6,5.8,4.1
2018,8,20,17:00,UTC,,1002,62,,,15.5,,50000,119.4,5.2,3.2
2018,8,20,18:00,UTC,,1001.6,71,,,14.2,,50000,117.3,3.9,2.8
2018,8,20,19:00,UTC,,1001.5,77,,,13.4,,50000,108,3.6,2.8
2018,8,20,20:00,UTC,,1001.4,81,,,12.7,,50000,109.6,2.8,1.7
2018,8,20,21:00,UTC,,1001.3,91,,,11.5,,50000,112.1,1.5,0.9
2018,8,20,22:00,UTC,,1001.3,93,,,11.3,,50000,99.3,1.1,0.8
2018,8,20,23:00,UTC,,1001.4,94,,,9.7,,50000,170.8,1.9,0.8
2018,8,21,00:00,UTC,,1001.2,92,,,11.4,,50000,176.5,2.5,1.4
2018,8,21,01:00,UTC,,1001.3,90,,,10.9,,50000,181.6,2,0.9
2018,8,21,02:00,UTC,,1001.7,86,,,10.3,,50000,46.8,1.3,0.9
2018,8,21,03:00,UTC,,1001.8,90,,,10.2,,50000,180.1,2.1,1.2
2018,8,21,04:00,UTC,,1001.8,87,,,10.8,,44270,176.5,2.6,1.5
2018,8,21,05:00,UTC,,1002.2,83,,,11.6,,50000,154.3,2.5,1.8
2018,8,21,06:00,UTC,,1002.4,72,,,12.8,,50000,180.6,4,2.5
2018,8,21,07:00,UTC,,1002.8,67,,,13.7,,50000,172.9,4.8,3.2
2018,8,21,08:00,UTC,,1003.3,56,,,14.5,,50000,171.3,5.5,3.6
2018,8,21,09:00,UTC,,1003.7,57,,,14.7,,22516,170.3,6.7,4.2
2018,8,21,10:00,UTC,,1004,54,,,15.2,,50000,165.1,9.6,5.7
2018,8,21,11:00,UTC,,1004.6,52,,,15.2,,50000,159.5,10.5,7.7
2018,8,21,12:00,UTC,,1005.1,48,,,14.9,,43849,161.5,11.6,8.4
2018,8,21,13:00,UTC,,1005.1,51,,,15.2,,50000,159.5,11.7,8
2018,8,21,14:00,UTC,,1005.7,52,,,15.6,,50000,155.4,12.1,8.4
2018,8,21,15:00,UTC,,1006,50,,,14.9,,50000,165.1,10.1,6.9
2018,8,21,16:00,UTC,,1006.3,47,,,15.2,,43220,160,9.4,5.8
2018,8,21,17:00,UTC,,1006.7,47,,,14.8,,50000,165.1,7.2,4.4
2018,8,21,18:00,UTC,,1007.2,49,,,14.1,,50000,166.2,4.7,3.3
2018,8,21,19:00,UTC,,1007.6,56,,,14,,50000,169.3,8.1,4.9
2018,8,21,20:00,UTC,,1008,54,,,13.8,,50000,171.8,7.9,4.3
2018,8,21,21:00,UTC,,1008.6,59,,,13.2,,50000,170.8,7.1,4.4
2018,8,21,22:00,UTC,,1009.2,60,,,12.9,,50000,170.3,5.2,3.2
2018,8,21,23:00,UTC,,1009.6,57,,,12.9,,50000,169.3,6.6,4.3
2018,8,22,00:00,UTC,,1009.8,62,,,12.4,,50000,169.8,5.2,3.3
2018,8,22,01:00,UTC,,1010.2,65,,,11.4,,50000,169.3,4.4,2.7
2018,8,22,02:00,UTC,,1010.6,69,,,10.6,,50000,170.3,3.4,2.4
2018,8,22,03:00,UTC,,1010.9,66,,,10.3,,50000,176.5,2.6,1.6
2018,8,22,04:00,UTC,,1011.1,75,,,9.6,,39934,163.1,2.2,1.8
2018,8,22,05:00,UTC,,1011.1,63,,,12.6,,40201,168.2,2.1,1.1
2018,8,22,06:00,UTC,,1011.2,57,,,13,,50000,180.6,3.5,1.9
2018,8,22,07:00,UTC,,1011.1,50,,,13.9,,42986,136.3,4.1,2.9
2018,8,22,08:00,UTC,,1011.2,53,,,14.3,,44794,142,5.5,3.8
2018,8,22,09:00,UTC,,1011,51,,,14.5,,27973,136.8,8.4,6.3
2018,8,22,10:00,UTC,,1010.9,53,,,14.6,,50000,140.4,9.4,6.2
2018,8,22,11:00,UTC,,1010.5,51,,,14.5,,35620,142,9.1,7.2
2018,8,22,12:00,UTC,,1010.4,59,,,13.9,,44640,142,8.8,7
2018,8,22,13:00,UTC,,1010,51,,,13.8,,50000,129.1,7.5,5.3
2018,8,22,14:00,UTC,,1009.9,56,,,13.7,,50000,120.9,7.9,5.3
2018,8,22,15:00,UTC,,1009.5,56,,,13.5,,50000,115.2,4.4,2.5
2018,8,22,16:00,UTC,,1009,64,,,13.3,,50000,109.1,7.2,3.4
2018,8,22,17:00,UTC,,1008.1,75,,,12.1,,48675,80.3,3.2,2.5
2018,8,22,18:00,UTC,,1007.4,79,,,11.3,,50000,76.1,4.6,3.5
2018,8,22,19:00,UTC,,1006.9,82,,,11,,42443,75.1,4.6,3.3
2018,8,22,20:00,UTC,,1005.1,85,,,10.6,,50000,65.8,6.8,5
2018,8,22,21:00,UTC,,1004.3,84,,,10.6,,22721,72.5,7.9,5.5
2018,8,22,22:00,UTC,,1003.1,88,,,10.5,,50000,73.6,8.2,5.8
2018,8,22,23:00,UTC,,1002.3,92,,,10.3,,50000,78.2,6.2,3.4
2018,8,23,00:00,UTC,,1001.4,94,,,10.5,,50000,70,6.5,5
2018,8,23,01:00,UTC,,1000.7,95,,,10.5,,48944,70.5,5.3,4
2018,8,23,02:00,UTC,,1000,95,,,10.8,,50000,76.7,5.3,3.7
2018,8,23,03:00,UTC,,999.6,96,,,11.2,,8660,79.2,6.6,3.3
2018,8,23,04:00,UTC,,999.5,97,,,11.5,,46404,82.3,3.8,2.6
2018,8,23,05:00,UTC,,998.1,97,,,11.7,,17527,63.3,3.6,2.8
2018,8,23,06:00,UTC,,998,97,,,12.3,,10084,75.1,2.1,1.5
2018,8,23,07:00,UTC,,998.1,97,,,12.8,,6607,124,2.5,1.4
2018,8,23,08:00,UTC,,998.6,94,,,12.9,,8145,153.8,7.8,5.9
2018,8,23,09:00,UTC,,998.9,94,,,12.7,,25249,162.6,10,5.6
2018,8,23,10:00,UTC,,1000.3,84,,,13.7,,49547,154.3,7.6,5.5
2018,8,23,11:00,UTC,,1001.4,77,,,14.8,,49014,141,8.9,7
2018,8,23,12:00,UTC,,1002.2,75,,,15.1,,31709,130.2,10.5,7.1
2018,8,23,13:00,UTC,,1002.8,70,,,15.4,,44739,137.4,9.9,7.1
2018,8,23,14:00,UTC,,1003.4,68,,,16,,48691,134.3,9.5,6.7
2018,8,23,15:00,UTC,,1003.9,64,,,16.3,,47269,131.7,9,6.4
2018,8,23,16:00,UTC,,1004.5,66,,,16.3,,50000,124,7,4.7
2018,8,23,17:00,UTC,,1004.9,69,,,15.6,,50000,120.4,7.8,5
2018,8,23,18:00,UTC,,1005.3,75,,,14.5,,50000,114.2,4.6,3
2018,8,23,19:00,UTC,,1005.8,80,,,13.7,,50000,108.5,4.6,2.9
2018,8,23,20:00,UTC,,1006,85,,,12.7,,50000,105.5,4.7,3.4
2018,8,23,21:00,UTC,,1006.2,87,,,12.3,,50000,106,5.3,3.3
2018,8,23,22:00,UTC,,1006.3,88,,,11.9,,50000,111.1,4.2,2.8
2018,8,23,23:00,UTC,,1006.6,89,,,11.3,,50000,101.9,3.9,2.7
2018,8,24,00:00,UTC,,1006.7,90,,,11,,50000,101.3,3.7,2.7
2018,8,24,01:00,UTC,,1006.7,95,,,8.1,,50000,63.3,2.5,2
2018,8,24,02:00,UTC,,1006.3,95,,,8.2,,50000,68.4,3.3,3
2018,8,24,03:00,UTC,,1006.4,94,,,8.5,,50000,67.4,4,3.2
2018,8,24,04:00,UTC,,1005.9,91,,,9.5,,50000,75.1,7.8,5.4
2018,8,24,05:00,UTC,,1005.2,91,,,9.8,,50000,59.7,4.7,3.9
2018,8,24,06:00,UTC,,1005,87,,,11,,36419,65.8,4.7,3.2
2018,8,24,07:00,UTC,,1004.1,90,,,11.1,,45074,45.8,4.7,3.5
2018,8,24,08:00,UTC,,1003.2,95,,,11.5,,32502,34,5.5,3.2
2018,8,24,09:00,UTC,,1002.5,95,,,12.4,,24157,48.4,4.3,2.9
2018,8,24,10:00,UTC,,1002,95,,,13.1,,35318,50.4,5.7,3.6
2018,8,24,11:00,UTC,,1001,96,,,14,,20508,57.6,6.7,5.1
2018,8,24,12:00,UTC,,1000.5,94,,,16.3,,32012,62.8,5.9,4.3
2018,8,24,13:00,UTC,,999.6,88,,,18.4,,25954,59.7,7,5
2018,8,24,14:00,UTC,,999,86,,,19.7,,50000,56.1,5.1,3.8
2018,8,24,15:00,UTC,,998.5,71,,,21.5,,49603,73.6,4.7,3.3
2018,8,24,16:00,UTC,,997.9,66,,,21.2,,50000,71.5,6.6,5.2
2018,8,24,17:00,UTC,,997.6,62,,,20.8,,50000,72.5,7.4,5.9
2018,8,24,18:00,UTC,,997.3,64,,,20.2,,50000,85.4,5.5,3.3
2018,8,24,19:00,UTC,,998,91,,,17.3,,13213,112.7,6.6,3.5
2018,8,24,20:00,UTC,,996.9,90,,,16.6,,49889,62.2,5.3,4
2018,8,24,21:00,UTC,,996.6,76,,,17.8,,50000,79.7,6.7,4.6
2018,8,24,22:00,UTC,,996.6,90,,,16.4,,50000,81.3,2.7,1.2
2018,8,24,23:00,UTC,,996,91,,,15.8,,50000,80.3,2.7,1.7
2018,8,25,00:00,UTC,,995.3,76,,,18.1,,47010,77.7,6.1,4.6
2018,8,25,01:00,UTC,,995.4,80,,,18.1,,46465,81.3,7,5.3
2018,8,25,02:00,UTC,,995.1,87,,,17.3,,49726,76.7,6.4,4.9
2018,8,25,03:00,UTC,,994.9,90,,,17,,44342,77.2,7.6,5.4
2018,8,25,04:00,UTC,,994.7,91,,,16.8,,49048,80.8,7.9,5.2
2018,8,25,05:00,UTC,,994.4,90,,,17.3,,48633,81.3,7.9,5.5
2018,8,25,06:00,UTC,,994.8,88,,,17.5,,46467,88,6.5,4.6
2018,8,25,07:00,UTC,,995.2,89,,,16.8,,49954,92.1,6.3,4.1
2018,8,25,08:00,UTC,,996,80,,,17.1,,50000,106.5,7.3,4.9
2018,8,25,09:00,UTC,,996.8,62,,,17.6,,37437,114.2,11.7,6.8
2018,8,25,10:00,UTC,,997.6,55,,,18.2,,36586,112.7,9.2,6.3
2018,8,25,11:00,UTC,,998.1,50,,,19,,39107,111.6,8.5,5.3
2018,8,25,12:00,UTC,,998.7,51,,,18.8,,35876,117.3,9.4,5.8
2018,8,25,13:00,UTC,,998.9,62,,,18.1,,50000,132.2,8.4,5.4
2018,8,25,14:00,UTC,,999.7,67,,,17,,44064,130.2,6.8,5.1
2018,8,25,15:00,UTC,,1000,72,,,16.3,,47970,128.1,6.7,4.6
2018,8,25,16:00,UTC,,1000.5,73,,,15.7,,49889,125,5.1,3.4
2018,8,25,17:00,UTC,,1000.8,74,,,15.5,,48988,108.5,3.2,2.1
2018,8,25,18:00,UTC,,1001.2,64,,,15.5,,50000,106,5.9,3.9
2018,8,25,19:00,UTC,,1001.3,70,,,14.6,,50000,95.2,4,2.6
2018,8,25,20:00,UTC,,1001.6,69,,,14,,50000,96.2,5.3,3.4
2018,8,25,21:00,UTC,,1001.9,71,,,13.3,,50000,93.1,5.6,3.7
2018,8,25,22:00,UTC,,1002.4,78,,,12.1,,50000,90.5,4.6,3.3
2018,8,25,23:00,UTC,,1002.5,79,,,11.7,,50000,94.1,4.8,3.6
2018,8,26,00:00,UTC,,1002.9,81,,,11.4,,50000,94.7,4.8,3.5
2018,8,26,01:00,UTC,,1003.2,85,,,10.8,,50000,89,4.8,3.2
2018,8,26,02:00,UTC,,1003.3,90,,,9.7,,50000,81.3,4,3
2018,8,26,03:00,UTC,,1003.6,88,,,10.3,,48920,90.5,5.7,4.1
2018,8,26,04:00,UTC,,1003.7,89,,,10.3,,43350,88.5,4.6,3.1
2018,8,26,05:00,UTC,,1004.4,87,,,11,,15032,92.1,4.6,3.3
2018,8,26,06:00,UTC,,1004.9,85,,,11.9,,37955,78.7,6.3,3.7
2018,8,26,07:00,UTC,,1005.1,81,,,13.1,,29600,79.7,5.1,4
2018,8,26,08:00,UTC,,1005.3,72,,,15.1,,38408,74.6,4.8,3.6
2018,8,26,09:00,UTC,,1005.4,72,,,15.8,,50000,83.9,4.5,3.2
2018,8,26,10:00,UTC,,1005.2,68,,,17,,49328,88,5,3.1
2018,8,26,11:00,UTC,,1005.1,59,,,17.4,,36358,109.1,5.1,3.6
2018,8,26,12:00,UTC,,1005.1,80,,,15.2,,49719,59.7,3.9,2.5
2018,8,26,13:00,UTC,,1005,72,,,15.4,,50000,152.3,3.7,2.7
2018,8,26,14:00,UTC,,1004.8,89,,,13,,47196,170.3,5,3.2
2018,8,26,15:00,UTC,,1004.8,87,,,13,,49825,173.4,2.6,1.8
2018,8,26,16:00,UTC,,1004.4,89,,,13.2,,50000,18,3.1,2
2018,8,26,17:00,UTC,,1004.3,91,,,13,,14295,137.9,2.4,1.1
2018,8,26,18:00,UTC,,1004.2,94,,,12.7,,50000,181.6,1.4,0.9
2018,8,26,19:00,UTC,,1003.7,95,,,12.5,,11459,61.2,2.3,1.3
2018,8,26,20:00,UTC,,1003.3,93,,,12.6,,50000,76.1,3.9,3.1
2018,8,26,21:00,UTC,,1003.2,96,,,12,,50000,80.3,3.9,2.9
2018,8,26,22:00,UTC,,1003.1,95,,,12.3,,47926,91.1,4.6,3.2
2018,8,26,23:00,UTC,,1003.1,94,,,11.6,,50000,105.5,3.9,2.6
2018,8,27,00:00,UTC,,1003.1,92,,,11.1,,50000,107,3.9,2.7
2018,8,27,01:00,UTC,,1003.2,93,,,10.9,,50000,98.3,3.1,2.2
2018,8,27,02:00,UTC,,1003.3,94,,,10.7,,50000,101.3,3.6,2.7
2018,8,27,03:00,UTC,,1003.4,95,,,10.5,,50000,107,4.6,3.1
2018,8,27,04:00,UTC,,1003.4,95,,,10.5,,36445,106,4.4,2.8
2018,8,27,05:00,UTC,,1003.6,92,,,11.5,,50000,108.5,4.7,3.1
2018,8,27,06:00,UTC,,1003.9,90,,,12.1,,42542,103.4,5.4,4.1
2018,8,27,07:00,UTC,,1004.6,89,,,12.4,,50000,108,5.2,3.5
2018,8,27,08:00,UTC,,1005.2,83,,,13.4,,49225,111.6,6.8,4.5
2018,8,27,09:00,UTC,,1005.8,77,,,13.3,,50000,123,6.2,4.3
2018,8,27,10:00,UTC,,1006.5,80,,,13,,50000,127.6,6.6,4.3
2018,8,27,11:00,UTC,,1007.2,74,,,13.5,,50000,144,5.4,3.9
2018,8,27,12:00,UTC,,1007.8,71,,,14.1,,35881,133.2,8,5.7
2018,8,27,13:00,UTC,,1008.2,66,,,14.6,,45857,138.9,7.7,5.2
2018,8,27,14:00,UTC,,1008.6,66,,,14.7,,49489,140.4,7.2,5.1
2018,8,27,15:00,UTC,,1009.1,69,,,14.4,,44439,139.4,6.3,4.6
2018,8,27,16:00,UTC,,1009.4,63,,,14.6,,50000,128.6,3.7,2.8
2018,8,27,17:00,UTC,,1009.7,70,,,13.4,,50000,123,2.4,1.8
2018,8,27,18:00,UTC,,1010.2,80,,,11.9,,50000,115.7,2.1,1.7
2018,8,27,19:00,UTC,,1010.5,83,,,11.6,,50000,97.7,2.8,2.4
2018,8,27,20:00,UTC,,1010.9,87,,,11.2,,50000,106.5,3.4,2.6
2018,8,27,21:00,UTC,,1011.2,91,,,10,,50000,94.1,3.1,2.5
2018,8,27,22:00,UTC,,1011.7,94,,,6.4,,50000,71,2,1.6
2018,8,27,23:00,UTC,,1012.2,94,,,6.9,,50000,77.7,2.3,1.9
2018,8,28,00:00,UTC,,1012.5,95,,,5.7,,50000,64.8,2.3,2
2018,8,28,01:00,UTC,,1012.8,96,,,5.3,,50000,64.3,2.6,2.2
2018,8,28,02:00,UTC,,1013.1,95,,,6.1,,50000,76.1,3,2.2
2018,8,28,03:00,UTC,,1013.3,95,,,6,,50000,65.8,3.7,2.4
2018,8,28,04:00,UTC,,1013.8,95,,,6.1,,48959,65.3,3.2,2.8
2018,8,28,05:00,UTC,,1014.2,93,,,7.2,,50000,71,2.9,2.3
2018,8,28,06:00,UTC,,1014.5,91,,,9.2,,42546,77.2,4.2,3.2
2018,8,28,07:00,UTC,,1014.9,87,,,11.2,,39488,75.1,4.6,3.3
2018,8,28,08:00,UTC,,1015.3,78,,,12.9,,50000,77.2,5.8,3.7
2018,8,28,09:00,UTC,,1015.8,63,,,15.3,,37160,73.6,5.4,3.8
2018,8,28,10:00,UTC,,1015.9,58,,,16.1,,41310,81.8,5.8,3.9
2018,8,28,11:00,UTC,,1016.1,48,,,16.6,,50000,89.5,4.1,2.9
2018,8,28,12:00,UTC,,1016.4,48,,,17.5,,50000,135.8,3.6,1.5
2018,8,28,13:00,UTC,,1016.6,46,,,17.4,,47936,13.4,1.9,1.3
2018,8,28,14:00,UTC,,1016.9,58,,,16.1,,50000,176.5,3,1.7
2018,8,28,15:00,UTC,,1017.1,63,,,15.9,,50000,3.1,2.4,1.3
2018,8,28,16:00,UTC,,1017.5,69,,,15.7,,50000,7.7,1.8,1.3
2018,8,28,17:00,UTC,,1017.8,74,,,15.2,,50000,15.9,1.5,1.1
2018,8,28,18:00,UTC,,1018.5,78,,,14.6,,50000,23.1,0.9,0.5
2018,8,28,19:00,UTC,,1018.8,77,,,14.3,,50000,65.8,1.8,1.4
2018,8,28,20:00,UTC,,1018.9,77,,,14,,50000,68.4,1.7,1
2018,8,28,21:00,UTC,,1019.2,81,,,13.2,,50000,63.8,2.7,2.3
2018,8,28,22:00,UTC,,1019.8,81,,,12.5,,50000,85.9,1.9,0.9
2018,8,28,23:00,UTC,,1020.2,91,,,10.4,,50000,67.4,2.1,1.7
2018,8,29,00:00,UTC,,1020.5,86,,,10,,50000,67.4,2.5,2.2
2018,8,29,01:00,UTC,,1020.8,90,,,9.7,,50000,67.9,2.6,2.4
2018,8,29,02:00,UTC,,1021.1,91,,,8.3,,50000,67.9,2.9,2.6
2018,8,29,03:00,UTC,,1021.4,89,,,8.7,,50000,70.5,3.9,2.8
2018,8,29,04:00,UTC,,1021.6,90,,,8.4,,45213,64.3,4.4,3.7
2018,8,29,05:00,UTC,,1021.9,86,,,9.5,,45473,66.4,4.6,3.8
2018,8,29,06:00,UTC,,1022.2,79,,,12,,42512,65.8,3.7,3
2018,8,29,07:00,UTC,,1022.2,71,,,14.9,,50000,61.2,4.4,3.5
2018,8,29,08:00,UTC,,1022.5,64,,,16.8,,50000,72.5,6.1,4.6
2018,8,29,09:00,UTC,,1022.6,60,,,18.3,,37677,80.3,6,4.4
2018,8,29,10:00,UTC,,1022.4,55,,,19.7,,39138,91.6,6.4,4.6
2018,8,29,11:00,UTC,,1022.2,52,,,20.2,,36665,80.3,7.5,4.2
2018,8,29,12:00,UTC,,1022.1,50,,,20.8,,38341,86.9,6.7,4
2018,8,29,13:00,UTC,,1021.6,49,,,20.9,,43023,85.4,5.5,3.6
2018,8,29,14:00,UTC,,1021.4,47,,,21.2,,50000,72,5.6,3.8
2018,8,29,15:00,UTC,,1021.2,48,,,20.9,,50000,78.7,4.5,2.9
2018,8,29,16:00,UTC,,1021.1,46,,,20.6,,50000,71.5,5,3.8
2018,8,29,17:00,UTC,,1021.1,57,,,18.3,,49960,61.2,5.2,4.3
2018,8,29,18:00,UTC,,1021.2,63,,,16.1,,50000,62.2,5.1,4.5
2018,8,29,19:00,UTC,,1021.2,68,,,14.5,,50000,65.8,4.4,3.6
2018,8,29,20:00,UTC,,1021.1,70,,,13.9,,50000,69.4,4.8,3.5
2018,8,29,21:00,UTC,,1021.1,74,,,12.8,,50000,69.4,4.3,3.5
2018,8,29,22:00,UTC,,1021,76,,,12.2,,50000,69.4,5.6,4.4
2018,8,29,23:00,UTC,,1020.8,78,,,11.5,,50000,71.5,4.6,4
2018,8,30,00:00,UTC,,1020.6,84,,,10.3,,50000,64.8,5,3.9
2018,8,30,01:00,UTC,,1020.3,82,,,10.4,,50000,69.4,6.1,4.8
2018,8,30,02:00,UTC,,1019.9,84,,,9.8,,50000,68.9,5.7,4.9
2018,8,30,03:00,UTC,,1019.3,85,,,9.6,,50000,69.4,8.4,5
2018,8,30,04:00,UTC,,1019,86,,,9.8,,50000,68.9,6.4,5.2
2018,8,30,05:00,UTC,,1018.5,83,,,11,,43456,69.4,6.3,4.8
2018,8,30,06:00,UTC,,1018.2,76,,,12.9,,40493,70.5,4.8,3.7
2018,8,30,07:00,UTC,,1018,71,,,14.8,,50000,76.7,5.5,3.8
2018,8,30,08:00,UTC,,1017.4,64,,,16.9,,48438,70.5,6.7,5.1
2018,8,30,09:00,UTC,,1016.6,68,,,17,,50000,60.2,3.9,3.2
2018,8,30,10:00,UTC,,1016.3,65,,,17.3,,44294,58.1,5.8,3.9
2018,8,30,11:00,UTC,,1015.9,65,,,17.1,,44834,64.3,7.3,6
2018,8,30,12:00,UTC,,1015.7,75,,,15.7,,50000,62.2,7,5.7
2018,8,30,13:00,UTC,,1015.5,73,,,15.9,,50000,78.2,5.9,3.8
2018,8,30,14:00,UTC,,1015.2,71,,,16.4,,49221,77.2,5.6,4.3
2018,8,30,15:00,UTC,,1015.2,74,,,15.9,,50000,77.2,4.6,3.3
2018,8,30,16:00,UTC,,1015.5,80,,,15.4,,50000,81.3,4.7,2.8
2018,8,30,17:00,UTC,,1015.5,84,,,14.8,,50000,81.3,4.2,3
2018,8,30,18:00,UTC,,1015.6,88,,,14.4,,50000,77.2,4.3,3.3
2018,8,30,19:00,UTC,,1015.7,93,,,13.9,,28314,83.3,3.4,2.6
2018,8,30,20:00,UTC,,1015.9,94,,,13.8,,48139,92.1,2.8,2
2018,8,30,21:00,UTC,,1016,95,,,13.4,,46478,85.4,2.6,1.8
2018,8,30,22:00,UTC,,1016.1,94,,,13.5,,49209,91.1,3.5,2.4
2018,8,30,23:00,UTC,,1016.3,93,,,13.6,,50000,101.3,3.6,2.7
2018,8,31,00:00,UTC,,1016.5,93,,,13.3,,50000,105.5,3.4,2.4
2018,8,31,01:00,UTC,,1016.7,96,,,13.2,,50000,113.2,2.3,1.6
2018,8,31,02:00,UTC,,1017,95,,,13.1,,46897,114.7,2.5,1.9
2018,8,31,03:00,UTC,,1017.2,95,,,12.1,,44206,143,2.2,1.7
2018,8,31,04:00,UTC,,1017.7,90,,,12.4,,50000,142,2.7,2
2018,8,31,05:00,UTC,,1018.1,90,,,13.2,,50000,153.3,2.7,2.2
2018,8,31,06:00,UTC,,1018.4,84,,,14.3,,50000,164.1,3,2.1
2018,8,31,07:00,UTC,,1019,80,,,14.5,,49914,173.9,3.2,2.2
2018,8,31,08:00,UTC,,1019.3,75,,,14.9,,47036,168.2,4.2,2.9
2018,8,31,09:00,UTC,,1019.8,78,,,14.6,,33782,167.2,4.4,2.9
2018,8,31,10:00,UTC,,1020.4,69,,,15.5,,49532,170.3,4.9,3.3
2018,8,31,11:00,UTC,,1020.6,66,,,15.5,,48004,169.3,4.4,2.9
2018,8,31,12:00,UTC,,1020.7,71,,,15.5,,48425,166.2,4.2,2.8
2018,8,31,13:00,UTC,,1021,65,,,16.5,,45415,172.3,4.9,3.5
2018,8,31,14:00,UTC,,1021.2,56,,,16.4,,47731,168.7,5.9,4
2018,8,31,15:00,UTC,,1021.4,59,,,16.5,,50000,170.3,4.9,3.6
2018,8,31,16:00,UTC,,1021.6,68,,,15.9,,46846,166.7,4.8,3.1
2018,8,31,17:00,UTC,,1022,71,,,15.3,,50000,168.2,2.7,2
2018,8,31,18:00,UTC,,1022.2,78,,,13.8,,50000,169.3,2.3,1.7
2018,8,31,19:00,UTC,,1022.4,88,,,11.9,,50000,173.9,1.3,0.8
2018,8,31,20:00,UTC,,1022.4,88,,,12.3,,50000,179.5,2.5,1.5
2018,8,31,21:00,UTC,,1022.5,82,,,12.1,,50000,8.2,2.3,1.6
2018,8,31,22:00,UTC,,1022.5,80,,,12.2,,50000,20.1,3.4,2.4
2018,8,31,23:00,UTC,,1022.6,86,,,11.3,,50000,17.5,2.6,1.8
2018,9,1,00:00,UTC,,1022.6,93,,,9.4,,50000,6.7,1.9,1.1
2018,9,1,01:00,UTC,,1023,91,,,10,,50000,23.1,2.3,1.4
2018,9,1,02:00,UTC,,1022.9,92,,,9.8,,50000,11.8,2.5,1.5
2018,9,1,03:00,UTC,,1023,93,,,8.9,,50000,23.7,1.2,0.8
2018,9,1,04:00,UTC,,1023,89,,,9.7,,50000,26.2,1,0.6
2018,9,1,05:00,UTC,,1023.1,86,,,10.3,,50000,25.2,2.2,1.3
2018,9,1,06:00,UTC,,1023,84,,,11.8,,50000,15.9,1.5,1
2018,9,1,07:00,UTC,,1023,76,,,14.2,,50000,84.4,0.9,0.4
2018,9,1,08:00,UTC,,1023,75,,,15.1,,34053,125.5,2.7,1.4
2018,9,1,09:00,UTC,,1022.9,75,,,15.3,,42465,143.5,2.8,2
2018,9,1,10:00,UTC,,1022.9,69,,,17.3,,45373,4.1,2.4,1.7
2018,9,1,11:00,UTC,,1022.8,68,,,17.8,,50000,2.6,2.3,1.4
2018,9,1,12:00,UTC,,1022.4,64,,,18.6,,50000,9.3,2.5,1.6
2018,9,1,13:00,UTC,,1022.2,62,,,18.7,,50000,126.6,2.5,1.9
2018,9,1,14:00,UTC,,1022.2,66,,,18.4,,50000,167.2,3.8,2.6
2018,9,1,15:00,UTC,,1022.1,73,,,17.1,,50000,177,3.4,2.3
2018,9,1,16:00,UTC,,1022.2,76,,,16.5,,50000,173.4,3.5,2.2
2018,9,1,17:00,UTC,,1022.5,83,,,15.6,,50000,170.3,2.9,1.8
2018,9,1,18:00,UTC,,1022.6,88,,,14.6,,49732,177,2.1,1.4
2018,9,1,19:00,UTC,,1022.6,92,,,13.9,,47601,3.1,1.6,0.9
2018,9,1,20:00,UTC,,1022.7,91,,,13.9,,50000,0.5,1.6,1.1
2018,9,1,21:00,UTC,,1022.5,88,,,13.8,,50000,182.1,1.7,1
2018,9,1,22:00,UTC,,1022.7,86,,,12.6,,50000,172.9,1.2,0.7
2018,9,1,23:00,UTC,,1022.6,93,,,11.3,,50000,182.6,1.6,1
2018,9,2,00:00,UTC,,1022.5,93,,,11.5,,49765,165.1,1.7,1.1
2018,9,2,01:00,UTC,,1022.6,89,,,12.7,,50000,64.8,0.9,0.5
2018,9,2,02:00,UTC,,1022.8,86,,,12.4,,50000,185.2,0.9,0.6
2018,9,2,03:00,UTC,,1022.8,92,,,11.4,,50000,171.8,1.8,1
2018,9,2,04:00,UTC,,1023.3,83,,,13.1,,50000,182.1,1.8,0.9
2018,9,2,05:00,UTC,,1023.5,79,,,13.4,,50000,8.7,1.8,1.1
2018,9,2,06:00,UTC,,1023.6,72,,,13.9,,50000,18,2,1.1
2018,9,2,07:00,UTC,,1023.6,61,,,15.4,,44655,35.5,2.4,1.6
2018,9,2,08:00,UTC,,1023.9,57,,,16.7,,43081,29.8,1.6,0.9
2018,9,2,09:00,UTC,,1024.2,50,,,17.6,,36277,166.7,2,1.1
2018,9,2,10:00,UTC,,1024.2,46,,,17.8,,41378,27.3,2.5,1.4
2018,9,2,11:00,UTC,,1024.3,42,,,18.5,,32779,152.3,3.6,1.7
2018,9,2,12:00,UTC,,1024.3,49,,,18.9,,50000,150.7,4.1,2.6
2018,9,2,13:00,UTC,,1024.5,45,,,18.8,,48568,137.9,5,3.9
2018,9,2,14:00,UTC,,1024.5,50,,,18.4,,47486,139.9,6.4,3.3
2018,9,2,15:00,UTC,,1024.7,57,,,17.1,,50000,145.6,4.7,2.9
2018,9,2,16:00,UTC,,1024.8,80,,,15.9,,50000,152.3,3.4,2.6
2018,9,2,17:00,UTC,,1024.8,83,,,15.6,,50000,137.4,2.8,2
2018,9,2,18:00,UTC,,1024.9,83,,,14.4,,50000,118.3,1.3,1.1
2018,9,2,19:00,UTC,,1024.9,92,,,11.7,,50000,112.1,1.8,1.5
2018,9,2,20:00,UTC,,1025,89,,,11.3,,49121,97.2,2,1.5
2018,9,2,21:00,UTC,,1025.1,90,,,12,,50000,88.5,2.5,1.9
2018,9,2,22:00,UTC,,1025.3,87,,,11.3,,50000,89.5,3.7,2
2018,9,2,23:00,UTC,,1025.1,89,,,10.4,,50000,81.8,3.8,3.1
2018,9,3,00:00,UTC,,1025.1,91,,,7.9,,50000,75.1,2.6,2.2
2018,9,3,01:00,UTC,,1025,92,,,8.5,,50000,74.6,2.9,2.5
2018,9,3,02:00,UTC,,1024.7,91,,,8.5,,50000,77.2,2.7,2.4
2018,9,3,03:00,UTC,,1024.5,89,,,8.6,,50000,76.1,3.9,3.4
2018,9,3,04:00,UTC,,1024.4,87,,,9.3,,47825,76.1,3.4,2.9
2018,9,3,05:00,UTC,,1024.3,87,,,10.3,,50000,71,3.9,3.2
2018,9,3,06:00,UTC,,1024.2,85,,,13.1,,45689,84.4,5,3.4
2018,9,3,07:00,UTC,,1023.9,71,,,15.5,,42288,80.3,5,3.4
2018,9,3,08:00,UTC,,1023.7,58,,,17.6,,33028,92.6,8.5,4.4
2018,9,3,09:00,UTC,,1023.4,48,,,19.3,,33965,97.2,6.1,4.5
2018,9,3,10:00,UTC,,1023.1,47,,,20.4,,50000,96.2,7.1,4.9
2018,9,3,11:00,UTC,,1022.7,46,,,21.4,,38105,96.7,6.9,4.1
2018,9,3,12:00,UTC,,1022.4,43,,,22.1,,48946,114.2,6.7,4.4
2018,9,3,13:00,UTC,,1021.9,44,,,22.3,,50000,112.7,4.3,2.9
2018,9,3,14:00,UTC,,1021.3,47,,,21.6,,41288,132.7,5.6,3.5
2018,9,3,15:00,UTC,,1021,53,,,20.4,,46946,143.5,4.8,3.6
2018,9,3,16:00,UTC,,1021,58,,,19.3,,50000,151.8,2.5,2
2018,9,3,17:00,UTC,,1020.9,68,,,17.6,,50000,151.8,2.7,2.2
2018,9,3,18:00,UTC,,1020.9,82,,,15.6,,50000,131.2,2.1,1.7
2018,9,3,19:00,UTC,,1020.7,84,,,13.9,,50000,111.1,1.4,1
2018,9,3,20:00,UTC,,1020.7,86,,,12.7,,50000,71,1.3,0.9
2018,9,3,21:00,UTC,,1020.3,90,,,12.5,,50000,76.1,1.9,1.3
2018,9,3,22:00,UTC,,1020.2,92,,,11.9,,50000,79.7,3.2,2.5
2018,9,3,23:00,UTC,,1019.9,93,,,10.8,,50000,75.1,3.5,2.8
2018,9,4,00:00,UTC,,1019.6,89,,,11.4,,50000,79.7,4.4,3.4
2018,9,4,01:00,UTC,,1019.7,90,,,10.8,,50000,79.2,4.4,3.7
2018,9,4,02:00,UTC,,1019.5,89,,,11,,50000,88.5,4,3.3
2018,9,4,03:00,UTC,,1019.4,88,,,11,,50000,82.8,4.6,3.3
2018,9,4,04:00,UTC,,1019.2,87,,,11.5,,50000,86.4,5.1,3.6
2018,9,4,05:00,UTC,,1018.9,83,,,12.8,,50000,86.4,5.3,3.9
2018,9,4,06:00,UTC,,1019,76,,,14.7,,50000,86.4,5.8,3.8
2018,9,4,07:00,UTC,,1018.9,68,,,16.8,,35937,89,5.1,3.7
2018,9,4,08:00,UTC,,1018.9,62,,,18.5,,48291,92.6,4.4,2.9
2018,9,4,09:00,UTC,,1018.9,60,,,19.2,,46729,112.1,4.3,2.2
2018,9,4,10:00,UTC,,1018.8,61,,,19.4,,47734,126.6,4.8,3.1
2018,9,4,11:00,UTC,,1018.7,67,,,19.2,,45568,146.6,5.6,3.5
2018,9,4,12:00,UTC,,1018.7,73,,,18.4,,38830,153.8,6,4.6
2018,9,4,13:00,UTC,,1018.9,74,,,17.8,,42376,154.3,7,5.4
2018,9,4,14:00,UTC,,1019,75,,,17.2,,48495,153.8,5.8,3.8
2018,9,4,15:00,UTC,,1019.1,75,,,17.4,,35778,149.2,4.4,2.6
2018,9,4,16:00,UTC,,1019.3,79,,,16.5,,45365,178,2.3,1.6
2018,9,4,17:00,UTC,,1019.3,88,,,15.1,,46841,171.8,3.3,2.3
2018,9,4,18:00,UTC,,1019.5,91,,,14.2,,50000,170.3,2.6,1.8
2018,9,4,19:00,UTC,,1019.6,92,,,13.7,,50000,171.8,2,1.4
2018,9,4,20:00,UTC,,1019.6,93,,,12.8,,43810,151.2,0.5,0.3
2018,9,4,21:00,UTC,,1019.6,96,,,11.9,,30672,156.4,2.1,1.9
2018,9,4,22:00,UTC,,1019.7,95,,,12.2,,32498,158.4,2.1,1.8
2018,9,4,23:00,UTC,,1019.9,96,,,11.7,,41552,181.1,1,0.5
2018,9,5,00:00,UTC,,1019.9,96,,,12.4,,36119,14.4,0.4,0.2
2018,9,5,01:00,UTC,,1019.9,95,,,10.5,,50000,157.4,1.1,0.7
2018,9,5,02:00,UTC,,1020,95,,,11.1,,50000,57.1,0.6,0.4
2018,9,5,03:00,UTC,,1019.9,96,,,11.7,,25520,55.6,1.5,1
2018,9,5,04:00,UTC,,1020.1,96,,,12.1,,27112,58.6,1.2,0.7
2018,9,5,05:00,UTC,,1020.5,95,,,12.9,,23114,28.8,1.2,0.7
2018,9,5,06:00,UTC,,1020.5,94,,,12.9,,24435,16.5,3.1,1.9
2018,9,5,07:00,UTC,,1020.9,93,,,13.2,,23084,183.1,2.1,1.5
2018,9,5,08:00,UTC,,1021.1,89,,,13.6,,46210,10.8,2.2,1.4
2018,9,5,09:00,UTC,,1021,90,,,13.8,,11561,28.8,2.6,1.5
2018,9,5,10:00,UTC,,1020.9,88,,,14.3,,16935,7.2,2.6,1.8
2018,9,5,11:00,UTC,,1021.1,83,,,15.1,,36145,12.9,2.6,1.7
2018,9,5,12:00,UTC,,1021.1,83,,,15.5,,50000,4.6,2.2,1.5
2018,9,5,13:00,UTC,,1021,84,,,15.5,,22437,177.5,2.5,1.8
2018,9,5,14:00,UTC,,1020.9,83,,,15.9,,50000,174.4,2.6,1.8
2018,9,5,15:00,UTC,,1020.9,82,,,16.1,,49527,168.2,2.1,1.2
2018,9,5,16:00,UTC,,1020.6,80,,,16.3,,50000,181.1,3.8,2.2
2018,9,5,17:00,UTC,,1020.6,81,,,16,,50000,3.6,3.5,2
2018,9,5,18:00,UTC,,1020.7,80,,,15.3,,50000,10.8,3.7,2.2
2018,9,5,19:00,UTC,,1020.6,82,,,14.7,,50000,1,3.4,1.7
2018,9,5,20:00,UTC,,1020.4,84,,,14.2,,50000,0.5,2.9,1.8
2018,9,5,21:00,UTC,,1020.2,85,,,13.9,,46589,4.1,2.2,1.5
2018,9,5,22:00,UTC,,1020.1,87,,,13.9,,50000,8.2,2.4,1.7
2018,9,5,23:00,UTC,,1020,88,,,13.8,,50000,26.8,2,1
2018,9,6,00:00,UTC,,1019.6,91,,,13.6,,50000,8.7,1.7,1.1
2018,9,6,01:00,UTC,,1019.6,91,,,13.5,,50000,126.6,0.9,0.4
2018,9,6,02:00,UTC,,1019.5,95,,,12.6,,44654,158.4,2.3,1.9
2018,9,6,03:00,UTC,,1019.5,95,,,13.2,,31803,181.1,1.1,0.5
2018,9,6,04:00,UTC,,1019.4,93,,,13.7,,28173,50.9,2.1,1.7
2018,9,6,05:00,UTC,,1019.5,92,,,13.7,,24358,42.7,3.3,1.9
2018,9,6,06:00,UTC,,1019.5,90,,,13.7,,28890,56.1,3.8,2.7
2018,9,6,07:00,UTC,,1019.5,89,,,13.7,,34387,51.4,3.8,2.7
2018,9,6,08:00,UTC,,1019.5,86,,,14.4,,33911,54,2.8,1.9
2018,9,6,09:00,UTC,,1019.4,82,,,15.3,,32171,57.6,2.2,1.5
2018,9,6,10:00,UTC,,1019.3,83,,,15.9,,35559,102.4,2.7,1.4
2018,9,6,11:00,UTC,,1019.3,81,,,16.1,,28118,107.5,5.4,1.9
2018,9,6,12:00,UTC,,1019.2,77,,,16.6,,46558,108,2.1,0.8
2018,9,6,13:00,UTC,,1019,77,,,16.7,,42319,120.9,1.9,1.2
2018,9,6,14:00,UTC,,1018.8,81,,,16.3,,39858,177.5,2.8,1.7
2018,9,6,15:00,UTC,,1018.9,86,,,15.7,,32181,171.8,2,1.3
2018,9,6,16:00,UTC,,1018.9,90,,,15.1,,15793,134.3,4,2.8
2018,9,6,17:00,UTC,,1019.1,90,,,14.6,,50000,129.6,3.8,2.7
2018,9,6,18:00,UTC,,1019.4,92,,,14.2,,50000,125.5,3.9,3
2018,9,6,19:00,UTC,,1019.4,94,,,13.5,,49840,126,3.6,2.8
2018,9,6,20:00,UTC,,1019.4,96,,,13.6,,48773,118.3,3,2.3
2018,9,6,21:00,UTC,,1019.4,96,,,13.7,,50000,121.4,1.8,1.5
2018,9,6,22:00,UTC,,1019.4,97,,,12.3,,4077,139.9,1.6,1.5
2018,9,6,23:00,UTC,,1019.6,97,,,12.1,,17954,138.9,1.3,1.1
2018,9,7,00:00,UTC,,1019.6,97,,,11.9,,42141,135.3,1.8,1.1
2018,9,7,01:00,UTC,,1019.7,97,,,12.6,,22961,88,1,0.6
2018,9,7,02:00,UTC,,1019.8,97,,,12,,41747,125,1.8,1.1
2018,9,7,03:00,UTC,,1019.8,97,,,12.5,,29756,115.2,5.1,1.4
2018,9,7,04:00,UTC,,1020.1,97,,,12.7,,34337,114.2,2,1.5
2018,9,7,05:00,UTC,,1020.2,95,,,12.4,,32806,99.3,2.9,1.2
2018,9,7,06:00,UTC,,1020.4,97,,,13.1,,5715,159.5,0.7,0.4
2018,9,7,07:00,UTC,,1020.5,96,,,13.9,,14304,16.5,1.1,0.6
2018,9,7,08:00,UTC,,1020.7,89,,,14.1,,30649,31.9,2.5,1.8
2018,9,7,09:00,UTC,,1020.8,87,,,14.6,,39293,51.4,3,1.9
2018,9,7,10:00,UTC,,1020.6,78,,,15.7,,34513,66.9,2.6,1.6
2018,9,7,11:00,UTC,,1020.4,65,,,17.3,,50000,76.1,3.3,1.6
2018,9,7,12:00,UTC,,1020.5,64,,,17.5,,38820,64.3,3.6,2.5
2018,9,7,13:00,UTC,,1020.3,74,,,16.4,,46926,9.8,2.7,1.7
2018,9,7,14:00,UTC,,1020,66,,,17.5,,50000,4.6,3,1.5
2018,9,7,15:00,UTC,,1020,65,,,17.4,,47092,1,2.8,1.7
2018,9,7,16:00,UTC,,1020.1,73,,,16.3,,50000,183.1,2.1,1.2
2018,9,7,17:00,UTC,,1020.3,71,,,15,,50000,28.3,2.6,2
2018,9,7,18:00,UTC,,1020.5,63,,,14.4,,32420,37.6,3.3,2.3
2018,9,7,19:00,UTC,,1020.8,66,,,13.1,,50000,30.4,2.5,1.7
2018,9,7,20:00,UTC,,1021,69,,,11.8,,50000,31.9,3.4,2.5
2018,9,7,21:00,UTC,,1021.2,70,,,11.4,,50000,35.5,4.8,2.9
2018,9,7,22:00,UTC,,1021.5,74,,,10.1,,50000,41.2,4.1,2.3
2018,9,7,23:00,UTC,,1021.6,78,,,9.4,,50000,35,2.4,1.4
2018,9,8,00:00,UTC,,1021.8,80,,,8.6,,48663,35,2.5,1.6
2018,9,8,01:00,UTC,,1021.9,82,,,7.6,,50000,64.3,3,2.5
2018,9,8,02:00,UTC,,1022.2,83,,,7.3,,50000,42.2,2.6,1.4
2018,9,8,03:00,UTC,,1022.3,88,,,6.6,,50000,40.6,2,1.2
2018,9,8,04:00,UTC,,1022.4,88,,,6.9,,50000,40.6,2.6,1.9
2018,9,8,05:00,UTC,,1022.6,82,,,8.2,,50000,51.4,3.6,2.7
2018,9,8,06:00,UTC,,1023,75,,,10.4,,50000,49.4,3.9,2.8
2018,9,8,07:00,UTC,,1022.9,65,,,12.9,,50000,54,5.3,4.1
2018,9,8,08:00,UTC,,1022.9,58,,,14.5,,37765,51.4,6.3,4.7
2018,9,8,09:00,UTC,,1022.8,48,,,15.8,,50000,54,7.3,5.3
2018,9,8,10:00,UTC,,1022.8,45,,,16.5,,50000,50.9,7.2,4.9
2018,9,8,11:00,UTC,,1022.8,46,,,17.2,,37880,48.4,8.2,5
2018,9,8,12:00,UTC,,1022.6,45,,,17.5,,50000,48.4,8,5.2
2018,9,8,13:00,UTC,,1022.8,45,,,17,,46519,47.8,6.3,4.7
2018,9,8,14:00,UTC,,1022.6,47,,,17.1,,48991,46.8,5.4,3.8
2018,9,8,15:00,UTC,,1022.6,48,,,16.5,,43017,50.9,6.1,4.8
2018,9,8,16:00,UTC,,1022.9,54,,,15.5,,50000,42.2,4.2,3
2018,9,8,17:00,UTC,,1022.9,65,,,13.3,,50000,43.7,2.7,1.9
2018,9,8,18:00,UTC,,1023.2,70,,,12.6,,50000,42.2,4.2,2.8
2018,9,8,19:00,UTC,,1023.4,79,,,10.9,,50000,40.1,3.1,1.7
2018,9,8,20:00,UTC,,1023.6,83,,,10,,50000,40.6,2.6,1.9
2018,9,8,21:00,UTC,,1023.6,86,,,8.9,,50000,44.8,2.6,1.6
2018,9,8,22:00,UTC,,1023.6,89,,,8.5,,41993,40.1,2.5,1.8
2018,9,8,23:00,UTC,,1023.7,90,,,8.1,,34945,47.8,3,1.8
2018,9,9,00:00,UTC,,1023.7,93,,,7.2,,38296,53.5,2.8,2.2
2018,9,9,01:00,UTC,,1023.9,94,,,7.3,,34465,52,3,2.3
2018,9,9,02:00,UTC,,1023.8,95,,,6.8,,30395,53.5,3.3,2.4
2018,9,9,03:00,UTC,,1023.7,96,,,6.7,,23519,53.5,3.7,2.5
2018,9,9,04:00,UTC,,1023.7,96,,,7.3,,31993,54,4.1,2.8
2018,9,9,05:00,UTC,,1023.9,97,,,7.2,,2792,59.2,5.2,4.1
2018,9,9,06:00,UTC,,1023.9,97,,,8.3,,40964,57.6,5.8,4.6
2018,9,9,07:00,UTC,,1023.9,94,,,9,,43463,59.7,6.7,5.1
2018,9,9,08:00,UTC,,1023.7,85,,,10.9,,42270,47.3,5.5,4.3
2018,9,9,09:00,UTC,,1023.5,80,,,12.9,,44194,46.3,5.9,4.3
2018,9,9,10:00,UTC,,1023.2,72,,,15.2,,45785,47.8,6.3,4.3
2018,9,9,11:00,UTC,,1022.9,66,,,16.9,,50000,53,6.9,5.1
2018,9,9,12:00,UTC,,1022.6,59,,,18.8,,47367,55.6,7.6,5.4
2018,9,9,13:00,UTC,,1022.3,54,,,19.5,,43136,63.3,8.5,6.7
2018,9,9,14:00,UTC,,1022,55,,,19.4,,50000,61.2,9.3,5.8
2018,9,9,15:00,UTC,,1022,57,,,18.8,,41561,61.2,7,5.6
2018,9,9,16:00,UTC,,1022,63,,,17.5,,50000,60.7,5.9,4.9
2018,9,9,17:00,UTC,,1022.2,70,,,15.5,,50000,57.6,5.7,4.5
2018,9,9,18:00,UTC,,1022.3,77,,,13.9,,50000,62.8,5.2,4.6
2018,9,9,19:00,UTC,,1022.5,81,,,13.5,,50000,66.4,5.1,4.2
2018,9,9,20:00,UTC,,1022.7,83,,,12.6,,50000,69.4,5.3,4.1
2018,9,9,21:00,UTC,,1022.5,84,,,11.8,,50000,68.9,4.9,3.8
2018,9,9,22:00,UTC,,1022.3,84,,,11.1,,50000,68.4,5.2,4.1
2018,9,9,23:00,UTC,,1022.3,85,,,10.5,,50000,69.4,4.8,4.1
2018,9,10,00:00,UTC,,1022.3,87,,,9.9,,50000,69.4,5.1,4.2
2018,9,10,01:00,UTC,,1022.1,86,,,10.5,,50000,73.1,5.1,4.1
2018,9,10,02:00,UTC,,1022.1,88,,,10.6,,50000,72.5,5.1,4.2
2018,9,10,03:00,UTC,,1022,89,,,10.3,,50000,70,4.6,3.9
2018,9,10,04:00,UTC,,1021.8,89,,,11,,50000,69.4,5.1,3.2
2018,9,10,05:00,UTC,,1021.8,88,,,11.7,,50000,72,5.2,3.3
2018,9,10,06:00,UTC,,1021.8,86,,,12.6,,50000,71.5,4,3.1
2018,9,10,07:00,UTC,,1021.7,84,,,13.6,,50000,72,4.6,3.5
2018,9,10,08:00,UTC,,1021.6,82,,,14.3,,50000,71,5.2,4
2018,9,10,09:00,UTC,,1021.3,74,,,16.4,,34839,69.4,6.2,4.7
2018,9,10,10:00,UTC,,1020.9,64,,,18.3,,38763,77.7,5.8,4.4
2018,9,10,11:00,UTC,,1020.6,66,,,18.2,,50000,66.4,8.3,6.4
2018,9,10,12:00,UTC,,1020.4,64,,,18.4,,46954,74.1,6.4,4.8
2018,9,10,13:00,UTC,,1020,65,,,18.4,,50000,81.8,6.6,4.4
2018,9,10,14:00,UTC,,1019.4,64,,,18.5,,48802,90,5.2,3.9
2018,9,10,15:00,UTC,,1019,66,,,17.9,,40768,99.3,5,3.6
2018,9,10,16:00,UTC,,1018.7,65,,,17.2,,50000,86.4,5,3.7
2018,9,10,17:00,UTC,,1018.6,69,,,15.8,,50000,79.7,6.7,4.9
2018,9,10,18:00,UTC,,1018.3,74,,,14.4,,50000,72.5,6.4,4.7
2018,9,10,19:00,UTC,,1017.8,79,,,13.2,,50000,67.9,5.6,4.3
2018,9,10,20:00,UTC,,1017.1,79,,,13.3,,50000,68.4,5.4,4.5
2018,9,10,21:00,UTC,,1016.5,78,,,13.5,,50000,65.8,6.7,5.3
2018,9,10,22:00,UTC,,1015.8,77,,,13.8,,50000,66.9,8,6.1
2018,9,10,23:00,UTC,,1015.3,82,,,13.3,,50000,68.4,8.4,6.2
2018,9,11,00:00,UTC,,1014.8,82,,,13.1,,50000,71.5,8.2,5.5
2018,9,11,01:00,UTC,,1014.3,83,,,12.8,,50000,68.9,8.1,6.1
2018,9,11,02:00,UTC,,1013.4,85,,,12.9,,50000,69.4,8,6.1
2018,9,11,03:00,UTC,,1012.6,88,,,12.5,,50000,67.4,7.3,5.6
2018,9,11,04:00,UTC,,1012.5,85,,,13.2,,43404,74.1,8.9,5.7
2018,9,11,05:00,UTC,,1012.1,85,,,13.3,,43266,76.1,7.7,5.5
2018,9,11,06:00,UTC,,1011.9,84,,,13.6,,36548,75.1,7.6,5.4
2018,9,11,07:00,UTC,,1011.4,80,,,14.7,,41580,78.7,7.9,5.1
2018,9,11,08:00,UTC,,1010.9,74,,,16.4,,41007,81.3,8.5,5.9
2018,9,11,09:00,UTC,,1010.5,72,,,16.4,,47829,76.7,8,5.8
2018,9,11,10:00,UTC,,1009.9,70,,,16.6,,50000,76.1,9.2,6.2
2018,9,11,11:00,UTC,,1009.2,70,,,16.9,,47977,79.7,8.1,5.6
2018,9,11,12:00,UTC,,1008.2,69,,,17.2,,50000,76.1,8.1,5.6
2018,9,11,13:00,UTC,,1007.1,68,,,17.3,,46557,80.3,9.2,6.2
2018,9,11,14:00,UTC,,1006.6,81,,,14,,8969,106.5,3.1,2.1
2018,9,11,15:00,UTC,,1006.3,94,,,12.2,,17534,79.7,3.6,2.2
2018,9,11,16:00,UTC,,1004.9,90,,,12.6,,50000,73.6,2.2,1.3
2018,9,11,17:00,UTC,,1004,94,,,11.5,,50000,61.2,4.4,3.7
2018,9,11,18:00,UTC,,1003.2,94,,,11.7,,49854,71.5,5.7,4.2
2018,9,11,19:00,UTC,,1002.4,95,,,11.6,,38011,71.5,4.6,3.8
2018,9,11,20:00,UTC,,1001.1,97,,,11.3,,34773,70.5,5.2,4.1
2018,9,11,21:00,UTC,,999.7,95,,,11.5,,47853,71,4.8,3.9
2018,9,11,22:00,UTC,,998.2,96,,,11.3,,46351,65.8,4.9,3.8
2018,9,11,23:00,UTC,,996.7,95,,,11.7,,29091,67.9,5.2,4.1
2018,9,12,00:00,UTC,,995.4,96,,,11.6,,20604,66.4,6,4.4
2018,9,12,01:00,UTC,,994,95,,,11.4,,28316,50.9,5.2,4
2018,9,12,02:00,UTC,,992.6,95,,,10.9,,33968,50.9,3.9,2.9
2018,9,12,03:00,UTC,,991.2,96,,,10.7,,32053,45.3,2.9,2
2018,9,12,04:00,UTC,,989.9,96,,,10.6,,41056,46.3,2.6,1.7
2018,9,12,05:00,UTC,,988.9,97,,,10.7,,24854,38.6,3,2.1
2018,9,12,06:00,UTC,,988,96,,,11,,44246,42.2,1.8,1.1
2018,9,12,07:00,UTC,,987.6,95,,,11.1,,33456,49.4,1.8,1.3
2018,9,12,08:00,UTC,,987.2,89,,,11.8,,50000,74.1,1.4,0.9
2018,9,12,09:00,UTC,,986.8,94,,,11.2,,8923,140.4,3.9,2.3
2018,9,12,10:00,UTC,,986.8,90,,,10.8,,4622,150.2,2.3,1.6
2018,9,12,11:00,UTC,,986.7,94,,,11.2,,11757,155.9,2.8,2
2018,9,12,12:00,UTC,,986.7,95,,,10.9,,20859,169.8,3.5,2.1
2018,9,12,13:00,UTC,,986.6,92,,,11.3,,24894,152.3,4.2,3.4
2018,9,12,14:00,UTC,,986.6,93,,,11.4,,28788,152.8,3.4,2.6
2018,9,12,15:00,UTC,,986.4,90,,,11.7,,50000,148.2,2.7,2.3
2018,9,12,16:00,UTC,,986.4,92,,,11.5,,49404,133.8,4.9,3.5
2018,9,12,17:00,UTC,,986.6,93,,,11.8,,50000,139.9,4.3,3.2
2018,9,12,18:00,UTC,,986.8,91,,,11.4,,50000,141.5,3.5,2.9
2018,9,12,19:00,UTC,,987,92,,,11.4,,47435,141,2.7,2.4
2018,9,12,20:00,UTC,,987,92,,,11.3,,48996,140.4,3.3,2.6
2018,9,12,21:00,UTC,,987.3,92,,,10.9,,50000,148.2,3.1,2.5
2018,9,12,22:00,UTC,,987.5,92,,,10.9,,50000,145.6,2.7,2.2
2018,9,12,23:00,UTC,,987.8,92,,,11.6,,50000,154.3,4.4,3.4
2018,9,13,00:00,UTC,,988.1,90,,,11.3,,50000,156.4,4.1,3.1
2018,9,13,01:00,UTC,,988.6,91,,,11.1,,49071,152.8,4.8,3.4
2018,9,13,02:00,UTC,,989,87,,,11.4,,50000,145.6,5.4,3.8
2018,9,13,03:00,UTC,,989.5,89,,,11.5,,50000,148.7,6.3,4.8
2018,9,13,04:00,UTC,,990.4,84,,,11.7,,50000,151.2,7.9,5.9
2018,9,13,05:00,UTC,,991.4,83,,,12.1,,48528,154.8,8.2,6.3
2018,9,13,06:00,UTC,,992.3,81,,,12.7,,46208,149.2,9.1,6.5
2018,9,13,07:00,UTC,,993.5,76,,,13.1,,47612,154.3,11,7.5
2018,9,13,08:00,UTC,,994.8,77,,,13.1,,50000,149.7,10.3,7.7
2018,9,13,09:00,UTC,,996.2,73,,,13.7,,49407,146.1,9.8,7.4
2018,9,13,10:00,UTC,,997.3,71,,,14.3,,50000,147.1,10.1,7.4
2018,9,13,11:00,UTC,,998.3,65,,,14.5,,50000,146.6,10.2,7.4
2018,9,13,12:00,UTC,,999.2,63,,,15.3,,50000,144,9.8,7.2
2018,9,13,13:00,UTC,,1000,67,,,14.7,,33963,136.3,10.3,7
2018,9,13,14:00,UTC,,1000.8,68,,,14.4,,50000,134.8,9.8,6.9
2018,9,13,15:00,UTC,,1001.3,72,,,14.2,,50000,135.8,8.8,6
2018,9,13,16:00,UTC,,1001.7,66,,,13.7,,50000,124,4.7,3.7
2018,9,13,17:00,UTC,,1001.9,80,,,12.3,,50000,116.8,4.1,2.4
2018,9,13,18:00,UTC,,1002,86,,,11.6,,50000,104.9,3.3,2.4
2018,9,13,19:00,UTC,,1002.1,87,,,11.4,,50000,103.4,4.8,3.5
2018,9,13,20:00,UTC,,1002.2,88,,,11.5,,50000,105.5,5.5,3.6
2018,9,13,21:00,UTC,,1002.5,89,,,11.4,,50000,110.6,3.7,2.3
2018,9,13,22:00,UTC,,1002.9,87,,,11.3,,50000,107,6.8,3.7
2018,9,13,23:00,UTC,,1003,91,,,10.6,,50000,102.9,4.6,3.3
2018,9,14,00:00,UTC,,1003.1,90,,,10.3,,50000,103.9,5.6,3.8
2018,9,14,01:00,UTC,,1003.3,92,,,9.7,,50000,104.9,5.6,4
2018,9,14,02:00,UTC,,1003.4,92,,,9.3,,48998,106,5.6,3.7
2018,9,14,03:00,UTC,,1003.5,94,,,8.4,,50000,100.8,6,4.1
2018,9,14,04:00,UTC,,1003.4,91,,,8.8,,50000,101.3,6.4,4.2
2018,9,14,05:00,UTC,,1003.6,89,,,9,,50000,94.1,6,3.4
2018,9,14,06:00,UTC,,1003.8,88,,,9.6,,40344,89,5.2,3.9
2018,9,14,07:00,UTC,,1003.7,84,,,10.8,,41562,81.3,5.6,4
2018,9,14,08:00,UTC,,1003.6,72,,,13.3,,50000,87.5,6.2,4.2
2018,9,14,09:00,UTC,,1003.6,62,,,15.1,,50000,102.9,6.5,4.4
2018,9,14,10:00,UTC,,1003.7,56,,,15.4,,50000,110.6,8.1,5.3
2018,9,14,11:00,UTC,,1003.9,63,,,14.7,,21453,117.8,7.8,5.1
2018,9,14,12:00,UTC,,1003.6,58,,,15.2,,50000,118.8,7.5,5.2
2018,9,14,13:00,UTC,,1003.8,62,,,14.7,,50000,113.2,6.5,4
2018,9,14,14:00,UTC,,1003.7,71,,,12.8,,50000,94.1,4.8,3.4
2018,9,14,15:00,UTC,,1003.5,73,,,12.4,,50000,94.1,7.6,5
2018,9,14,16:00,UTC,,1003.6,83,,,11.9,,40214,94.7,5,3.3
2018,9,14,17:00,UTC,,1003.6,87,,,11.6,,50000,86.4,4.6,3
2018,9,14,18:00,UTC,,1003.6,89,,,11.3,,50000,91.1,6.1,4.1
2018,9,14,19:00,UTC,,1004,92,,,10.5,,49646,91.1,5.5,3.3
2018,9,14,20:00,UTC,,1004.2,92,,,9.8,,50000,96.2,5.2,3.8
2018,9,14,21:00,UTC,,1004.4,94,,,9.2,,50000,94.7,5,3.5
2018,9,14,22:00,UTC,,1004.6,95,,,9,,48001,96.2,5.3,3.6
2018,9,14,23:00,UTC,,1004.9,95,,,8.7,,49938,101.3,3.9,2.7
2018,9,15,00:00,UTC,,1004.8,96,,,9,,33681,91.1,5.3,3.6
2018,9,15,01:00,UTC,,1004.9,97,,,9.1,,3560,89,4.5,3.2
2018,9,15,02:00,UTC,,1005,98,,,9.1,,3420,90,5.5,4
2018,9,15,03:00,UTC,,1005,98,,,8.7,,2451,81.8,6.7,3.7
2018,9,15,04:00,UTC,,1004.9,98,,,8.8,,2260,77.2,6.4,4.6
2018,9,15,05:00,UTC,,1004.6,98,,,9,,39055,75.6,7.9,5.7
2018,9,15,06:00,UTC,,1004.4,97,,,9.1,,50000,72.5,7.7,6
2018,9,15,07:00,UTC,,1003.9,93,,,10,,50000,72,7.4,5.4
2018,9,15,08:00,UTC,,1003.8,91,,,11.3,,47570,82.3,7.8,5.3
2018,9,15,09:00,UTC,,1003.2,81,,,12,,47275,76.1,10.3,7.3
2018,9,15,10:00,UTC,,1002.5,91,,,11.4,,22645,67.4,7.1,5.5
2018,9,15,11:00,UTC,,1001.4,94,,,11.7,,7344,68.4,9.8,7.3
2018,9,15,12:00,UTC,,1000.7,90,,,12.7,,40611,81.3,9.4,6
2018,9,15,13:00,UTC,,1000.1,87,,,13.2,,43658,83.9,8,5.3
2018,9,15,14:00,UTC,,999.9,91,,,12.8,,39652,86.9,5.7,3.9
2018,9,15,15:00,UTC,,999.6,91,,,12.7,,50000,89,5.6,3.7
2018,9,15,16:00,UTC,,999.7,90,,,12.6,,50000,92.1,7.4,4.9
2018,9,15,17:00,UTC,,1000.1,81,,,12.6,,50000,107,8.6,5.2
2018,9,15,18:00,UTC,,1000.6,83,,,11.8,,50000,119.4,5.8,4
2018,9,15,19:00,UTC,,1001.1,85,,,11,,50000,99.8,4.4,2.8
2018,9,15,20:00,UTC,,1001.3,83,,,9.9,,50000,96.2,5.7,4
2018,9,15,21:00,UTC,,1001.5,82,,,9.4,,50000,99.3,6.3,4.5
2018,9,15,22:00,UTC,,1001.7,86,,,8.6,,50000,98.8,7,4.1
2018,9,15,23:00,UTC,,1001.6,85,,,8.6,,50000,98.3,5.3,3.6
2018,9,16,00:00,UTC,,1001.7,86,,,8.1,,50000,97.7,6.2,4.3
2018,9,16,01:00,UTC,,1001.8,87,,,8,,49278,101.9,5.4,3.9
2018,9,16,02:00,UTC,,1001.8,87,,,7.8,,50000,100.3,5.6,4.1
2018,9,16,03:00,UTC,,1001.9,89,,,7.2,,50000,95.2,4.7,3.3
2018,9,16,04:00,UTC,,1001.7,90,,,7,,50000,99.8,6.8,4.4
2018,9,16,05:00,UTC,,1002,86,,,7.9,,50000,103.4,6.6,5
2018,9,16,06:00,UTC,,1001.9,85,,,8.3,,49175,103.4,8,5
2018,9,16,07:00,UTC,,1002,80,,,10,,50000,100.8,6.8,4.5
2018,9,16,08:00,UTC,,1002.2,70,,,11.4,,50000,121.9,9.7,5.9
2018,9,16,09:00,UTC,,1002.3,67,,,12.1,,47399,118.3,9.1,6.6
2018,9,16,10:00,UTC,,1002.7,66,,,12,,50000,128.1,10.5,7.3
2018,9,16,11:00,UTC,,1003.1,66,,,11.8,,50000,124.5,10.7,7.2
2018,9,16,12:00,UTC,,1003.2,69,,,11.9,,50000,125.5,10,6.5
2018,9,16,13:00,UTC,,1003.2,69,,,11.9,,50000,129.6,8.3,5.8
2018,9,16,14:00,UTC,,1003.1,65,,,12.7,,45897,120.9,8.4,5.6
2018,9,16,15:00,UTC,,1003.2,68,,,12.5,,50000,119.4,8.1,5.3
2018,9,16,16:00,UTC,,1003.1,70,,,12.2,,50000,116.3,7.7,5.5
2018,9,16,17:00,UTC,,1002.9,73,,,11.8,,50000,112.7,7.8,5
2018,9,16,18:00,UTC,,1002.7,76,,,11.7,,50000,112.7,8,4.7
2018,9,16,19:00,UTC,,1002.5,72,,,12.1,,50000,120.9,7.1,4.9
2018,9,16,20:00,UTC,,1002.6,70,,,12.3,,50000,127.1,5.5,3.6
2018,9,16,21:00,UTC,,1002.6,81,,,10.4,,50000,103.4,5,3.4
2018,9,16,22:00,UTC,,1002.7,89,,,8.8,,50000,105.5,4.4,3.2
2018,9,16,23:00,UTC,,1002.4,91,,,8.3,,50000,108,4,3.2
2018,9,17,00:00,UTC,,1002.3,92,,,7.8,,50000,114.7,3.9,3
2018,9,17,01:00,UTC,,1002.1,91,,,7.8,,50000,112.1,3.9,2.9
2018,9,17,02:00,UTC,,1002.3,90,,,8,,50000,115.2,3.6,2.6
2018,9,17,03:00,UTC,,1002.2,94,,,7.2,,50000,112.1,6.8,3.2
2018,9,17,04:00,UTC,,1002.1,95,,,5.9,,50000,80.3,2.8,1
2018,9,17,05:00,UTC,,1001.8,93,,,6.8,,46327,94.7,3.4,2.3
2018,9,17,06:00,UTC,,1001.7,89,,,8.4,,50000,96.7,4.8,2.9
2018,9,17,07:00,UTC,,1001.4,84,,,9.3,,47426,101.3,5.1,3.8
2018,9,17,08:00,UTC,,1001.1,79,,,10.8,,39029,92.6,4,2.8
2018,9,17,09:00,UTC,,1000.6,72,,,12.1,,50000,81.3,3.7,2.5
2018,9,17,10:00,UTC,,1000.3,65,,,13.1,,49986,106.5,4.2,2.3
2018,9,17,11:00,UTC,,1000.1,65,,,13.4,,42851,124,4.5,2.3
2018,9,17,12:00,UTC,,999.8,74,,,12.1,,50000,145.6,4.5,3.2
2018,9,17,13:00,UTC,,999.4,69,,,12.5,,41785,146.1,4.6,3.5
2018,9,17,14:00,UTC,,999.3,73,,,12.4,,50000,147.6,4.9,3.7
2018,9,17,15:00,UTC,,999.2,81,,,11.7,,50000,140.4,4.1,3.1
2018,9,17,16:00,UTC,,999.1,81,,,11.5,,50000,135.3,3.1,2.1
2018,9,17,17:00,UTC,,999.2,82,,,9.6,,50000,145.1,3.5,2.4
2018,9,17,18:00,UTC,,999.3,79,,,9.4,,40390,126.6,3.9,2.5
2018,9,17,19:00,UTC,,999.7,90,,,8.9,,18277,119.4,4.5,2.9
2018,9,17,20:00,UTC,,999.8,94,,,8.8,,46094,107,3.9,2.8
2018,9,17,21:00,UTC,,999.9,95,,,8.7,,31308,101.3,4,3.2
2018,9,17,22:00,UTC,,1000,95,,,8.8,,50000,109.6,4.9,2.9
2018,9,17,23:00,UTC,,999.9,95,,,8.2,,50000,113.2,3.2,2.3
2018,9,18,00:00,UTC,,1000,87,,,9.3,,50000,131.2,4.5,3
2018,9,18,01:00,UTC,,1000.4,85,,,9.6,,50000,137.9,6,4.3
2018,9,18,02:00,UTC,,1000.8,81,,,9.7,,50000,139.9,7.2,5
2018,9,18,03:00,UTC,,1001,79,,,9.6,,50000,142,7,5
2018,9,18,04:00,UTC,,1001.4,81,,,9.1,,50000,140.4,5,3.9
2018,9,18,05:00,UTC,,1001.8,76,,,10.1,,50000,137.9,6.4,4.5
2018,9,18,06:00,UTC,,1002.1,77,,,10.9,,49858,137.4,7.9,5.1
2018,9,18,07:00,UTC,,1002.4,72,,,11.2,,50000,133.8,9.2,6.1
2018,9,18,08:00,UTC,,1002.7,70,,,11.5,,50000,129.1,9.2,6.6
2018,9,18,09:00,UTC,,1003,69,,,12.2,,37644,130.7,9.4,6.3
2018,9,18,10:00,UTC,,1003,68,,,12.5,,44441,133.8,8.5,6
2018,9,18,11:00,UTC,,1003.2,66,,,12.8,,35886,136.3,7.3,5.3
2018,9,18,12:00,UTC,,1003.2,60,,,13.2,,50000,123.5,7.7,4.7
2018,9,18,13:00,UTC,,1003.3,60,,,13.1,,48973,122.4,6,4.1
2018,9,18,14:00,UTC,,1003.3,56,,,13.1,,46591,126,4.9,3.4
2018,9,18,15:00,UTC,,1003,63,,,12.6,,49523,124,7.1,2.1
2018,9,18,16:00,UTC,,1002.8,73,,,11.2,,50000,100.8,0.9,0.7
2018,9,18,17:00,UTC,,1002.8,81,,,10.2,,50000,62.8,1.9,1.6
2018,9,18,18:00,UTC,,1002.7,72,,,10.9,,50000,81.3,3.1,2.3
2018,9,18,19:00,UTC,,1002.5,80,,,10.1,,50000,61.2,2.1,1.8
2018,9,18,20:00,UTC,,1002.4,80,,,10.3,,50000,82.3,2.5,2
2018,9,18,21:00,UTC,,1002.3,84,,,10.4,,50000,85.4,2.2,1.7
2018,9,18,22:00,UTC,,1002.3,85,,,10.7,,50000,87.5,4.4,2.2
2018,9,18,23:00,UTC,,1002.1,93,,,9.8,,50000,53.5,1.7,1.1
2018,9,19,00:00,UTC,,1001.6,95,,,10,,49882,65.8,2.4,1.9
2018,9,19,01:00,UTC,,1001.4,96,,,10.4,,50000,68.9,2.4,1.9
2018,9,19,02:00,UTC,,1001.4,96,,,10.1,,50000,64.3,3.2,2.7
2018,9,19,03:00,UTC,,1000.9,96,,,10.3,,50000,62.8,3.7,2.7
2018,9,19,04:00,UTC,,1000.4,94,,,10.6,,50000,63.3,4.6,3.7
2018,9,19,05:00,UTC,,999.9,94,,,10.7,,36497,61.7,5.9,4.4
2018,9,19,06:00,UTC,,999.4,94,,,11,,48521,55,5.8,4.2
2018,9,19,07:00,UTC,,999,91,,,11.7,,50000,53,6.2,4.6
2018,9,19,08:00,UTC,,998.8,90,,,11.9,,50000,55,5.9,4.5
2018,9,19,09:00,UTC,,998.2,93,,,11.9,,36490,52.5,5.1,3.6
2018,9,19,10:00,UTC,,997.7,95,,,12.1,,50000,50.4,5.9,3.8
2018,9,19,11:00,UTC,,997.3,94,,,12.6,,48207,58.1,6.4,4.8
2018,9,19,12:00,UTC,,997.2,95,,,13,,50000,59.2,5.9,4.5
2018,9,19,13:00,UTC,,997.2,96,,,13.2,,18752,65.8,4.8,3.9
2018,9,19,14:00,UTC,,996.9,96,,,13.3,,39160,55,3.5,2.5
2018,9,19,15:00,UTC,,997,97,,,13.4,,8553,49.4,3.2,2.5
2018,9,19,16:00,UTC,,997.1,97,,,13.4,,10042,53,2.1,1.6
2018,9,19,17:00,UTC,,996.9,97,,,13.3,,6116,56.6,1.7,1.1
2018,9,19,18:00,UTC,,997,98,,,13.1,,2623,47.8,0.6,0.4
2018,9,19,19:00,UTC,,997.5,98,,,13.3,,12756,120.4,1.4,0.9
2018,9,19,20:00,UTC,,997.5,98,,,13.4,,7138,133.2,4,2.8
2018,9,19,21:00,UTC,,997.4,98,,,13.2,,4117,108,3.5,2.2
2018,9,19,22:00,UTC,,997.6,98,,,13,,4797,111.6,4.6,2.1
2018,9,19,23:00,UTC,,997.9,98,,,13,,2980,113.7,3.3,2.3
2018,9,20,00:00,UTC,,997.5,98,,,12.9,,9713,98.3,2.7,1.4
2018,9,20,01:00,UTC,,998,98,,,12.7,,10436,114.2,3.9,2.8
2018,9,20,02:00,UTC,,997.8,98,,,12.7,,14840,95.2,4.1,2.6
2018,9,20,03:00,UTC,,997,95,,,12.6,,13796,80.3,5.7,3.7
2018,9,20,04:00,UTC,,996.1,96,,,12.6,,14830,75.1,5.6,4.4
2018,9,20,05:00,UTC,,995.1,95,,,12.7,,21184,80.8,7.3,4.8
2018,9,20,06:00,UTC,,994.3,91,,,13.4,,33724,76.7,7.2,4.9
2018,9,20,07:00,UTC,,993.8,91,,,13.7,,45084,83.9,7.2,4.6
2018,9,20,08:00,UTC,,993.4,88,,,14.6,,40969,88,7.9,5.1
2018,9,20,09:00,UTC,,992.6,85,,,15,,47988,84.4,8.5,5.5
2018,9,20,10:00,UTC,,991.8,91,,,14.7,,32946,84.4,7.7,5.1
2018,9,20,11:00,UTC,,991.3,80,,,15.9,,50000,120.9,8.1,5.5
2018,9,20,12:00,UTC,,991.8,67,,,15.3,,50000,113.7,13.6,6.7
2018,9,20,13:00,UTC,,992.1,56,,,15.9,,45118,116.8,14.2,8.7
2018,9,20,14:00,UTC,,992.2,56,,,15.6,,42977,112.1,13.2,8
2018,9,20,15:00,UTC,,992.3,56,,,15,,49782,111.6,15.7,8.6
2018,9,20,16:00,UTC,,992.1,56,,,14.6,,50000,109.1,13,8.4
2018,9,20,17:00,UTC,,992.2,58,,,14.1,,42978,108.5,13,7.5
2018,9,20,18:00,UTC,,992.3,59,,,13.8,,50000,108,10.4,7.2
2018,9,20,19:00,UTC,,992.6,73,,,13.1,,50000,124.5,8.8,5.9
2018,9,20,20:00,UTC,,992.9,84,,,11.4,,49966,99.8,7.7,5.3
2018,9,20,21:00,UTC,,992.9,84,,,10.9,,50000,93.6,5.9,3.4
2018,9,20,22:00,UTC,,993.7,76,,,10.3,,50000,139.4,4.2,2.2
2018,9,20,23:00,UTC,,993.7,81,,,10.3,,39436,100.8,6.6,3.5
2018,9,21,00:00,UTC,,994.4,81,,,11.1,,50000,101.3,7.7,4.8
2018,9,21,01:00,UTC,,995,81,,,10.9,,50000,104.9,9.2,4.7
2018,9,21,02:00,UTC,,996,77,,,10.8,,50000,109.1,8.2,5.7
2018,9,21,03:00,UTC,,996.4,77,,,11.3,,50000,108,10.7,5.8
2018,9,21,04:00,UTC,,997.1,80,,,10.4,,49270,104.9,7.4,4.9
2018,9,21,05:00,UTC,,997.1,81,,,10,,49908,98.3,6.9,4.5
2018,9,21,06:00,UTC,,997.6,79,,,10.6,,42601,99.3,8.1,5.5
2018,9,21,07:00,UTC,,997.9,74,,,11.6,,50000,99.3,7.5,5.2
2018,9,21,08:00,UTC,,998.4,69,,,12.3,,43796,107.5,11.7,6.8
2018,9,21,09:00,UTC,,998.7,67,,,12.5,,47281,103.4,10.3,7
2018,9,21,10:00,UTC,,998.6,62,,,13.7,,37479,106,13.6,7.9
2018,9,21,11:00,UTC,,998.7,60,,,14.2,,30805,106.5,10.1,6.2
2018,9,21,12:00,UTC,,998.8,58,,,14.3,,50000,109.6,12.1,6.4
2018,9,21,13:00,UTC,,998.7,58,,,14.1,,44795,102.9,9,4.6
2018,9,21,14:00,UTC,,998.4,57,,,14.2,,50000,98.8,5.8,3.9
2018,9,21,15:00,UTC,,998.1,66,,,13.3,,45411,94.1,8.5,5.6
2018,9,21,16:00,UTC,,997,79,,,12.2,,39324,81.3,8.1,6
2018,9,21,17:00,UTC,,995.7,90,,,10.9,,47840,72,8,6
2018,9,21,18:00,UTC,,994.9,91,,,10.8,,50000,73.6,8.6,6.2
2018,9,21,19:00,UTC,,993.5,93,,,11.4,,46370,72.5,8.2,5.9
2018,9,21,20:00,UTC,,992.1,93,,,12.6,,37138,72.5,8.2,5.9
2018,9,21,21:00,UTC,,990.9,92,,,13.4,,23433,71.5,7.1,5.5
2018,9,21,22:00,UTC,,989.8,92,,,14,,22333,77.2,7.8,5.5
2018,9,21,23:00,UTC,,989,89,,,15.1,,43162,77.2,8,5.9
2018,9,22,00:00,UTC,,988.8,87,,,15.6,,50000,79.2,8.6,5.6
2018,9,22,01:00,UTC,,988,85,,,16.2,,46456,80.3,5.9,3.8
2018,9,22,02:00,UTC,,986.3,84,,,16.4,,50000,72.5,8.2,5.8
2018,9,22,03:00,UTC,,985.2,82,,,16.7,,50000,72,8.9,6.6
2018,9,22,04:00,UTC,,984.4,79,,,17.1,,46537,75.6,9.2,6.8
2018,9,22,05:00,UTC,,983.5,78,,,16.9,,43859,76.7,10.3,7.6
2018,9,22,06:00,UTC,,984.2,84,,,14.6,,8575,102.9,9.5,5.9
2018,9,22,07:00,UTC,,984,88,,,13.6,,50000,106.5,7.6,4.3
2018,9,22,08:00,UTC,,983.9,86,,,13,,50000,92.1,7,3.9
2018,9,22,09:00,UTC,,983.5,84,,,12.7,,50000,84.9,5.3,3.8
2018,9,22,10:00,UTC,,983,73,,,13.1,,50000,85.4,7.2,5
2018,9,22,11:00,UTC,,982.5,70,,,13.4,,50000,81.8,8.6,5.9
2018,9,22,12:00,UTC,,982.4,59,,,14.3,,50000,92.6,13.1,6.9
2018,9,22,13:00,UTC,,982,61,,,14.2,,50000,85.9,11.5,6.6
2018,9,22,14:00,UTC,,982,57,,,13.9,,46038,91.1,11.7,7.7
2018,9,22,15:00,UTC,,982.1,64,,,12.8,,50000,93.1,12.9,8.7
2018,9,22,16:00,UTC,,982.5,72,,,12,,50000,97.7,13.4,8
2018,9,22,17:00,UTC,,983.5,74,,,11.5,,50000,98.3,10.2,6.7
2018,9,22,18:00,UTC,,983.8,72,,,11.4,,50000,92.6,10.5,7.2
2018,9,22,19:00,UTC,,983.8,72,,,11.2,,50000,92.6,10.4,6.8
2018,9,22,20:00,UTC,,984,80,,,10.2,,50000,86.9,9.7,6.7
2018,9,22,21:00,UTC,,984.2,77,,,10.4,,50000,91.6,11.4,7.6
2018,9,22,22:00,UTC,,984.3,76,,,10.5,,50000,93.1,10.6,6.8
2018,9,22,23:00,UTC,,984.2,76,,,10.3,,50000,92.6,9.6,7
2018,9,23,00:00,UTC,,984.3,76,,,10.2,,50000,95.7,10.4,6.5
2018,9,23,01:00,UTC,,984.5,78,,,9.7,,50000,94.1,9.6,6.2
2018,9,23,02:00,UTC,,984.5,77,,,9.6,,50000,93.1,11,6.9
2018,9,23,03:00,UTC,,984.4,78,,,9.3,,50000,93.1,8.6,6.3
2018,9,23,04:00,UTC,,984.4,80,,,9,,50000,92.1,10.2,6.5
2018,9,23,05:00,UTC,,984.5,82,,,8.7,,50000,95.2,7.7,5.1
2018,9,23,06:00,UTC,,984.7,80,,,9.3,,50000,95.7,7.8,5.7
2018,9,23,07:00,UTC,,984.8,78,,,10,,50000,95.7,10.6,6.3
2018,9,23,08:00,UTC,,985,74,,,10.6,,50000,101.9,7.9,5
2018,9,23,09:00,UTC,,985,76,,,10.4,,50000,99.8,8.4,5.2
2018,9,23,10:00,UTC,,985.1,60,,,12.1,,33260,109.1,11.6,7
2018,9,23,11:00,UTC,,985.4,54,,,12.1,,39635,115.2,12.1,7.2
2018,9,23,12:00,UTC,,985.8,59,,,11.6,,50000,122.4,9.3,6.1
2018,9,23,13:00,UTC,,985.9,59,,,11.3,,46525,119.9,9.1,6.3
2018,9,23,14:00,UTC,,986.2,61,,,10.7,,50000,118.8,9.6,6.3
2018,9,23,15:00,UTC,,986,57,,,11.1,,50000,115.7,9.1,6.8
2018,9,23,16:00,UTC,,986.2,67,,,9.9,,50000,111.1,7.9,4.4
2018,9,23,17:00,UTC,,986.2,72,,,9.3,,50000,103.9,6.7,4.2
2018,9,23,18:00,UTC,,986.3,79,,,8.2,,50000,103.9,4.4,3
2018,9,23,19:00,UTC,,986.5,70,,,8.5,,50000,112.1,5.3,3.7
2018,9,23,20:00,UTC,,986.8,63,,,9.2,,50000,131.2,7.1,5.1
2018,9,23,21:00,UTC,,987.1,60,,,9.3,,50000,124.5,7.9,5.4
2018,9,23,22:00,UTC,,987.3,64,,,9,,50000,119.9,8,5
2018,9,23,23:00,UTC,,987.6,65,,,8.8,,50000,119.4,7.9,4.8
2018,9,24,00:00,UTC,,988.1,73,,,7.8,,9918,129.6,8.4,5.9
2018,9,24,01:00,UTC,,988.2,76,,,7.7,,11371,120.9,6.8,4.3
2018,9,24,02:00,UTC,,989.1,74,,,7.6,,33155,139.9,9.6,6.8
2018,9,24,03:00,UTC,,989.6,68,,,8.1,,50000,142,7.6,5.3
2018,9,24,04:00,UTC,,990.3,66,,,8.2,,50000,143,7.4,5.2
2018,9,24,05:00,UTC,,991,68,,,8,,50000,144.6,7.2,4.8
2018,9,24,06:00,UTC,,991.7,66,,,8.6,,50000,136.3,7,4.3
2018,9,24,07:00,UTC,,992.7,66,,,8.9,,50000,137.4,6.8,5
2018,9,24,08:00,UTC,,993.5,63,,,9.1,,50000,145.6,9.2,6.5
2018,9,24,09:00,UTC,,994.4,62,,,9.4,,50000,132.2,7.5,5.2
2018,9,24,10:00,UTC,,995.3,61,,,9.6,,50000,142,7,5
2018,9,24,11:00,UTC,,996.2,63,,,8.9,,50000,144.6,9.5,5.8
2018,9,24,12:00,UTC,,997.1,61,,,9.2,,50000,154.8,8.5,5.8
2018,9,24,13:00,UTC,,997.9,58,,,8.9,,50000,160.5,9.8,5.9
2018,9,24,14:00,UTC,,998.7,53,,,9,,50000,164.1,8.1,4.9
2018,9,24,15:00,UTC,,999.7,82,,,6.5,,50000,144.6,2.5,1.3
2018,9,24,16:00,UTC,,1000.3,53,,,8.2,,50000,155.9,8.6,4.6
2018,9,24,17:00,UTC,,1001,51,,,8.8,,50000,163.1,13.2,7.6
2018,9,24,18:00,UTC,,1001.8,50,,,8.7,,49761,165.7,9.3,5.4
2018,9,24,19:00,UTC,,1002.8,48,,,8.8,,50000,166.2,9.9,6.3
2018,9,24,20:00,UTC,,1003.6,52,,,7.9,,50000,165.7,10,6.5
2018,9,24,21:00,UTC,,1004.4,53,,,7.7,,50000,170.3,9.4,6.2
2018,9,24,22:00,UTC,,1005.4,55,,,7.2,,50000,172.9,9.5,5.1
2018,9,24,23:00,UTC,,1006.3,54,,,6.5,,50000,168.7,8.1,5.1
2018,9,25,00:00,UTC,,1007,59,,,6.1,,50000,172.3,5.6,3.7
2018,9,25,01:00,UTC,,1007.7,58,,,5.4,,50000,164.6,4.7,3.2
2018,9,25,02:00,UTC,,1008.1,56,,,5.1,,50000,163.1,5.1,3
2018,9,25,03:00,UTC,,1008.6,59,,,4.9,,46636,161.5,5.2,3.5
2018,9,25,04:00,UTC,,1008.9,57,,,5,,50000,162.6,4.4,3.1
2018,9,25,05:00,UTC,,1009,56,,,5.2,,50000,155.9,3.5,2.7
2018,9,25,06:00,UTC,,1009.4,63,,,6.2,,50000,145.1,4.7,3.2
2018,9,25,07:00,UTC,,1009.5,52,,,8,,41263,157.4,6.2,4.1
2018,9,25,08:00,UTC,,1009.4,51,,,8.1,,47509,143,6,3.9
2018,9,25,09:00,UTC,,1009.5,53,,,8.3,,50000,134.3,7,4.6
2018,9,25,10:00,UTC,,1009.4,60,,,8.2,,50000,133.8,8,5.9
2018,9,25,11:00,UTC,,1009.2,54,,,9.4,,41296,134.8,7.7,5.8
2018,9,25,12:00,UTC,,1008.5,53,,,9.6,,49054,121.4,9.6,5.9
2018,9,25,13:00,UTC,,1007.9,57,,,9.7,,46089,117.8,9.1,6.5
2018,9,25,14:00,UTC,,1007.3,67,,,8.7,,50000,114.7,9.5,5.5
2018,9,25,15:00,UTC,,1006.8,70,,,8.8,,50000,115.2,9.9,5.8
2018,9,25,16:00,UTC,,1005.7,74,,,8.6,,50000,120.4,7.9,5.2
2018,9,25,17:00,UTC,,1005.1,73,,,8.7,,50000,123.5,9.4,5.7
2018,9,25,18:00,UTC,,1004.7,71,,,9.3,,50000,121.9,11.1,6.4
2018,9,25,19:00,UTC,,1004.1,69,,,9.8,,50000,123,7.4,5.2
2018,9,25,20:00,UTC,,1003.9,63,,,10.3,,50000,128.6,11,7.6
2018,9,25,21:00,UTC,,1003.5,62,,,10.1,,49178,131.7,10.2,7.4
2018,9,25,22:00,UTC,,1003.2,65,,,9.8,,50000,130.7,9.4,6.9
2018,9,25,23:00,UTC,,1001.9,69,,,9.3,,50000,130.2,9.5,6.2
2018,9,26,00:00,UTC,,1001.1,70,,,9.3,,50000,126,9.6,6.1
2018,9,26,01:00,UTC,,999.7,77,,,8.7,,50000,124,6.9,4.6
2018,9,26,02:00,UTC,,998.7,85,,,8.3,,48278,117.8,7.5,4.9
2018,9,26,03:00,UTC,,997.1,91,,,8.1,,50000,115.2,5.9,4.1
2018,9,26,04:00,UTC,,995.7,88,,,8.1,,50000,108,5.2,3.5
2018,9,26,05:00,UTC,,994.1,93,,,8.1,,47534,101.9,6.1,4.4
2018,9,26,06:00,UTC,,992.3,92,,,8.3,,39325,101.3,8.2,5.2
2018,9,26,07:00,UTC,,990.7,87,,,8.3,,39818,95.2,7.6,5
2018,9,26,08:00,UTC,,988.7,87,,,8.2,,28649,88.5,8.1,5.1
2018,9,26,09:00,UTC,,986.6,92,,,7.6,,30858,89,7.8,4.6
2018,9,26,10:00,UTC,,984.6,93,,,7.6,,36084,87.5,8.1,5
2018,9,26,11:00,UTC,,982.3,92,,,7.8,,26715,93.6,8.3,5.2
2018,9,26,12:00,UTC,,980.8,92,,,8.1,,25130,108.5,8.2,5.1
2018,9,26,13:00,UTC,,979.7,85,,,7.7,,14217,141,11.8,8.2
2018,9,26,14:00,UTC,,978.5,86,,,7.4,,50000,107,4.7,3.1
2018,9,26,15:00,UTC,,977.6,83,,,9,,50000,124.5,9.7,5.4
2018,9,26,16:00,UTC,,977.1,78,,,8.9,,50000,125,7.5,5.2
2018,9,26,17:00,UTC,,976.3,82,,,8.1,,50000,111.6,2.4,1.8
2018,9,26,18:00,UTC,,975.9,78,,,7.5,,42354,135.3,10,6.8
2018,9,26,19:00,UTC,,976,84,,,6.9,,50000,115.2,4.1,2.8
2018,9,26,20:00,UTC,,975.8,92,,,6.8,,50000,106,4.5,3.2
2018,9,26,21:00,UTC,,976.5,84,,,6.6,,50000,153.8,4.8,3.7
2018,9,26,22:00,UTC,,977.5,79,,,8.2,,50000,164.6,7.8,4.4
2018,9,26,23:00,UTC,,978.5,75,,,7.9,,50000,161,7.8,5.2
2018,9,27,00:00,UTC,,978.7,82,,,7,,46030,146.1,8.6,4.8
2018,9,27,01:00,UTC,,979,85,,,6.5,,8112,154.3,11.9,8.2
2018,9,27,02:00,UTC,,979.5,84,,,6.4,,45052,154.3,11.2,7.4
2018,9,27,03:00,UTC,,979.6,86,,,5.6,,11785,154.8,11.8,7.9
2018,9,27,04:00,UTC,,980.6,87,,,5.5,,31447,163.1,10.8,7.1
2018,9,27,05:00,UTC,,981.8,87,,,5.3,,49754,169.3,11.3,6.3
2018,9,27,06:00,UTC,,983.3,88,,,6,,41300,169.8,11,7.4
2018,9,27,07:00,UTC,,985.2,88,,,6.5,,36349,171.3,12.9,8.5
2018,9,27,08:00,UTC,,987.1,85,,,6.5,,50000,168.2,15.4,9.3
2018,9,27,09:00,UTC,,989.3,81,,,6.5,,50000,170.3,13.6,9.3
2018,9,27,10:00,UTC,,990.9,80,,,6.4,,35033,174.9,11.9,7.4
2018,9,27,11:00,UTC,,992.5,74,,,6.8,,50000,174.9,11.5,7.1
2018,9,27,12:00,UTC,,993.7,73,,,7.2,,45585,176.5,9.8,6.1
2018,9,27,13:00,UTC,,994.9,66,,,7.6,,50000,175.9,9.4,5.4
2018,9,27,14:00,UTC,,995.6,72,,,7,,50000,167.2,11.6,6.4
2018,9,27,15:00,UTC,,996.1,65,,,7.8,,50000,167.2,9.4,5.1
2018,9,27,16:00,UTC,,996.7,64,,,7.4,,50000,171.8,8.7,5.6
2018,9,27,17:00,UTC,,997.1,65,,,6.7,,50000,180.1,6.5,3.5
2018,9,27,18:00,UTC,,997.3,62,,,6.4,,50000,185.2,5.8,3.1
2018,9,27,19:00,UTC,,997.6,60,,,5.4,,50000,180.1,6.4,3.3
2018,9,27,20:00,UTC,,997.8,60,,,5.4,,50000,180.6,6.2,3.3
2018,9,27,21:00,UTC,,997.8,60,,,5,,50000,179,4.6,2.7
2018,9,27,22:00,UTC,,998.1,62,,,4.6,,50000,0.5,5.3,2.6
2018,9,27,23:00,UTC,,998.2,66,,,3.9,,50000,2.1,4.5,2.6
2018,9,28,00:00,UTC,,998.2,67,,,3.6,,50000,1.5,5.6,2.7
2018,9,28,01:00,UTC,,998.3,70,,,3.1,,50000,2.1,3.7,2.5
2018,9,28,02:00,UTC,,998.6,71,,,2.7,,50000,183.7,4.8,2.8
2018,9,28,03:00,UTC,,999.1,70,,,2.7,,50000,183.7,4.9,2.9
2018,9,28,04:00,UTC,,999.6,70,,,2.6,,50000,2.1,6.4,3.4
2018,9,28,05:00,UTC,,1000.2,75,,,2.2,,50000,182.6,4.6,2.5
2018,9,28,06:00,UTC,,1000.8,77,,,2,,50000,178,4.6,2.9
2018,9,28,07:00,UTC,,1001.3,74,,,2.7,,50000,177,5.2,3
2018,9,28,08:00,UTC,,1002.2,62,,,3.9,,50000,176.5,6.4,4
2018,9,28,09:00,UTC,,1002.8,57,,,5.2,,49571,177.5,6.4,3.9
2018,9,28,10:00,UTC,,1003.5,54,,,5.3,,49290,175.9,7.8,4.9
2018,9,28,11:00,UTC,,1004.1,51,,,5.7,,50000,172.3,9.6,5.7
2018,9,28,12:00,UTC,,1004.8,52,,,5.8,,50000,169.8,7.8,5.4
2018,9,28,13:00,UTC,,1005.3,51,,,5.8,,50000,171.3,8.9,5.9
2018,9,28,14:00,UTC,,1006,54,,,5.6,,50000,164.6,8,5.6
2018,9,28,15:00,UTC,,1006.6,50,,,5.7,,50000,168.7,7.1,4.2
2018,9,28,16:00,UTC,,1007.1,52,,,4.9,,50000,169.8,5,3.5
2018,9,28,17:00,UTC,,1007.6,57,,,4.3,,50000,180.1,3.6,2.1
2018,9,28,18:00,UTC,,1008.3,64,,,3.1,,50000,1.5,2.5,1.5
2018,9,28,19:00,UTC,,1008.6,62,,,3.3,,50000,6.2,2.9,1.7
2018,9,28,20:00,UTC,,1008.6,71,,,0.8,,50000,1,1.2,0.6
2018,9,28,21:00,UTC,,1008.8,83,,,-1.2,,50000,76.7,1.4,0.8
2018,9,28,22:00,UTC,,1009.7,83,,,0.5,,50000,117.8,2.7,1.1
2018,9,28,23:00,UTC,,1009.9,90,,,-1.2,,50000,96.7,0.9,0.7
2018,9,29,00:00,UTC,,1010,94,,,-1.1,,50000,83.9,1.2,0.7
2018,9,29,01:00,UTC,,1009.9,93,,,-2.8,,50000,90,2,1.6
2018,9,29,02:00,UTC,,1010,91,,,-3.6,,50000,76.1,1.6,1.2
2018,9,29,03:00,UTC,,1009.9,90,,,-3.5,,50000,78.2,2.2,1.9
2018,9,29,04:00,UTC,,1009.7,92,,,-4.2,,50000,70.5,2.2,1.9
2018,9,29,05:00,UTC,,1009.4,92,,,-4.2,,50000,66.4,2.8,2
2018,9,29,06:00,UTC,,1009,90,,,-1.3,,50000,76.7,4,3
2018,9,29,07:00,UTC,,1008.4,89,,,0.2,,50000,76.1,4.2,3.1
2018,9,29,08:00,UTC,,1008.3,85,,,2.5,,50000,82.8,4.8,3.5
2018,9,29,09:00,UTC,,1007.8,78,,,4.1,,50000,82.8,5.5,4
2018,9,29,10:00,UTC,,1007.3,76,,,5.6,,50000,90,6.2,4.1
2018,9,29,11:00,UTC,,1006.4,70,,,6.6,,50000,92.6,7.3,4.6
2018,9,29,12:00,UTC,,1005.9,62,,,7.5,,50000,104.9,8,5.5
2018,9,29,13:00,UTC,,1004.9,64,,,7.1,,48903,96.2,7.8,5
2018,9,29,14:00,UTC,,1003.7,66,,,6.6,,50000,90.5,7.1,4.8
2018,9,29,15:00,UTC,,1002.6,67,,,6.4,,50000,88,8.6,5.4
2018,9,29,16:00,UTC,,1001.4,67,,,6.1,,50000,83.3,8.5,5.3
2018,9,29,17:00,UTC,,1000.1,68,,,6,,50000,83.9,8.9,5.9
2018,9,29,18:00,UTC,,999,67,,,6.2,,50000,86.9,8.4,5.8
2018,9,29,19:00,UTC,,998,68,,,6.1,,50000,84.4,8.7,6
2018,9,29,20:00,UTC,,997,70,,,6,,50000,86.9,7.2,4.9
2018,9,29,21:00,UTC,,996.2,80,,,5.6,,49928,87.5,7.4,5.1
2018,9,29,22:00,UTC,,995.2,84,,,5.5,,50000,86.4,8.2,5.6
2018,9,29,23:00,UTC,,994.5,87,,,5.8,,50000,89.5,8.8,6
2018,9,30,00:00,UTC,,993.7,92,,,5.4,,31994,87.5,9.8,6.4
2018,9,30,01:00,UTC,,993.1,92,,,5.2,,50000,89,9,5.9
2018,9,30,02:00,UTC,,992.4,94,,,4.8,,50000,89,7.8,5.2
2018,9,30,03:00,UTC,,991.5,91,,,5.5,,50000,90.5,7.8,5.7
2018,9,30,04:00,UTC,,990.9,91,,,5.8,,50000,93.1,8.1,5.5
2018,9,30,05:00,UTC,,990.6,88,,,6.3,,50000,98.3,8.4,5.8
2018,9,30,06:00,UTC,,990.6,89,,,6.8,,40394,96.7,5.9,4.3
2018,9,30,07:00,UTC,,990.6,91,,,7.1,,50000,103.9,6.5,3.9
2018,9,30,08:00,UTC,,990.6,89,,,8.1,,50000,106,7.8,4.6
2018,9,30,09:00,UTC,,990.6,88,,,8.2,,45766,104.9,5.7,4.2
2018,9,30,10:00,UTC,,990.5,69,,,9.1,,50000,125.5,7.7,5.5
2018,9,30,11:00,UTC,,990.6,69,,,9.5,,50000,134.8,8.1,5.7
2018,9,30,12:00,UTC,,990.6,63,,,10.4,,45844,123.5,9.9,6.9
2018,9,30,13:00,UTC,,990.7,68,,,9.6,,50000,126.6,8.9,6.2
2018,9,30,14:00,UTC,,991,68,,,9.4,,50000,121.9,9.1,6.3
2018,9,30,15:00,UTC,,991.5,74,,,8.4,,50000,119.9,8,4.7
2018,9,30,16:00,UTC,,991.7,77,,,8.1,,50000,117.3,7.4,4.6
2018,9,30,17:00,UTC,,992.1,82,,,7.5,,50000,109.6,5.6,3.9
2018,9,30,18:00,UTC,,992.3,83,,,7.8,,50000,112.7,6.7,4.4
2018,9,30,19:00,UTC,,992.7,90,,,6.5,,50000,99.8,3.9,2.5
2018,9,30,20:00,UTC,,992.9,88,,,6.8,,50000,108.5,5.3,3.6
2018,9,30,21:00,UTC,,993.2,83,,,7.6,,50000,114.7,4.4,3.1
2018,9,30,22:00,UTC,,993.6,83,,,7.1,,50000,120.4,4.8,3.2
2018,9,30,23:00,UTC,,994.1,88,,,6.1,,50000,110.1,4.1,3
2018,10,1,00:00,UTC,,994.5,87,,,6.1,,50000,112.7,5.2,3.5
2018,10,1,01:00,UTC,,994.8,89,,,5.7,,50000,108.5,5,3.5
2018,10,1,02:00,UTC,,995,92,,,5.1,,50000,105.5,4.5,3.1
2018,10,1,03:00,UTC,,995.4,92,,,4.7,,50000,103.9,8.5,4.3
2018,10,1,04:00,UTC,,995.8,92,,,4.5,,50000,100.3,8.4,3.9
2018,10,1,05:00,UTC,,996.3,93,,,4.3,,50000,99.8,5.5,3.5
2018,10,1,06:00,UTC,,996.9,92,,,4.1,,50000,103.4,5.6,3.7
2018,10,1,07:00,UTC,,997.4,91,,,4.9,,50000,104.9,5.7,4.1
2018,10,1,08:00,UTC,,997.8,84,,,6.6,,35131,107,5.8,3.9
2018,10,1,09:00,UTC,,998.3,76,,,8.6,,50000,119.4,6.2,4.5
2018,10,1,10:00,UTC,,999,76,,,8.8,,38449,137.9,9.1,6.6
2018,10,1,11:00,UTC,,999.4,76,,,8.7,,50000,136.8,6.3,4.9
2018,10,1,12:00,UTC,,1000,76,,,8.5,,50000,137.4,5.6,4.5
2018,10,1,13:00,UTC,,1000.5,76,,,8.2,,50000,144,7.4,5.7
2018,10,1,14:00,UTC,,1000.8,74,,,8.4,,50000,140.4,6.7,4.8
2018,10,1,15:00,UTC,,1001.2,72,,,8.1,,49888,123,4.9,3.6
2018,10,1,16:00,UTC,,1001.6,77,,,7.7,,50000,121.4,3.3,2.3
2018,10,1,17:00,UTC,,1001.8,82,,,6.9,,50000,97.7,2.2,1.8
2018,10,1,18:00,UTC,,1001.8,84,,,6.7,,50000,97.2,2.7,2
2018,10,1,19:00,UTC,,1001.9,85,,,6.7,,50000,96.7,3.6,2.6
2018,10,1,20:00,UTC,,1001.8,92,,,4.9,,50000,87.5,2.8,1.9
2018,10,1,21:00,UTC,,1001.7,91,,,4.7,,50000,88.5,2.2,1.3
2018,10,1,22:00,UTC,,1001.5,93,,,2,,50000,76.1,2.8,2.1
2018,10,1,23:00,UTC,,1001.4,96,,,1.6,,50000,66.4,2.9,2.6
2018,10,2,00:00,UTC,,1000.9,96,,,0.7,,50000,67.9,3.9,3.4
2018,10,2,01:00,UTC,,1000.6,96,,,0.8,,50000,64.8,3.2,2.9
2018,10,2,02:00,UTC,,1000.1,96,,,1.4,,50000,68.4,4.6,3.9
2018,10,2,03:00,UTC,,999.6,96,,,0.5,,50000,67.9,4.1,3.6
2018,10,2,04:00,UTC,,999.3,96,,,-0.1,,50000,64.3,3.5,2.8
2018,10,2,05:00,UTC,,998.9,96,,,0.5,,50000,60.7,3.3,2.7
2018,10,2,06:00,UTC,,998.5,95,,,0.6,,50000,56.6,3.2,2.9
2018,10,2,07:00,UTC,,998.1,95,,,1.5,,50000,64.3,2.5,2.1
2018,10,2,08:00,UTC,,997.6,92,,,3,,50000,59.7,5.2,3.9
2018,10,2,09:00,UTC,,997.1,89,,,5.6,,41298,55.6,2.9,1.7
2018,10,2,10:00,UTC,,996.8,85,,,5.2,,49482,79.7,3.1,2.2
2018,10,2,11:00,UTC,,996.7,94,,,3.9,,34590,65.3,4.7,3.7
2018,10,2,12:00,UTC,,996.2,88,,,5,,50000,67.4,3.3,2.6
2018,10,2,13:00,UTC,,995.9,80,,,6.9,,44225,44.2,1.6,0.9
2018,10,2,14:00,UTC,,995.8,79,,,6.8,,50000,93.6,4.6,1.8
2018,10,2,15:00,UTC,,995.7,83,,,6,,50000,84.9,2.9,1
2018,10,2,16:00,UTC,,995.8,90,,,4.7,,50000,107,3.9,3
2018,10,2,17:00,UTC,,995.9,88,,,3.3,,50000,126,1.8,1.2
2018,10,2,18:00,UTC,,996,93,,,3.1,,50000,150.2,0.6,0.4
2018,10,2,19:00,UTC,,996.2,90,,,3.4,,50000,49.9,4.1,2.5
2018,10,2,20:00,UTC,,996.3,93,,,3.5,,50000,37.6,2.4,1.5
2018,10,2,21:00,UTC,,996.5,95,,,2.9,,50000,45.3,1.8,1.3
2018,10,2,22:00,UTC,,996.8,92,,,3.8,,50000,35.5,4.4,2.8
2018,10,2,23:00,UTC,,997.2,93,,,3.3,,50000,38.6,3.3,2.4
2018,10,3,00:00,UTC,,997.6,93,,,3.5,,50000,32.9,3.6,2.3
2018,10,3,01:00,UTC,,998.1,88,,,3.1,,50000,37,5.7,3.5
2018,10,3,02:00,UTC,,998.5,88,,,2.7,,50000,34,5.7,3.2
2018,10,3,03:00,UTC,,999,90,,,2.5,,50000,29.8,5.6,3.6
2018,10,3,04:00,UTC,,999.4,88,,,2.2,,50000,32.4,5.5,3.5
2018,10,3,05:00,UTC,,1000,85,,,1.6,,50000,30.9,5.1,3.2
2018,10,3,06:00,UTC,,1000.6,83,,,1.2,,50000,31.4,5.9,3.4
2018,10,3,07:00,UTC,,1001.1,82,,,1.4,,50000,29.8,5.4,3.3
2018,10,3,08:00,UTC,,1001.5,78,,,1.9,,45352,26.8,5.3,3.4
2018,10,3,09:00,UTC,,1001.8,67,,,3.2,,41354,20.6,5,3.4
2018,10,3,10:00,UTC,,1002.3,61,,,3.6,,26118,13.9,5.6,3.6
2018,10,3,11:00,UTC,,1002.7,60,,,4.2,,45766,182.6,4,2.6
2018,10,3,12:00,UTC,,1003,56,,,4.6,,50000,184.2,6.9,3.3
2018,10,3,13:00,UTC,,1003.2,56,,,4.7,,50000,180.6,6.5,3.5
2018,10,3,14:00,UTC,,1003.8,50,,,4.4,,49619,5.7,5.1,3.1
2018,10,3,15:00,UTC,,1004.2,56,,,3.6,,50000,8.2,3.5,2.5
2018,10,3,16:00,UTC,,1004.6,66,,,1.9,,50000,0.5,3.1,1.4
2018,10,3,17:00,UTC,,1005.1,64,,,1.8,,50000,177,2.9,1.9
2018,10,3,18:00,UTC,,1005.6,62,,,2.2,,50000,4.1,5,3
2018,10,3,19:00,UTC,,1006.1,63,,,1.6,,50000,6.7,4.4,2.8
2018,10,3,20:00,UTC,,1006.5,74,,,0.1,,50000,181.6,1.8,1
2018,10,3,21:00,UTC,,1006.5,79,,,-1.1,,50000,165.7,1.3,0.6
2018,10,3,22:00,UTC,,1006.7,85,,,-3,,50000,174.4,1.2,1
2018,10,3,23:00,UTC,,1006.8,89,,,-3.5,,50000,155.4,1.1,0.9
2018,10,4,00:00,UTC,,1006.9,88,,,-4,,50000,152.8,1.2,1
2018,10,4,01:00,UTC,,1007.2,86,,,-4.3,,50000,56.6,1.1,0.5
2018,10,4,02:00,UTC,,1007.5,88,,,-4.2,,50000,81.3,1.5,1
2018,10,4,03:00,UTC,,1007.6,92,,,-3.6,,50000,75.1,3.5,1.8
2018,10,4,04:00,UTC,,1007.7,92,,,-3.1,,50000,89.5,3.2,1.3
2018,10,4,05:00,UTC,,1007.7,89,,,-4.2,,50000,93.6,4.7,1.4
2018,10,4,06:00,UTC,,1007.8,86,,,-1.5,,50000,109.6,1.9,1
2018,10,4,07:00,UTC,,1007.9,80,,,1.9,,50000,119.9,4,2.5
2018,10,4,08:00,UTC,,1008.1,68,,,3.7,,50000,123.5,4.8,3.7
2018,10,4,09:00,UTC,,1008.3,65,,,5.4,,50000,146.6,5.5,4
2018,10,4,10:00,UTC,,1008.3,63,,,6.3,,39415,150.2,7.1,4.4
2018,10,4,11:00,UTC,,1008.3,63,,,6.3,,50000,145.6,5.3,3.6
2018,10,4,12:00,UTC,,1008.7,61,,,6.1,,47925,149.7,7,5.2
2018,10,4,13:00,UTC,,1008.7,56,,,6,,50000,149.2,6.6,4.8
2018,10,4,14:00,UTC,,1008.8,57,,,5.9,,50000,153.3,5,3.9
2018,10,4,15:00,UTC,,1008.8,66,,,3.9,,50000,138.9,2.6,2.2
2018,10,4,16:00,UTC,,1008.8,80,,,2.9,,50000,115.7,4,2.7
2018,10,4,17:00,UTC,,1008.6,81,,,2.5,,50000,117.3,3.4,2.1
2018,10,4,18:00,UTC,,1008.4,81,,,2.6,,50000,105.5,4.2,2.9
2018,10,4,19:00,UTC,,1008.2,81,,,2,,50000,100.3,3.7,2.5
2018,10,4,20:00,UTC,,1008,74,,,2.6,,50000,106.5,5.6,3.8
2018,10,4,21:00,UTC,,1007.5,71,,,2.5,,50000,95.2,4.6,3.2
2018,10,4,22:00,UTC,,1007.2,73,,,2,,50000,89,6.5,4.1
2018,10,4,23:00,UTC,,1006.4,79,,,0.9,,50000,81.8,4.6,3.3
2018,10,5,00:00,UTC,,1006,82,,,0.1,,50000,78.7,6.8,4.5
2018,10,5,01:00,UTC,,1005.1,83,,,1,,50000,84.4,6.1,4.1
2018,10,5,02:00,UTC,,1003.8,82,,,1.4,,50000,86.9,6.5,4.4
2018,10,5,03:00,UTC,,1002.4,84,,,0.8,,50000,72.5,6.6,5.3
2018,10,5,04:00,UTC,,1000.7,78,,,1.2,,50000,72,9.1,6.3
2018,10,5,05:00,UTC,,998.9,85,,,1.4,,42770,75.1,9.4,6.4
2018,10,5,06:00,UTC,,997,87,,,1.7,,49581,73.6,8.9,6.7
2018,10,5,07:00,UTC,,994,93,,,1.1,,11456,70,11.8,7.9
2018,10,5,08:00,UTC,,992.8,95,,,0.7,,16365,75.6,10,6.9
2018,10,5,09:00,UTC,,991.2,95,,,1.4,,8782,80.8,10.8,6.6
2018,10,5,10:00,UTC,,990.6,95,,,2.6,,9657,91.6,7.3,5.4
2018,10,5,11:00,UTC,,990.5,95,,,4.4,,48501,101.9,7.5,5.1
2018,10,5,12:00,UTC,,990.8,85,,,6.6,,49295,128.1,8.3,5.7
2018,10,5,13:00,UTC,,991.4,80,,,7.2,,50000,131.7,10.1,6.3
2018,10,5,14:00,UTC,,991.7,73,,,7.8,,50000,134.8,10.9,7.9
2018,10,5,15:00,UTC,,992.4,71,,,8,,50000,133.2,11.6,7.8
2018,10,5,16:00,UTC,,993,69,,,7.9,,50000,130.7,10.4,6.9
2018,10,5,17:00,UTC,,993.3,66,,,8,,50000,130.2,11.9,8
2018,10,5,18:00,UTC,,993.5,65,,,7.9,,50000,129.1,9.4,7
2018,10,5,19:00,UTC,,993.5,65,,,8,,50000,129.1,11,7.4
2018,10,5,20:00,UTC,,993.5,64,,,8.1,,48668,127.6,11.1,6.8
2018,10,5,21:00,UTC,,993.4,64,,,8.1,,50000,126.6,10.1,6.4
2018,10,5,22:00,UTC,,993.2,56,,,9.1,,50000,130.7,13.3,9
2018,10,5,23:00,UTC,,993.2,52,,,9.4,,50000,129.6,13.8,9.2
2018,10,6,00:00,UTC,,992.9,59,,,8.5,,50000,131.7,7.8,5.5
2018,10,6,01:00,UTC,,992.5,56,,,8.5,,50000,127.1,9.2,6.1
2018,10,6,02:00,UTC,,992.4,59,,,8.1,,50000,128.1,9,6.2
2018,10,6,03:00,UTC,,992.1,58,,,7.9,,50000,122.4,6.9,3.8
2018,10,6,04:00,UTC,,991.9,82,,,4.4,,50000,85.4,3.9,3
2018,10,6,05:00,UTC,,991.5,90,,,4,,50000,90.5,5.7,3.7
2018,10,6,06:00,UTC,,991.5,89,,,4.2,,50000,91.6,5.8,3.8
2018,10,6,07:00,UTC,,991.4,83,,,5.8,,49810,98.8,5.6,3.8
2018,10,6,08:00,UTC,,991.4,75,,,6.7,,50000,96.2,5,3.7
2018,10,6,09:00,UTC,,991.7,64,,,7.7,,50000,124.5,6.5,4.8
2018,10,6,10:00,UTC,,992.1,66,,,7.7,,49189,126,7.5,5
2018,10,6,11:00,UTC,,992.5,68,,,7.8,,50000,124.5,8.3,5.5
2018,10,6,12:00,UTC,,993.2,71,,,7.7,,50000,132.7,9.5,6
2018,10,6,13:00,UTC,,994,69,,,7.7,,50000,140.4,9.4,6.7
2018,10,6,14:00,UTC,,995.1,75,,,6.8,,49385,150.2,12,7.4
2018,10,6,15:00,UTC,,996.1,82,,,6,,50000,153.8,10.8,6.6
2018,10,6,16:00,UTC,,997.2,78,,,4.9,,50000,157.4,8.7,6.4
2018,10,6,17:00,UTC,,998.4,77,,,4.3,,50000,167.7,7.6,5
2018,10,6,18:00,UTC,,999.4,73,,,4,,50000,161.5,6.7,4.6
2018,10,6,19:00,UTC,,1000.5,72,,,3.3,,50000,166.7,5.9,3.7
2018,10,6,20:00,UTC,,1001.5,70,,,2.7,,50000,166.2,6.5,4
2018,10,6,21:00,UTC,,1002.2,77,,,1.1,,50000,156.9,3.3,2.7
2018,10,6,22:00,UTC,,1002.9,77,,,1.6,,50000,161.5,4.4,3.4
2018,10,6,23:00,UTC,,1003.2,81,,,1.2,,50000,160.5,2.5,2
2018,10,7,00:00,UTC,,1003.8,80,,,0.7,,50000,146.1,1.8,1.4
2018,10,7,01:00,UTC,,1004.1,92,,,-2.4,,50000,28.8,1.7,0.8
2018,10,7,02:00,UTC,,1004.3,90,,,-2.6,,50000,60.7,2,0.6
2018,10,7,03:00,UTC,,1004.4,94,,,-2.8,,50000,92.1,2,1.4
2018,10,7,04:00,UTC,,1004.6,93,,,-2,,50000,50.4,1.9,1.5
2018,10,7,05:00,UTC,,1004.8,92,,,-1.9,,49536,80.3,3.2,2.6
2018,10,7,06:00,UTC,,1005.3,92,,,-2.4,,50000,60.7,3,2.3
2018,10,7,07:00,UTC,,1005.6,87,,,0.6,,50000,92.1,2.7,1.7
2018,10,7,08:00,UTC,,1006.1,78,,,4,,50000,99.3,1.8,1
2018,10,7,09:00,UTC,,1006.5,68,,,5.9,,39714,137.9,3.7,2.4
2018,10,7,10:00,UTC,,1006.8,60,,,6.2,,36782,147.6,5.2,4.1
2018,10,7,11:00,UTC,,1007.3,61,,,6.2,,48017,160.5,4.7,3
2018,10,7,12:00,UTC,,1007.4,59,,,6.5,,48239,153.3,4.9,3.5
2018,10,7,13:00,UTC,,1007.6,56,,,6.3,,36213,155.4,5.2,3.7
2018,10,7,14:00,UTC,,1007.9,60,,,6,,50000,161,3.5,2.1
2018,10,7,15:00,UTC,,1008.1,67,,,4.6,,50000,144,2.4,2
2018,10,7,16:00,UTC,,1008.4,81,,,1.4,,50000,134.8,2.3,1.9
2018,10,7,17:00,UTC,,1008.6,89,,,-0.2,,50000,126,2.4,2
2018,10,7,18:00,UTC,,1008.9,91,,,-0.5,,50000,116.8,2.5,2.2
2018,10,7,19:00,UTC,,1009.1,95,,,0.3,,50000,80.8,1.6,1.2
2018,10,7,20:00,UTC,,1009.2,94,,,-0.3,,50000,110.1,1.7,1
2018,10,7,21:00,UTC,,1009.4,94,,,0.1,,50000,88,1.8,1.1
2018,10,7,22:00,UTC,,1009.2,90,,,0.2,,50000,104.9,3.2,2.3
2018,10,7,23:00,UTC,,1009.1,92,,,0.1,,50000,94.1,3.6,2.4
2018,10,8,00:00,UTC,,1009.4,88,,,0.6,,50000,105.5,3.9,3
2018,10,8,01:00,UTC,,1009.4,90,,,0.2,,50000,102.4,3.4,2.6
2018,10,8,02:00,UTC,,1009,88,,,0.5,,50000,97.7,4.6,3.2
2018,10,8,03:00,UTC,,1008.7,86,,,1,,50000,95.2,4.8,3.3
2018,10,8,04:00,UTC,,1008.2,89,,,0.2,,50000,90.5,5.6,3.6
2018,10,8,05:00,UTC,,1007.5,88,,,-0.6,,50000,80.8,6.6,4.6
2018,10,8,06:00,UTC,,1007.7,86,,,-0.3,,49095,79.2,5.9,4.7
2018,10,8,07:00,UTC,,1007.5,82,,,1.1,,48094,84.4,6.1,4.2
2018,10,8,08:00,UTC,,1006.6,77,,,2.9,,50000,80.3,7.1,4.9
2018,10,8,09:00,UTC,,1005.8,75,,,3.7,,46588,84.4,7.8,5
2018,10,8,10:00,UTC,,1004.6,72,,,4.6,,50000,79.7,9.5,6.4
2018,10,8,11:00,UTC,,1004,72,,,5.2,,50000,86.4,8.8,6.1
2018,10,8,12:00,UTC,,1003,73,,,5.4,,50000,85.9,9.7,6
2018,10,8,13:00,UTC,,1001.7,80,,,4.9,,50000,81.8,10.1,6.6
2018,10,8,14:00,UTC,,1000.6,89,,,4.1,,33144,83.9,10.9,7.2
2018,10,8,15:00,UTC,,999.7,91,,,3.8,,9178,85.9,9.8,6.9
2018,10,8,16:00,UTC,,998.9,93,,,4,,18265,86.4,8.1,5.7
2018,10,8,17:00,UTC,,998.1,94,,,4.6,,22903,94.1,6.4,4
2018,10,8,18:00,UTC,,998.3,94,,,5.3,,20497,101.3,6.1,3.9
2018,10,8,19:00,UTC,,998.7,95,,,5.6,,50000,107,5,3.1
2018,10,8,20:00,UTC,,999.4,92,,,5.7,,50000,119.4,5.4,3.3
2018,10,8,21:00,UTC,,999.5,94,,,5.1,,50000,109.6,4.6,3.1
2018,10,8,22:00,UTC,,1000,94,,,4.7,,50000,116.3,6.1,3
2018,10,8,23:00,UTC,,1000.3,91,,,5.1,,50000,117.8,5.7,3.6
2018,10,9,00:00,UTC,,1000.8,95,,,3.8,,50000,99.3,3.5,2.5
2018,10,9,01:00,UTC,,1000.5,96,,,4.1,,50000,109.1,7.1,4.3
2018,10,9,02:00,UTC,,1000.5,96,,,4.8,,50000,108,6.5,4.3
2018,10,9,03:00,UTC,,1000.4,95,,,5.4,,50000,110.6,7.5,4.7
2018,10,9,04:00,UTC,,999.8,94,,,5.5,,50000,97.2,6.3,3.9
2018,10,9,05:00,UTC,,999.5,93,,,5,,50000,88,5.2,3.7
2018,10,9,06:00,UTC,,999.1,90,,,5.3,,50000,96.7,6.6,4.6
2018,10,9,07:00,UTC,,999,87,,,5.7,,50000,99.3,7.3,5.2
2018,10,9,08:00,UTC,,998.8,86,,,6.3,,50000,96.2,6.2,4.7
2018,10,9,09:00,UTC,,998.8,85,,,6.8,,50000,94.1,8.8,4.7
2018,10,9,10:00,UTC,,998.6,86,,,7.2,,50000,98.3,6.5,4.2
2018,10,9,11:00,UTC,,998.2,88,,,7.6,,47023,104.9,4.2,2.4
2018,10,9,12:00,UTC,,997.4,84,,,8.6,,50000,95.2,5,2.9
2018,10,9,13:00,UTC,,996.9,78,,,9.4,,50000,110.1,7.4,4.4
2018,10,9,14:00,UTC,,996.6,78,,,9,,50000,110.6,7.6,5.2
2018,10,9,15:00,UTC,,995.8,79,,,8.6,,48332,111.6,8.6,5.7
2018,10,9,16:00,UTC,,995.7,81,,,7.8,,50000,109.6,6.2,4.2
2018,10,9,17:00,UTC,,995.6,85,,,7.5,,50000,111.6,6.5,4.1
2018,10,9,18:00,UTC,,995.9,85,,,7.1,,50000,118.8,4.4,2.9
2018,10,9,19:00,UTC,,996.1,86,,,7,,50000,115.7,5,3.5
2018,10,9,20:00,UTC,,996.2,81,,,7.8,,50000,120.9,4.2,2.9
2018,10,9,21:00,UTC,,995.9,76,,,8.2,,50000,121.4,4.3,2.9
2018,10,9,22:00,UTC,,996.3,79,,,7.6,,50000,107.5,3.8,2.6
2018,10,9,23:00,UTC,,996.6,81,,,7.4,,50000,119.9,5,3.3
2018,10,10,00:00,UTC,,996.9,85,,,7,,50000,116.8,4.7,3.4
2018,10,10,01:00,UTC,,997.3,80,,,7.7,,50000,127.6,7.2,4.9
2018,10,10,02:00,UTC,,997.8,83,,,7.4,,50000,132.7,7.9,5.5
2018,10,10,03:00,UTC,,998.5,82,,,6.6,,50000,135.8,6.1,4.5
2018,10,10,04:00,UTC,,999.4,76,,,7.1,,50000,143,8.7,5.7
2018,10,10,05:00,UTC,,1000.8,76,,,6.9,,50000,143,8.6,6.1
2018,10,10,06:00,UTC,,1002.3,73,,,7.4,,50000,144,9.2,6.8
2018,10,10,07:00,UTC,,1003.5,72,,,8,,43115,141,7.3,5.2
2018,10,10,08:00,UTC,,1005.1,63,,,8.8,,49279,145.1,10.8,7.8
2018,10,10,09:00,UTC,,1006.9,62,,,9.1,,50000,147.1,9.7,7.8
2018,10,10,10:00,UTC,,1008.3,62,,,9.2,,45760,143.5,10.7,7.8
2018,10,10,11:00,UTC,,1009.8,62,,,9.2,,42764,142,10.1,6.9
2018,10,10,12:00,UTC,,1011.1,71,,,8.8,,50000,136.3,10.5,7.5
2018,10,10,13:00,UTC,,1012.2,70,,,8.9,,49619,141,9.4,7
2018,10,10,14:00,UTC,,1013.3,77,,,7.8,,50000,142,7,4.9
2018,10,10,15:00,UTC,,1014.2,76,,,7.5,,50000,140.4,5,3.9
2018,10,10,16:00,UTC,,1015,84,,,6.3,,50000,145.1,4.9,3.8
2018,10,10,17:00,UTC,,1015.9,81,,,6.5,,50000,132.2,4.7,3.2
2018,10,10,18:00,UTC,,1016.9,87,,,5.9,,50000,130.2,3.7,2.8
2018,10,10,19:00,UTC,,1017.8,89,,,5.8,,50000,133.8,4.4,3.2
2018,10,10,20:00,UTC,,1018.8,90,,,5.2,,50000,109.6,4.6,3.5
2018,10,10,21:00,UTC,,1019.2,87,,,5.7,,50000,118.8,3.2,2.4
2018,10,10,22:00,UTC,,1019.7,88,,,5.7,,50000,106.5,4.2,3.1
2018,10,10,23:00,UTC,,1020.5,89,,,5.7,,50000,111.1,4.7,3
2018,10,11,00:00,UTC,,1020.7,90,,,5.4,,50000,111.6,3.9,2.6
2018,10,11,01:00,UTC,,1021.3,89,,,6,,50000,109.6,4.7,2.9
2018,10,11,02:00,UTC,,1021.5,91,,,6,,50000,104.9,4.3,2.8
2018,10,11,03:00,UTC,,1021.7,92,,,6.1,,50000,104.9,4.1,2.9
2018,10,11,04:00,UTC,,1021.6,91,,,6.6,,50000,110.1,4.3,3
2018,10,11,05:00,UTC,,1021.9,91,,,6.6,,50000,104.4,4.4,3.3
2018,10,11,06:00,UTC,,1022.5,93,,,5.4,,50000,74.6,2.5,2.2
2018,10,11,07:00,UTC,,1022.9,91,,,7,,50000,81.3,2.7,1.9
2018,10,11,08:00,UTC,,1023.3,84,,,8.6,,50000,98.8,3.1,2.1
2018,10,11,09:00,UTC,,1023.7,83,,,9,,50000,78.2,2.7,2.3
2018,10,11,10:00,UTC,,1023.8,76,,,10.7,,50000,96.2,2.9,1.9
2018,10,11,11:00,UTC,,1023.8,73,,,11.2,,50000,101.9,2.2,1.3
2018,10,11,12:00,UTC,,1023.9,81,,,9.6,,39393,12.3,2,1.3
2018,10,11,13:00,UTC,,1023.9,80,,,9.7,,50000,104.9,4.9,3.3
2018,10,11,14:00,UTC,,1023.7,86,,,9.2,,48849,94.1,4,2.6
2018,10,11,15:00,UTC,,1023.6,88,,,9,,50000,92.1,4.4,2.8
2018,10,11,16:00,UTC,,1023.4,87,,,8.9,,50000,76.7,2.9,2.1
2018,10,11,17:00,UTC,,1023.5,89,,,8.8,,50000,79.7,3.5,2.8
2018,10,11,18:00,UTC,,1023.5,93,,,8.8,,14027,90,3.1,2.3
2018,10,11,19:00,UTC,,1023,96,,,8.6,,8672,75.1,3.8,2.9
2018,10,11,20:00,UTC,,1022.8,97,,,8.8,,7581,73.1,3,2.2
2018,10,11,21:00,UTC,,1022.6,98,,,9,,7930,77.7,3.7,2.7
2018,10,11,22:00,UTC,,1022.5,98,,,9.1,,6679,82.3,3.1,2.5
2018,10,11,23:00,UTC,,1022.1,98,,,9.5,,10091,85.4,3.5,2.4
2018,10,12,00:00,UTC,,1021.7,97,,,9.8,,10225,110.6,5.1,3.3
2018,10,12,01:00,UTC,,1021.8,95,,,9.8,,10492,116.8,5.9,4
2018,10,12,02:00,UTC,,1021.5,96,,,9.8,,6853,119.9,6,3.8
2018,10,12,03:00,UTC,,1021.2,97,,,9.5,,5376,117.3,3.8,2.8
2018,10,12,04:00,UTC,,1020.8,97,,,9.7,,12910,106.5,3.2,2.4
2018,10,12,05:00,UTC,,1020.8,97,,,9.6,,29457,111.1,2.9,1.5
2018,10,12,06:00,UTC,,1020.9,96,,,9.6,,16831,85.9,2.4,1.3
2018,10,12,07:00,UTC,,1021,92,,,9.6,,50000,92.6,4.4,3
2018,10,12,08:00,UTC,,1020.9,89,,,9.6,,50000,97.2,5.5,3.8
2018,10,12,09:00,UTC,,1020.9,85,,,9.6,,50000,99.8,7.2,3
2018,10,12,10:00,UTC,,1020.9,82,,,9.9,,47966,96.2,4,2.7
2018,10,12,11:00,UTC,,1020.7,81,,,10.2,,50000,89,4,2.7
2018,10,12,12:00,UTC,,1020.5,80,,,10.4,,44178,84.9,4.6,2.8
2018,10,12,13:00,UTC,,1020.5,81,,,10.6,,48051,83.9,3.7,2.8
2018,10,12,14:00,UTC,,1019.9,83,,,10.5,,44931,75.6,4.1,2.9
2018,10,12,15:00,UTC,,1019.4,83,,,10.5,,36734,74.1,4.8,3.3
2018,10,12,16:00,UTC,,1018.9,83,,,10.7,,40071,71,5.1,3.5
2018,10,12,17:00,UTC,,1018.9,86,,,10,,24528,72,4.1,3.3
2018,10,12,18:00,UTC,,1018.5,85,,,9.2,,38878,67.4,6.5,4.4
2018,10,12,19:00,UTC,,1017.9,86,,,8.8,,47631,68.4,7,5.1
2018,10,12,20:00,UTC,,1017.6,88,,,8.4,,50000,67.9,6.4,5.2
2018,10,12,21:00,UTC,,1017.3,91,,,8.3,,50000,76.7,7,4.6
2018,10,12,22:00,UTC,,1017.5,91,,,8.4,,46203,87.5,4.5,3.2
2018,10,12,23:00,UTC,,1016.4,91,,,9,,32956,81.8,4.6,3.2
2018,10,13,00:00,UTC,,1015.4,92,,,9.4,,19192,75.1,4.9,3.7
2018,10,13,01:00,UTC,,1015.9,92,,,9.8,,13968,88,4.1,2.8
2018,10,13,02:00,UTC,,1015.8,94,,,9.9,,10222,84.9,3.6,2.5
2018,10,13,03:00,UTC,,1015.6,96,,,9.8,,9368,80.8,5.6,2.8
2018,10,13,04:00,UTC,,1015,96,,,9.9,,6823,76.1,5,3.7
2018,10,13,05:00,UTC,,1014.5,97,,,10,,3798,78.2,4.8,3.8
2018,10,13,06:00,UTC,,1014.4,96,,,10.3,,6615,83.3,5.1,3.7
2018,10,13,07:00,UTC,,1013.9,92,,,10.9,,9649,77.2,5,3.8
2018,10,13,08:00,UTC,,1013.7,90,,,11.3,,12735,82.3,5.6,3.9
2018,10,13,09:00,UTC,,1013.8,87,,,11.7,,15063,85.4,6.2,4
2018,10,13,10:00,UTC,,1013.2,85,,,12.1,,17673,81.8,8,5.2
2018,10,13,11:00,UTC,,1012.8,84,,,12.6,,23577,85.9,6.7,4.5
2018,10,13,12:00,UTC,,1012.6,82,,,13.1,,19709,80.3,5.9,4.1
2018,10,13,13:00,UTC,,1012.5,82,,,13.4,,27098,77.2,4.7,3.6
2018,10,13,14:00,UTC,,1012,81,,,13.4,,33822,76.1,4.2,3.3
2018,10,13,15:00,UTC,,1011.4,79,,,13.6,,45910,84.9,4.9,3.3
2018,10,13,16:00,UTC,,1011.3,80,,,13.3,,40251,82.3,4.2,3.2
2018,10,13,17:00,UTC,,1011,82,,,13.2,,48469,86.4,4.3,2.2
2018,10,13,18:00,UTC,,1011.2,80,,,14.5,,37269,118.3,10.4,4.2
2018,10,13,19:00,UTC,,1010.8,82,,,13.9,,45053,115.7,9,5.9
2018,10,13,20:00,UTC,,1010.5,81,,,14.1,,41063,118.3,8.1,5.6
2018,10,13,21:00,UTC,,1010.7,81,,,14.6,,50000,116.3,7.3,4.6
2018,10,13,22:00,UTC,,1010.5,80,,,14.9,,49980,116.3,6.4,4.4
2018,10,13,23:00,UTC,,1010.1,80,,,15.1,,50000,112.1,7.7,5.3
2018,10,14,00:00,UTC,,1010,84,,,14,,48117,98.8,6.3,3.9
2018,10,14,01:00,UTC,,1009.6,88,,,13.4,,50000,88.5,6.4,3.6
2018,10,14,02:00,UTC,,1009.1,90,,,12.8,,49698,88.5,3.8,2.7
2018,10,14,03:00,UTC,,1008.8,85,,,13.7,,50000,88.5,5.7,2.8
2018,10,14,04:00,UTC,,1008.6,89,,,13.3,,47237,86.9,3.6,1.7
2018,10,14,05:00,UTC,,1008.5,84,,,14.5,,50000,93.1,7,3
2018,10,14,06:00,UTC,,1008.2,70,,,17,,50000,114.2,8.9,5.4
2018,10,14,07:00,UTC,,1008.5,70,,,17,,50000,116.3,9.7,5.3
2018,10,14,08:00,UTC,,1008.5,65,,,17.5,,38732,118.8,11,7
2018,10,14,09:00,UTC,,1008.7,65,,,17.9,,48062,117.3,11.2,6.7
2018,10,14,10:00,UTC,,1008.7,63,,,18.5,,50000,115.2,10.6,6.8
2018,10,14,11:00,UTC,,1008.6,64,,,18.9,,50000,115.2,13.3,7.7
2018,10,14,12:00,UTC,,1008.1,65,,,19.5,,39759,113.2,11.9,7.3
2018,10,14,13:00,UTC,,1007.6,54,,,20.8,,47055,110.6,11.8,6.3
2018,10,14,14:00,UTC,,1007.7,58,,,20.1,,43743,98.3,7.6,4.4
2018,10,14,15:00,UTC,,1007.9,60,,,19,,50000,96.7,7.9,4.9
2018,10,14,16:00,UTC,,1007.8,63,,,18.3,,50000,98.3,7.6,5.1
2018,10,14,17:00,UTC,,1007.3,60,,,17.6,,45686,96.2,6.3,4.6
2018,10,14,18:00,UTC,,1007.1,58,,,17,,50000,93.1,8.8,5.7
2018,10,14,19:00,UTC,,1007.2,59,,,16.2,,38685,96.2,5.5,3.7
2018,10,14,20:00,UTC,,1007.4,61,,,15.1,,49195,96.2,5.2,3.9
2018,10,14,21:00,UTC,,1007.2,62,,,14.3,,50000,91.1,5.8,4.2
2018,10,14,22:00,UTC,,1007,65,,,13.7,,50000,91.1,7.6,5
2018,10,14,23:00,UTC,,1006.7,71,,,12.9,,50000,85.4,5.5,3.9
2018,10,15,00:00,UTC,,1006.4,73,,,12.4,,41088,90.5,5.7,4.2
2018,10,15,01:00,UTC,,1005.9,75,,,12,,29768,90.5,5.7,3.7
2018,10,15,02:00,UTC,,1005.8,79,,,11.4,,44727,86.9,4.9,3.3
2018,10,15,03:00,UTC,,1005.5,77,,,11.5,,35610,90.5,5.3,3.8
2018,10,15,04:00,UTC,,1005.2,76,,,11.6,,38234,98.8,5.9,4
2018,10,15,05:00,UTC,,1005,76,,,11.5,,35821,97.2,6.8,4.6
2018,10,15,06:00,UTC,,1005.2,78,,,11.4,,40236,99.8,6.5,4.1
2018,10,15,07:00,UTC,,1005.6,77,,,12.2,,36966,113.7,9.5,6.2
2018,10,15,08:00,UTC,,1006,77,,,12.6,,33889,118.3,10.1,6.8
2018,10,15,09:00,UTC,,1006.8,77,,,12.4,,32164,121.9,11.7,6.8
2018,10,15,10:00,UTC,,1007.4,79,,,11.9,,39057,124.5,9.6,6.7
2018,10,15,11:00,UTC,,1008,82,,,11.3,,28721,122.4,7.7,5.4
2018,10,15,12:00,UTC,,1008.8,82,,,11,,31654,123.5,7.5,5.4
2018,10,15,13:00,UTC,,1009.3,84,,,10.5,,32277,121.9,5.5,3.8
2018,10,15,14:00,UTC,,1009.6,86,,,10.1,,34495,116.8,3.7,2.2
2018,10,15,15:00,UTC,,1010,88,,,9.8,,31811,114.7,4.2,3
2018,10,15,16:00,UTC,,1010.1,92,,,9.4,,15704,109.6,3.5,2.6
2018,10,15,17:00,UTC,,1009.7,94,,,9.2,,15579,109.6,2.9,2
2018,10,15,18:00,UTC,,1009.4,95,,,8.9,,15973,111.1,1.8,1.3
2018,10,15,19:00,UTC,,1009.4,95,,,8.7,,14602,129.1,1.6,1
2018,10,15,20:00,UTC,,1009.1,95,,,8.6,,14150,112.1,2,1.3
2018,10,15,21:00,UTC,,1009,96,,,8.4,,11331,117.8,2.2,1.4
2018,10,15,22:00,UTC,,1008.1,97,,,8.2,,11433,82.3,1.7,1.4
2018,10,15,23:00,UTC,,1008.3,97,,,8.1,,14934,133.2,2.7,2.2
2018,10,16,00:00,UTC,,1007.9,97,,,8.1,,14147,138.9,2.2,1.5
2018,10,16,01:00,UTC,,1008.1,96,,,8.2,,38320,137.4,4.4,3.4
2018,10,16,02:00,UTC,,1007.6,97,,,8.4,,40403,133.8,4.7,3.3
2018,10,16,03:00,UTC,,1007.8,97,,,8.5,,23216,146.1,5.5,3.9
2018,10,16,04:00,UTC,,1007.9,96,,,8.4,,18485,156.4,4.6,3.2
2018,10,16,05:00,UTC,,1008.3,96,,,8.3,,44841,148.2,4.6,3.7
2018,10,16,06:00,UTC,,1009,95,,,8,,50000,151.2,4.5,3.7
2018,10,16,07:00,UTC,,1009.8,96,,,7.1,,50000,144.6,4.7,3.3
2018,10,16,08:00,UTC,,1010.9,92,,,8.4,,50000,152.8,5.5,4.5
2018,10,16,09:00,UTC,,1011.6,87,,,9,,39029,147.1,5,3.6
2018,10,16,10:00,UTC,,1012.2,86,,,9.5,,39116,139.9,5.9,4.3
2018,10,16,11:00,UTC,,1012.7,78,,,9.3,,44893,131.7,5.6,4.1
2018,10,16,12:00,UTC,,1013.5,77,,,9,,43630,136.8,7.8,5.3
2018,10,16,13:00,UTC,,1014.1,80,,,8.4,,50000,134.8,7.5,5
2018,10,16,14:00,UTC,,1014.5,81,,,8.1,,50000,131.2,6.8,4.2
2018,10,16,15:00,UTC,,1014.6,85,,,6.9,,50000,128.1,4.4,3.3
2018,10,16,16:00,UTC,,1015.3,91,,,6.2,,48284,107,3.5,2.3
2018,10,16,17:00,UTC,,1015.7,91,,,6.2,,50000,119.9,6,3.8
2018,10,16,18:00,UTC,,1016.2,91,,,6.4,,50000,117.8,4.5,3.2
2018,10,16,19:00,UTC,,1016.6,90,,,6.6,,50000,112.7,4.3,3.1
2018,10,16,20:00,UTC,,1016.6,92,,,6.2,,50000,112.1,3.6,2.6
2018,10,16,21:00,UTC,,1016.7,94,,,5.7,,50000,119.4,3.5,2.7
2018,10,16,22:00,UTC,,1016.9,95,,,5,,50000,95.2,4.6,3
2018,10,16,23:00,UTC,,1016.7,96,,,4.5,,50000,88.5,3.3,2.5
2018,10,17,00:00,UTC,,1016.7,97,,,2.9,,1231,86.4,3.9,2.6
2018,10,17,01:00,UTC,,1016.9,97,,,2.5,,12642,90,3.7,2.8
2018,10,17,02:00,UTC,,1017.1,98,,,2.9,,50000,91.6,3,2.2
2018,10,17,03:00,UTC,,1016.5,98,,,2.3,,50000,76.1,5.1,3.7
2018,10,17,04:00,UTC,,1016.2,97,,,2.1,,20362,78.2,5.1,3.6
2018,10,17,05:00,UTC,,1016,97,,,2.3,,50000,79.7,5,3.7
2018,10,17,06:00,UTC,,1016.1,97,,,2.7,,50000,79.7,4.8,3.3
2018,10,17,07:00,UTC,,1015.2,96,,,3.1,,50000,76.7,7.1,5.3
2018,10,17,08:00,UTC,,1015.2,94,,,3.7,,50000,79.7,6.1,4.7
2018,10,17,09:00,UTC,,1014.6,94,,,4.7,,50000,77.7,5.2,3.9
2018,10,17,10:00,UTC,,1013.7,92,,,5.8,,50000,73.6,6.8,4.9
2018,10,17,11:00,UTC,,1013,91,,,6.2,,50000,78.7,6.5,4.4
2018,10,17,12:00,UTC,,1012,92,,,6.6,,8630,74.1,6.2,4.3
2018,10,17,13:00,UTC,,1010.7,96,,,6.7,,6233,68.4,6.7,5.4
2018,10,17,14:00,UTC,,1009.8,96,,,7.1,,42745,72,7.4,5.3
2018,10,17,15:00,UTC,,1008.9,96,,,7.4,,6175,75.1,5.7,4
2018,10,17,16:00,UTC,,1008,97,,,7.7,,16840,77.7,4.3,3.5
2018,10,17,17:00,UTC,,1007.2,97,,,8.8,,6520,89.5,5.1,3.6
2018,10,17,18:00,UTC,,1006.6,97,,,9.2,,8522,93.1,5.9,3.9
2018,10,17,19:00,UTC,,1006.7,91,,,9,,50000,125.5,10.8,7.4
2018,10,17,20:00,UTC,,1006.6,95,,,8.5,,17778,121.4,6.8,5
2018,10,17,21:00,UTC,,1006.5,94,,,8.4,,50000,120.9,4.9,3.7
2018,10,17,22:00,UTC,,1006.5,94,,,8.3,,50000,120.4,4.5,3.3
2018,10,17,23:00,UTC,,1006.6,92,,,8.3,,50000,126,4.7,3.5
2018,10,18,00:00,UTC,,1006.5,88,,,8.4,,50000,125,5.8,4
2018,10,18,01:00,UTC,,1006.4,91,,,7.7,,50000,115.7,3.7,2.4
2018,10,18,02:00,UTC,,1006.3,96,,,7.1,,24432,104.9,3.5,2.4
2018,10,18,03:00,UTC,,1006.4,97,,,7.2,,29601,111.6,3.6,2.3
2018,10,18,04:00,UTC,,1006,94,,,7.5,,50000,120.9,5.9,4.1
2018,10,18,05:00,UTC,,1006,94,,,7.6,,50000,121.9,5.4,3.7
2018,10,18,06:00,UTC,,1005.9,94,,,7.6,,50000,111.1,4.6,3.1
2018,10,18,07:00,UTC,,1006.3,94,,,7.7,,50000,121.9,3.9,2.8
2018,10,18,08:00,UTC,,1006.3,93,,,8.1,,45131,108,4.8,2.8
2018,10,18,09:00,UTC,,1006.2,92,,,8.7,,50000,125.5,4.6,3.4
2018,10,18,10:00,UTC,,1006,86,,,9.3,,50000,123,4.8,3.2
2018,10,18,11:00,UTC,,1005.9,81,,,9.5,,50000,131.7,6.7,4.8
2018,10,18,12:00,UTC,,1005.4,80,,,9.1,,50000,134.8,6.7,5
2018,10,18,13:00,UTC,,1005.2,81,,,8.7,,44034,126,6,3.8
2018,10,18,14:00,UTC,,1005.4,81,,,8,,49485,128.6,5.2,3.7
2018,10,18,15:00,UTC,,1005.3,84,,,7.1,,50000,118.8,5.4,3.3
2018,10,18,16:00,UTC,,1005.3,89,,,6.3,,49588,115.2,5.1,3.3
2018,10,18,17:00,UTC,,1005.1,92,,,5.5,,50000,113.2,4.1,2.7
2018,10,18,18:00,UTC,,1004.9,92,,,5.2,,50000,111.6,4.2,2.8
2018,10,18,19:00,UTC,,1004.8,90,,,5.2,,50000,108.5,4.6,3.6
2018,10,18,20:00,UTC,,1004.6,89,,,5,,50000,108.5,4.2,2.9
2018,10,18,21:00,UTC,,1004.7,87,,,5.5,,50000,110.6,4.2,3
2018,10,18,22:00,UTC,,1004.7,87,,,5.8,,50000,112.7,4.7,3.4
2018,10,18,23:00,UTC,,1004.5,74,,,8.3,,50000,133.2,9.3,6.3
2018,10,19,00:00,UTC,,1004.3,74,,,8.2,,50000,132.7,9.6,6.7
2018,10,19,01:00,UTC,,1004.5,75,,,8.2,,50000,135.3,11.1,7.5
2018,10,19,02:00,UTC,,1004.4,73,,,8.1,,50000,136.3,10.5,7.8
2018,10,19,03:00,UTC,,1004.6,74,,,8.1,,50000,137.9,9.8,6.9
2018,10,19,04:00,UTC,,1004.7,71,,,8.2,,50000,139.4,9,6.3
2018,10,19,05:00,UTC,,1005.2,73,,,8.1,,50000,133.8,6.4,4.8
2018,10,19,06:00,UTC,,1005.4,70,,,8.4,,50000,148.2,9.6,6.1
2018,10,19,07:00,UTC,,1006,67,,,8.9,,50000,154.3,10.9,7.7
2018,10,19,08:00,UTC,,1006.5,66,,,9.3,,37302,156.4,10.5,7.4
2018,10,19,09:00,UTC,,1007.2,67,,,9.5,,50000,158.4,11.6,8.2
2018,10,19,10:00,UTC,,1007.8,67,,,9.6,,50000,160,10.8,8.1
2018,10,19,11:00,UTC,,1008.6,66,,,9.8,,50000,156.9,10,7.1
2018,10,19,12:00,UTC,,1009.4,64,,,9.8,,49662,160.5,8.7,6
2018,10,19,13:00,UTC,,1010.1,68,,,9.4,,50000,155.4,7.7,5.6
2018,10,19,14:00,UTC,,1010.6,71,,,9,,50000,155.9,7,4.9
2018,10,19,15:00,UTC,,1011.2,75,,,8.1,,50000,156.4,6.4,4.3
2018,10,19,16:00,UTC,,1011.6,77,,,8,,50000,161,5.3,3.8
2018,10,19,17:00,UTC,,1012,82,,,6.8,,50000,143.5,2.8,2.4
2018,10,19,18:00,UTC,,1012.4,93,,,5.4,,50000,133.2,2.9,2.6
2018,10,19,19:00,UTC,,1013.1,96,,,3.7,,50000,119.4,2.9,1.4
2018,10,19,20:00,UTC,,1013.5,96,,,3.5,,50000,116.3,2.5,1.2
2018,10,19,21:00,UTC,,1013.6,97,,,2.6,,26352,115.7,1.7,1.2
2018,10,19,22:00,UTC,,1013.7,97,,,1.2,,5215,50.4,2.4,1
2018,10,19,23:00,UTC,,1013.8,97,,,0.1,,1712,57.6,1.4,0.7
2018,10,20,00:00,UTC,,1014.1,98,,,-0.2,,1667,92.6,1.3,0.8
2018,10,20,01:00,UTC,,1014.1,98,,,-0.9,,2848,73.6,2.4,1.9
2018,10,20,02:00,UTC,,1014.4,98,,,-1,,2432,70.5,2.3,2
2018,10,20,03:00,UTC,,1014.5,98,,,-0.3,,660,66.9,3,2.5
2018,10,20,04:00,UTC,,1014.6,98,,,-1.1,,4066,61.2,3.6,3.2
2018,10,20,05:00,UTC,,1015.2,98,,,-0.4,,50000,65.3,2.6,2.3
2018,10,20,06:00,UTC,,1015.2,98,,,0,,48207,70,3.4,3
2018,10,20,07:00,UTC,,1015.3,98,,,0.8,,50000,68.9,3.2,2.7
2018,10,20,08:00,UTC,,1015.6,98,,,1.2,,46911,72.5,2.3,1.9
2018,10,20,09:00,UTC,,1015.9,98,,,3.1,,50000,77.7,3,1.8
2018,10,20,10:00,UTC,,1016.2,93,,,4.9,,49530,86.9,4.3,2.5
2018,10,20,11:00,UTC,,1016.1,92,,,5.4,,49619,84.4,2.5,1.8
2018,10,20,12:00,UTC,,1016,90,,,5.8,,50000,86.4,3.3,2.4
2018,10,20,13:00,UTC,,1016.1,90,,,6.2,,42752,94.1,2.7,1.9
2018,10,20,14:00,UTC,,1016.2,92,,,6.3,,50000,98.3,3,2.1
2018,10,20,15:00,UTC,,1016.1,93,,,5.7,,50000,95.7,2.6,1.7
2018,10,20,16:00,UTC,,1016.2,94,,,5.4,,45268,92.6,3.2,2.4
2018,10,20,17:00,UTC,,1016.1,95,,,5.1,,50000,92.1,3.6,2.5
2018,10,20,18:00,UTC,,1016,96,,,5.2,,50000,99.8,3.7,2.7
2018,10,20,19:00,UTC,,1015.7,94,,,5.6,,50000,98.8,4.6,3.2
2018,10,20,20:00,UTC,,1015.3,94,,,5.6,,50000,88.5,4.5,2.7
2018,10,20,21:00,UTC,,1015.4,95,,,5.4,,50000,93.1,3,2.1
2018,10,20,22:00,UTC,,1014.6,92,,,5.5,,50000,92.6,4.7,3.1
2018,10,20,23:00,UTC,,1014.1,96,,,4.3,,50000,90.5,4.9,3.3
2018,10,21,00:00,UTC,,1014.1,97,,,4.3,,2139,96.2,5.4,3.9
2018,10,21,01:00,UTC,,1013.6,98,,,4.5,,20780,93.1,6.8,4
2018,10,21,02:00,UTC,,1013.2,98,,,4.9,,50000,100.3,5.4,3.8
2018,10,21,03:00,UTC,,1011.9,96,,,5.4,,50000,93.1,6.6,4.5
2018,10,21,04:00,UTC,,1011.5,91,,,5.8,,50000,95.2,6.4,4.7
2018,10,21,05:00,UTC,,1010.5,90,,,5.6,,50000,92.6,7.4,5.2
2018,10,21,06:00,UTC,,1009.9,87,,,5.8,,50000,98.3,10.1,5.9
2018,10,21,07:00,UTC,,1009.3,85,,,6.2,,50000,98.8,8,5.9
2018,10,21,08:00,UTC,,1008,82,,,6.7,,49604,94.1,9.3,6
2018,10,21,09:00,UTC,,1007.3,83,,,6.9,,46388,97.7,9.8,6.8
2018,10,21,10:00,UTC,,1006.9,90,,,6.6,,45599,98.8,7.6,5.7
2018,10,21,11:00,UTC,,1005.7,88,,,6.9,,50000,103.4,8.7,5.6
2018,10,21,12:00,UTC,,1005.2,86,,,7.5,,50000,110.1,11.8,7.1
2018,10,21,13:00,UTC,,1004.1,85,,,7.8,,50000,110.6,12.1,7.4
2018,10,21,14:00,UTC,,1004,86,,,8,,50000,112.1,9.4,6.4
2018,10,21,15:00,UTC,,1003.5,86,,,8.1,,50000,130.7,6.3,3.8
2018,10,21,16:00,UTC,,1003.2,88,,,7.9,,50000,108.5,6.5,4.1
2018,10,21,17:00,UTC,,1002.3,93,,,7.4,,39401,97.2,8.9,5.2
2018,10,21,18:00,UTC,,1001.9,95,,,7.2,,17298,102.4,5.7,4.1
2018,10,21,19:00,UTC,,1000.7,94,,,7.2,,25990,97.7,8,5.9
2018,10,21,20:00,UTC,,999.6,95,,,7.1,,26342,91.6,5.5,4.1
2018,10,21,21:00,UTC,,998.6,96,,,7,,24861,100.8,5,3.4
2018,10,21,22:00,UTC,,997.6,95,,,6.8,,34759,100.3,6.4,3.9
2018,10,21,23:00,UTC,,996.9,96,,,6.7,,17635,103.9,5.6,3.7
2018,10,22,00:00,UTC,,995.5,95,,,6.4,,16549,101.3,4.2,2.8
2018,10,22,01:00,UTC,,994.5,93,,,6.9,,42116,112.7,7.8,5.6
2018,10,22,02:00,UTC,,994,88,,,7,,50000,141,10.1,6.2
2018,10,22,03:00,UTC,,993.5,84,,,6.3,,47710,140.4,6,3.9
2018,10,22,04:00,UTC,,993.3,92,,,6.9,,47621,137.9,6.7,4.4
2018,10,22,05:00,UTC,,993.3,85,,,6.7,,50000,141,6.3,4.9
2018,10,22,06:00,UTC,,993.8,80,,,6,,50000,142,6.4,4.8
2018,10,22,07:00,UTC,,994.4,74,,,6,,50000,141,7.8,5.3
2018,10,22,08:00,UTC,,994.7,70,,,6.7,,50000,143,9.4,7
2018,10,22,09:00,UTC,,994.7,68,,,7.1,,44236,136.3,9.3,6.6
2018,10,22,10:00,UTC,,994.8,68,,,7.3,,45459,134.8,10.2,6.5
2018,10,22,11:00,UTC,,995,69,,,6.9,,49167,130.2,12.7,8
2018,10,22,12:00,UTC,,994.7,71,,,6.6,,50000,128.1,10.3,6.8
2018,10,22,13:00,UTC,,994.3,70,,,6.5,,49504,124,10,5.9
2018,10,22,14:00,UTC,,994.2,73,,,6.3,,50000,119.9,7.9,4.8
2018,10,22,15:00,UTC,,994.1,75,,,5.8,,50000,113.7,6.7,4.4
2018,10,22,16:00,UTC,,993.8,74,,,5.9,,50000,115.2,5.7,4
2018,10,22,17:00,UTC,,993.1,70,,,6.1,,50000,115.7,6.5,4.3
2018,10,22,18:00,UTC,,992.5,66,,,6.6,,50000,133.8,9.6,6
2018,10,22,19:00,UTC,,992.2,67,,,6.1,,50000,137.4,8.8,6
2018,10,22,20:00,UTC,,992,69,,,5.5,,50000,137.4,6.2,4.4
2018,10,22,21:00,UTC,,991.8,68,,,5.5,,50000,135.3,6.3,4.5
2018,10,22,22:00,UTC,,991.8,75,,,4.7,,50000,114.7,3.6,2.5
2018,10,22,23:00,UTC,,991.3,76,,,4.5,,50000,120.4,3.8,2.7
2018,10,23,00:00,UTC,,990.9,79,,,4,,50000,116.8,3.4,2.1
2018,10,23,01:00,UTC,,990.3,79,,,3.8,,50000,118.8,3.1,2.4
2018,10,23,02:00,UTC,,990.1,74,,,4.3,,50000,112.7,4.4,2.8
2018,10,23,03:00,UTC,,989.8,75,,,4.1,,50000,114.2,5.2,2.7
2018,10,23,04:00,UTC,,989.3,82,,,2.6,,50000,101.3,6.1,3.2
2018,10,23,05:00,UTC,,989.1,84,,,2.4,,50000,102.9,3.9,3
2018,10,23,06:00,UTC,,988.9,84,,,2.3,,50000,101.3,5.4,3.6
2018,10,23,07:00,UTC,,988.9,84,,,2.5,,50000,103.9,4.7,3.3
2018,10,23,08:00,UTC,,988.8,81,,,3.1,,43436,96.7,5,3.5
2018,10,23,09:00,UTC,,988.9,80,,,3.2,,50000,98.3,5.8,4
2018,10,23,10:00,UTC,,988.8,77,,,4.1,,42028,91.1,5.8,3.9
2018,10,23,11:00,UTC,,988.8,74,,,4.8,,50000,100.3,6.2,4.2
2018,10,23,12:00,UTC,,988.6,73,,,4.8,,50000,107,5.7,3.5
2018,10,23,13:00,UTC,,988.6,72,,,4.9,,50000,107,4.6,2.9
2018,10,23,14:00,UTC,,988.6,73,,,4.9,,50000,103.9,5.1,3.8
2018,10,23,15:00,UTC,,988.9,78,,,3.6,,50000,92.1,4.1,2.4
2018,10,23,16:00,UTC,,989,81,,,2.7,,50000,84.4,3.2,2.5
2018,10,23,17:00,UTC,,989.1,87,,,1.8,,50000,89.5,3.4,2.5
2018,10,23,18:00,UTC,,989.3,84,,,2.5,,50000,100.3,4.5,3.3
2018,10,23,19:00,UTC,,989.7,88,,,1.6,,50000,95.2,3.5,2.7
2018,10,23,20:00,UTC,,990.1,87,,,1.7,,50000,93.6,3,2.4
2018,10,23,21:00,UTC,,990.4,87,,,1.9,,50000,91.1,2.9,2
2018,10,23,22:00,UTC,,990.9,86,,,1.9,,50000,100.3,3.6,2.8
2018,10,23,23:00,UTC,,991,89,,,1.2,,50000,84.4,2.5,2
2018,10,24,00:00,UTC,,991.3,91,,,-0.3,,50000,89,3.3,2.1
2018,10,24,01:00,UTC,,991.6,91,,,-1.5,,50000,98.8,2.4,1.6
2018,10,24,02:00,UTC,,992,95,,,-2,,50000,108,2.3,1.6
2018,10,24,03:00,UTC,,992.4,94,,,-3,,50000,81.8,2.3,1.8
2018,10,24,04:00,UTC,,992.9,93,,,-2.8,,50000,84.9,2.6,1.9
2018,10,24,05:00,UTC,,993.3,94,,,-0.9,,50000,86.9,2.6,2.1
2018,10,24,06:00,UTC,,993.8,92,,,0,,50000,94.1,2.4,1.7
2018,10,24,07:00,UTC,,994.3,92,,,-0.4,,50000,71,2,1.7
2018,10,24,08:00,UTC,,994.8,86,,,1.2,,50000,85.9,3.7,2.4
2018,10,24,09:00,UTC,,995.1,80,,,2.7,,49932,104.4,3.8,2.2
2018,10,24,10:00,UTC,,995.3,74,,,3.9,,50000,94.1,4.1,2.8
2018,10,24,11:00,UTC,,995.6,71,,,4,,50000,104.4,4.6,3.4
2018,10,24,12:00,UTC,,995.5,67,,,4.5,,50000,90.5,5.4,3.5
2018,10,24,13:00,UTC,,995.6,70,,,3.7,,43220,99.8,5.3,3.8
2018,10,24,14:00,UTC,,995.8,71,,,3.3,,50000,94.7,3.9,2.8
2018,10,24,15:00,UTC,,995.8,88,,,1.9,,50000,89,4.4,3
2018,10,24,16:00,UTC,,995.7,87,,,1.8,,50000,90,6.4,2.7
2018,10,24,17:00,UTC,,995.4,89,,,1,,50000,82.3,3.2,2.5
2018,10,24,18:00,UTC,,995,91,,,0.8,,50000,82.8,4.7,3.8
2018,10,24,19:00,UTC,,995,92,,,0.1,,50000,85.9,2.5,1.5
2018,10,24,20:00,UTC,,994.8,92,,,0.1,,50000,73.1,4.6,3.6
2018,10,24,21:00,UTC,,994.3,92,,,0,,50000,74.1,5.8,4.3
2018,10,24,22:00,UTC,,994,92,,,0,,50000,66.9,5,4.2
2018,10,24,23:00,UTC,,993.5,91,,,0.1,,50000,65.8,5.6,4.2
2018,10,25,00:00,UTC,,993.1,90,,,0.1,,50000,65.3,4.3,3.6
2018,10,25,01:00,UTC,,992.8,87,,,0.3,,50000,69.4,5,3.6
2018,10,25,02:00,UTC,,992.6,88,,,0,,30459,56.6,4.8,3.8
2018,10,25,03:00,UTC,,992.6,84,,,-0.5,,50000,59.2,6,4.7
2018,10,25,04:00,UTC,,992.6,80,,,-0.5,,50000,55,6.6,4.9
2018,10,25,05:00,UTC,,992.6,88,,,-0.8,,4765,55.6,5.5,4.2
2018,10,25,06:00,UTC,,992.6,82,,,-0.5,,47565,43.2,3.8,2.3
2018,10,25,07:00,UTC,,993,78,,,-0.1,,10671,46.8,6.6,3.9
2018,10,25,08:00,UTC,,993.4,88,,,-0.5,,5662,35.5,3.9,2.7
2018,10,25,09:00,UTC,,993.5,82,,,0.6,,50000,34,4.4,2.8
2018,10,25,10:00,UTC,,993.8,83,,,1.1,,50000,36,5.7,3.7
2018,10,25,11:00,UTC,,993.9,86,,,1.3,,50000,27.8,5.9,3.4
2018,10,25,12:00,UTC,,994.4,87,,,1.2,,39773,25.2,5.6,3.8
2018,10,25,13:00,UTC,,994.9,84,,,1.2,,50000,22.6,5.8,3.6
2018,10,25,14:00,UTC,,995.4,83,,,1,,50000,21.1,6.2,4.1
2018,10,25,15:00,UTC,,995.8,84,,,-0.2,,50000,29.8,6.5,4.3
2018,10,25,16:00,UTC,,996.2,85,,,-0.8,,50000,25.7,4.4,2.8
2018,10,25,17:00,UTC,,996.5,84,,,-0.5,,50000,20.1,3.6,2.5
2018,10,25,18:00,UTC,,996.6,83,,,-0.4,,50000,18.5,4,2.9
2018,10,25,19:00,UTC,,997.1,81,,,-0.4,,50000,20.6,4.2,3
2018,10,25,20:00,UTC,,997.4,79,,,-0.3,,50000,18,4.4,2.9
2018,10,25,21:00,UTC,,997.6,79,,,-0.3,,50000,17.5,4.3,2.8
2018,10,25,22:00,UTC,,998,80,,,-0.4,,50000,12.9,4.4,2.9
2018,10,25,23:00,UTC,,998.2,82,,,-0.6,,50000,21.1,3,2.2
2018,10,26,00:00,UTC,,998.3,84,,,-0.6,,50000,19.5,3,2.1
2018,10,26,01:00,UTC,,998.5,87,,,-1.6,,50000,25.2,3.6,2.3
2018,10,26,02:00,UTC,,998.9,91,,,-2.4,,50000,24.7,1.5,0.9
2018,10,26,03:00,UTC,,999.1,91,,,-1.7,,50000,15.4,1.6,1.3
2018,10,26,04:00,UTC,,999.4,88,,,-1,,50000,11.8,2.8,1.8
2018,10,26,05:00,UTC,,999.6,86,,,-0.8,,50000,14.9,2.8,1.8
2018,10,26,06:00,UTC,,1000,85,,,-0.9,,49170,12.9,3,2.1
2018,10,26,07:00,UTC,,1000.4,83,,,-0.7,,50000,21.6,3.7,2.6
2018,10,26,08:00,UTC,,1000.9,81,,,-0.5,,50000,16.5,4.2,2.7
2018,10,26,09:00,UTC,,1001.1,80,,,0.1,,50000,19,2.1,1.5
2018,10,26,10:00,UTC,,1001.6,76,,,0.5,,50000,17.5,4.7,2.9
2018,10,26,11:00,UTC,,1001.8,70,,,1.4,,50000,13.4,4.7,2.9
2018,10,26,12:00,UTC,,1002.1,78,,,1.1,,49130,20.1,5.1,3.5
2018,10,26,13:00,UTC,,1002.3,79,,,1,,50000,9.8,2.8,2
2018,10,26,14:00,UTC,,1002.8,79,,,0.7,,50000,22.6,3.9,2.5
2018,10,26,15:00,UTC,,1003.2,78,,,0.8,,50000,17.5,3.5,2.5
2018,10,26,16:00,UTC,,1003.5,79,,,0.3,,50000,6.7,2.3,1.6
2018,10,26,17:00,UTC,,1003.9,78,,,0.4,,50000,8.7,3.7,2.5
2018,10,26,18:00,UTC,,1004.3,84,,,-0.9,,50000,2.1,2.1,1.2
2018,10,26,19:00,UTC,,1004.7,80,,,-0.9,,50000,1.5,2.7,1.9
2018,10,26,20:00,UTC,,1005,81,,,-0.5,,50000,11.8,2.9,1.4
2018,10,26,21:00,UTC,,1005.3,83,,,-0.6,,50000,13.9,4.6,3.3
2018,10,26,22:00,UTC,,1005.7,86,,,-1.1,,50000,7.2,4.4,2.8
2018,10,26,23:00,UTC,,1006.2,88,,,-1.4,,50000,17,6.3,4.2
2018,10,27,00:00,UTC,,1006.5,83,,,-1.3,,50000,20.1,6.5,3.8
2018,10,27,01:00,UTC,,1007.1,79,,,-1.4,,50000,25.7,4.6,3.2
2018,10,27,02:00,UTC,,1007.5,79,,,-1.6,,50000,20.6,3.1,2
2018,10,27,03:00,UTC,,1007.8,85,,,-2.6,,50000,171.3,2.2,1.5
2018,10,27,04:00,UTC,,1008.2,90,,,-2.5,,50000,3.1,2.3,0.9
2018,10,27,05:00,UTC,,1008.5,80,,,-0.8,,50000,10.8,5.7,3.4
2018,10,27,06:00,UTC,,1009.1,82,,,-0.8,,50000,6.7,4.9,3.5
2018,10,27,07:00,UTC,,1009.9,81,,,-0.5,,37204,6.2,7.1,4.5
2018,10,27,08:00,UTC,,1010.4,78,,,-0.2,,50000,8.7,5.6,3.8
2018,10,27,09:00,UTC,,1010.9,77,,,-0.2,,50000,6.7,5.9,3.8
2018,10,27,10:00,UTC,,1011.3,77,,,-0.3,,46780,20.1,5.2,3.7
2018,10,27,11:00,UTC,,1011.7,76,,,-0.2,,48404,25.2,4.7,3.1
2018,10,27,12:00,UTC,,1012,74,,,0,,50000,8.2,6.7,4
2018,10,27,13:00,UTC,,1012,73,,,0,,50000,18,6.5,4.4
2018,10,27,14:00,UTC,,1012.4,72,,,0.1,,50000,21.6,5.4,3.8
2018,10,27,15:00,UTC,,1013,70,,,0.3,,50000,21.1,6.2,3.9
2018,10,27,16:00,UTC,,1013.6,68,,,0.3,,50000,13.4,6.3,4.5
2018,10,27,17:00,UTC,,1014,69,,,0.1,,50000,15.4,7.3,5
2018,10,27,18:00,UTC,,1014.6,65,,,0.1,,50000,22.1,7.1,4.7
2018,10,27,19:00,UTC,,1015.1,66,,,0.3,,50000,11.3,5.3,3.3
2018,10,27,20:00,UTC,,1015.4,66,,,0.3,,50000,4.1,5.4,3.6
2018,10,27,21:00,UTC,,1015.9,68,,,-0.1,,50000,5.7,7,4.5
2018,10,27,22:00,UTC,,1016.7,71,,,-0.8,,50000,8.2,7.2,4.9
2018,10,27,23:00,UTC,,1017.3,76,,,-1.6,,50000,7.7,6.7,5.1
2018,10,28,00:00,UTC,,1017.9,78,,,-2.1,,50000,6.7,6.6,4.6
2018,10,28,01:00,UTC,,1018.4,80,,,-2.5,,50000,5.1,6.3,4
2018,10,28,02:00,UTC,,1019,82,,,-2.6,,50000,5.7,5.6,3.9
2018,10,28,03:00,UTC,,1019.8,85,,,-3.1,,50000,2.6,6.8,3.9
2018,10,28,04:00,UTC,,1020.2,87,,,-3.7,,50000,2.1,6.5,4.1
2018,10,28,05:00,UTC,,1020.8,91,,,-4.9,,50000,6.7,5.8,3.9
2018,10,28,06:00,UTC,,1021.7,92,,,-5.1,,50000,5.1,4.6,2.9
2018,10,28,07:00,UTC,,1022.7,93,,,-4.5,,50000,4.6,3.6,2.5
2018,10,28,08:00,UTC,,1023.4,92,,,-4.5,,46737,13.9,2.8,1.6
2018,10,28,09:00,UTC,,1023.9,84,,,-2.7,,50000,171.8,3,1.9
2018,10,28,10:00,UTC,,1024.6,76,,,-1.9,,46568,174.4,4.4,2.8
2018,10,28,11:00,UTC,,1025.1,73,,,-1.4,,50000,180.1,4.6,2.9
2018,10,28,12:00,UTC,,1025.5,69,,,-0.5,,50000,172.9,2.9,2
2018,10,28,13:00,UTC,,1026,72,,,-0.6,,49370,172.9,2.4,1.5
2018,10,28,14:00,UTC,,1026.6,79,,,-1.6,,50000,169.8,2.6,1.9
2018,10,28,15:00,UTC,,1027.1,85,,,-3.1,,50000,172.3,1.7,1.3
2018,10,28,16:00,UTC,,1027.7,93,,,-4.1,,50000,4.1,1.2,0.9
2018,10,28,17:00,UTC,,1028.4,93,,,-5,,50000,17,1.4,0.9
2018,10,28,18:00,UTC,,1029.2,94,,,-5.2,,50000,7.7,1.2,0.7
2018,10,28,19:00,UTC,,1029.8,92,,,-6.6,,50000,69.4,1.6,1.2
2018,10,28,20:00,UTC,,1030.3,90,,,-7.7,,50000,73.1,1.1,0.9
2018,10,28,21:00,UTC,,1030.7,89,,,-7.9,,50000,80.3,0.9,0.8
2018,10,28,22:00,UTC,,1031,91,,,-7.8,,50000,75.6,1.8,1.3
2018,10,28,23:00,UTC,,1031.5,89,,,-8.7,,50000,74.1,2.1,1.6
2018,10,29,00:00,UTC,,1031.8,89,,,-8.5,,50000,73.6,1.7,1.5
2018,10,29,01:00,UTC,,1032,89,,,-8.8,,50000,79.2,2.3,1.5
2018,10,29,02:00,UTC,,1032.5,90,,,-7.9,,50000,86.4,2.6,2.1
2018,10,29,03:00,UTC,,1033,88,,,-10,,50000,74.1,2.6,1.8
2018,10,29,04:00,UTC,,1033,90,,,-8.2,,50000,88,2.4,1.9
2018,10,29,05:00,UTC,,1033.6,89,,,-7.7,,50000,81.8,4.3,2.6
2018,10,29,06:00,UTC,,1033.8,88,,,-9,,50000,76.7,2.4,2.2
2018,10,29,07:00,UTC,,1034.4,87,,,-7.8,,50000,72.5,4.2,3.2
2018,10,29,08:00,UTC,,1034.9,86,,,-6.2,,50000,72,3,2.5
2018,10,29,09:00,UTC,,1035.1,84,,,-3.8,,43303,81.8,3.9,2.7
2018,10,29,10:00,UTC,,1035.6,80,,,-1.8,,43715,90,4.8,3.3
2018,10,29,11:00,UTC,,1036,72,,,-0.3,,50000,93.1,4.5,3.2
2018,10,29,12:00,UTC,,1036.4,71,,,0.1,,50000,82.8,3.7,2.3
2018,10,29,13:00,UTC,,1036.6,68,,,0,,48747,78.2,4.6,3.1
2018,10,29,14:00,UTC,,1036.7,69,,,-1.6,,50000,82.3,4.9,3.8
2018,10,29,15:00,UTC,,1037,76,,,-3,,50000,81.3,5.4,3.7
2018,10,29,16:00,UTC,,1037.3,83,,,-3.7,,50000,80.3,4.2,3.2
2018,10,29,17:00,UTC,,1037.5,86,,,-5.1,,50000,72,3.4,2.5
2018,10,29,18:00,UTC,,1037.8,88,,,-6.3,,50000,78.7,4.8,3.4
2018,10,29,19:00,UTC,,1038.3,88,,,-7.7,,50000,74.6,5.4,3.9
2018,10,29,20:00,UTC,,1038.4,89,,,-8.7,,50000,81.3,5.6,4.4
2018,10,29,21:00,UTC,,1038.7,90,,,-9.2,,50000,75.1,6,4.5
2018,10,29,22:00,UTC,,1038.7,91,,,-8.9,,50000,71.5,6.5,4.7
2018,10,29,23:00,UTC,,1039,90,,,-8.6,,50000,72.5,7.2,4.9
2018,10,30,00:00,UTC,,1038.4,91,,,-7.9,,50000,68.9,7.4,5.6
2018,10,30,01:00,UTC,,1038.4,91,,,-7.7,,50000,78.2,6.8,4.8
2018,10,30,02:00,UTC,,1038.4,91,,,-7.6,,50000,80.8,7.7,5.5
2018,10,30,03:00,UTC,,1037.8,91,,,-6.8,,36133,72,5.6,4.2
2018,10,30,04:00,UTC,,1037.6,92,,,-6.5,,35052,67.4,6.9,5.3
2018,10,30,05:00,UTC,,1036.9,92,,,-6.8,,15689,59.2,7.3,5.6
2018,10,30,06:00,UTC,,1037.1,91,,,-7.2,,20649,65.3,6.9,5.6
2018,10,30,07:00,UTC,,1036.6,91,,,-7.7,,47311,55,6.5,5
2018,10,30,08:00,UTC,,1035.8,92,,,-6.2,,14306,57.1,6.8,5.2
2018,10,30,09:00,UTC,,1035.1,93,,,-5.5,,47744,51.4,6.6,5.2
2018,10,30,10:00,UTC,,1034.4,93,,,-5.4,,50000,47.8,7.1,5.1
2018,10,30,11:00,UTC,,1033,93,,,-4.9,,48821,50.4,8.3,5.6
2018,10,30,12:00,UTC,,1031.3,86,,,-4.5,,50000,47.3,9.5,6.3
2018,10,30,13:00,UTC,,1029.7,81,,,-3.9,,50000,48.4,9.1,6
2018,10,30,14:00,UTC,,1028.5,80,,,-3.4,,50000,52.5,8.9,6
2018,10,30,15:00,UTC,,1026.6,74,,,-2.6,,50000,52,9.9,7
2018,10,30,16:00,UTC,,1025.3,67,,,-1.7,,50000,57.1,11.6,8
2018,10,30,17:00,UTC,,1023.9,64,,,-1.2,,50000,55,10.1,7.8
2018,10,30,18:00,UTC,,1022,59,,,-0.1,,50000,60.2,15.2,8.4
2018,10,30,19:00,UTC,,1020.8,61,,,0.2,,50000,63.8,15.3,11.2
2018,10,30,20:00,UTC,,1019.8,65,,,0.1,,50000,66.9,13.8,10.5
2018,10,30,21:00,UTC,,1018,68,,,0,,50000,66.4,14,10.8
2018,10,30,22:00,UTC,,1018.9,66,,,0.6,,50000,71.5,9.9,7.3
2018,10,30,23:00,UTC,,1018.2,68,,,0.8,,50000,68.4,8.5,6.2
2018,10,31,00:00,UTC,,1018,88,,,0.1,,10053,71,6.4,4.3
2018,10,31,01:00,UTC,,1017.6,93,,,0.1,,11411,64.8,5,4
2018,10,31,02:00,UTC,,1016.7,93,,,0.3,,50000,57.6,6,4.4
2018,10,31,03:00,UTC,,1015.8,93,,,0.4,,50000,60.7,7.3,5.3
2018,10,31,04:00,UTC,,1015.2,93,,,0.6,,50000,61.2,7.5,5.5
2018,10,31,05:00,UTC,,1014.8,93,,,0.7,,50000,64.8,7.8,6
2018,10,31,06:00,UTC,,1014.6,93,,,1,,49157,65.8,8,6.5
2018,10,31,07:00,UTC,,1014.2,93,,,1.6,,50000,70,8,5.7
2018,10,31,08:00,UTC,,1014.2,93,,,2,,11874,73.1,6.8,5.1
2018,10,31,09:00,UTC,,1014.1,93,,,1.9,,35493,72.5,6,4.6
2018,10,31,10:00,UTC,,1013.6,95,,,1.9,,3675,73.1,6.3,5.1
2018,10,31,11:00,UTC,,1012.5,95,,,2.1,,6473,70.5,7.6,5.9
2018,10,31,12:00,UTC,,1011.9,94,,,2.2,,28228,73.1,7.5,5.4
2018,10,31,13:00,UTC,,1011.1,94,,,2.4,,43242,74.6,6.9,5.6
2018,10,31,14:00,UTC,,1010.4,95,,,2.5,,17004,73.1,6.9,5.7
2018,10,31,15:00,UTC,,1009.6,95,,,2.8,,48321,74.1,7.1,5.3
2018,10,31,16:00,UTC,,1009,95,,,3.2,,50000,73.1,6.5,5
2018,10,31,17:00,UTC,,1008.6,94,,,3.8,,49771,81.3,6.7,4.9
2018,10,31,18:00,UTC,,1008,94,,,4.3,,50000,81.3,8.4,5.6
2018,10,31,19:00,UTC,,1007.6,93,,,4.7,,50000,81.8,7.6,5.3
2018,10,31,20:00,UTC,,1007.4,94,,,4.9,,39641,79.7,7.4,5.1
2018,10,31,21:00,UTC,,1007.4,92,,,5.8,,45797,84.4,7.7,5.2
2018,10,31,22:00,UTC,,1007.4,92,,,6,,50000,83.9,7,5.1
2018,10,31,23:00,UTC,,1007.3,91,,,6.4,,50000,89,8.4,5.3
2018,11,1,00:00,UTC,,1007.7,91,,,6.3,,50000,95.2,7.5,5.5
2018,11,1,01:00,UTC,,1008.1,94,,,5.8,,17487,97.2,6.2,4.4
2018,11,1,02:00,UTC,,1008.5,93,,,5.9,,50000,105.5,7.7,5
2018,11,1,03:00,UTC,,1008.9,89,,,5.8,,50000,109.6,6,4
2018,11,1,04:00,UTC,,1009,89,,,6,,50000,109.6,6.8,4.7
2018,11,1,05:00,UTC,,1009.5,87,,,6.3,,27792,110.6,7,4.8
2018,11,1,06:00,UTC,,1010.3,86,,,6.4,,50000,119.4,7.8,5
2018,11,1,07:00,UTC,,1011.1,84,,,6.3,,50000,119.4,10.9,5.9
2018,11,1,08:00,UTC,,1012.4,86,,,6,,50000,121.9,6.9,4.7
2018,11,1,09:00,UTC,,1014.2,86,,,6,,50000,123.5,7.1,5.4
2018,11,1,10:00,UTC,,1015.3,80,,,6.8,,50000,130.7,8.5,5.8
2018,11,1,11:00,UTC,,1016.3,79,,,7.3,,50000,133.2,8.9,6.1
2018,11,1,12:00,UTC,,1017.3,79,,,7,,50000,127.1,7.1,4.9
2018,11,1,13:00,UTC,,1018.1,80,,,6.4,,48007,115.7,5.8,4
2018,11,1,14:00,UTC,,1018.8,84,,,5.4,,50000,119.9,4.9,3.4
2018,11,1,15:00,UTC,,1019.4,88,,,4.7,,50000,121.4,5.5,3.8
2018,11,1,16:00,UTC,,1020.2,92,,,3.9,,50000,110.6,8.1,2.7
2018,11,1,17:00,UTC,,1021,95,,,2.7,,50000,107,3.6,2.3
2018,11,1,18:00,UTC,,1021.9,96,,,2.4,,47876,107.5,4.6,2.8
2018,11,1,19:00,UTC,,1022.5,95,,,1.9,,50000,106,4,2.9
2018,11,1,20:00,UTC,,1022.7,96,,,1.4,,50000,102.9,4.6,3.6
2018,11,1,21:00,UTC,,1023.1,96,,,0.7,,35114,77.7,1.9,1.1
2018,11,1,22:00,UTC,,1023.6,97,,,0.6,,48689,101.9,4.6,3.3
2018,11,1,23:00,UTC,,1024.1,97,,,0.8,,41741,105.5,4,2.9
2018,11,2,00:00,UTC,,1024.5,97,,,0.1,,1125,82.3,3,2.3
2018,11,2,01:00,UTC,,1024.6,97,,,-0.1,,836,71,3.4,2.3
2018,11,2,02:00,UTC,,1024.6,97,,,-0.6,,1149,72.5,3.8,3.1
2018,11,2,03:00,UTC,,1024.7,97,,,-0.6,,1172,75.1,4,3.3
2018,11,2,04:00,UTC,,1024.2,98,,,-0.7,,952,68.9,5,4
2018,11,2,05:00,UTC,,1023.7,98,,,-0.8,,1267,52,5.7,3.9
2018,11,2,06:00,UTC,,1024.3,98,,,-0.7,,1421,73.6,5.9,4.1
2018,11,2,07:00,UTC,,1024.1,98,,,-1,,1087,61.7,6.6,5.3
2018,11,2,08:00,UTC,,1023.6,98,,,-0.7,,1928,63.3,7.1,5.5
2018,11,2,09:00,UTC,,1023.1,98,,,-0.5,,4193,65.3,7.2,5.6
2018,11,2,10:00,UTC,,1022.6,98,,,-0.2,,2119,62.8,7.8,6.2
2018,11,2,11:00,UTC,,1021.5,98,,,0,,9002,57.6,7.2,5.4
2018,11,2,12:00,UTC,,1020.8,98,,,0.3,,48655,60.2,7.1,5.5
2018,11,2,13:00,UTC,,1020.2,98,,,0.9,,50000,63.8,7.3,5.6
2018,11,2,14:00,UTC,,1019.7,98,,,1.2,,50000,64.8,6.6,5.2
2018,11,2,15:00,UTC,,1018.3,98,,,1.7,,50000,60.2,9,6.4
2018,11,2,16:00,UTC,,1016.7,95,,,2.2,,50000,55.6,7.7,5.9
2018,11,2,17:00,UTC,,1015.3,94,,,2.7,,47434,56.1,8.1,6.2
2018,11,2,18:00,UTC,,1014.3,95,,,3.1,,30294,58.1,9,6.3
2018,11,2,19:00,UTC,,1013.3,95,,,3.4,,20644,59.2,7.2,5.3
2018,11,2,20:00,UTC,,1011.9,95,,,3.9,,17419,65.3,8.6,6.5
2018,11,2,21:00,UTC,,1011,96,,,4.2,,23869,66.9,7.3,5.7
2018,11,2,22:00,UTC,,1009.8,96,,,4.4,,8713,66.4,7.1,5.7
2018,11,2,23:00,UTC,,1008.7,97,,,4.6,,7483,66.9,6.1,4.9
2018,11,3,00:00,UTC,,1007.6,97,,,4.9,,7823,68.4,5.4,4.4
2018,11,3,01:00,UTC,,1006.6,97,,,5.6,,20374,72,5.3,4.3
2018,11,3,02:00,UTC,,1006.1,97,,,6.1,,14927,76.7,5.5,4
2018,11,3,03:00,UTC,,1005.4,97,,,6.8,,16857,81.3,6,3.8
2018,11,3,04:00,UTC,,1004.8,97,,,7.4,,19539,86.4,5.9,4.3
2018,11,3,05:00,UTC,,1004.3,96,,,7.5,,8028,95.7,5.3,3.4
2018,11,3,06:00,UTC,,1004.3,93,,,7.3,,20217,113.2,7.2,5.1
2018,11,3,07:00,UTC,,1004.5,96,,,6.3,,4370,114.2,6.4,4.4
2018,11,3,08:00,UTC,,1005,96,,,5.8,,3135,116.3,6.2,4.3
2018,11,3,09:00,UTC,,1005.3,97,,,5.4,,24199,125,7.2,4.5
2018,11,3,10:00,UTC,,1005.9,94,,,4.6,,50000,130.7,8.2,5.6
2018,11,3,11:00,UTC,,1006.5,92,,,4.2,,50000,135.3,7.1,5.3
2018,11,3,12:00,UTC,,1007.1,91,,,4,,50000,135.8,6.8,5.1
2018,11,3,13:00,UTC,,1007.9,88,,,4.1,,49969,140.4,7.8,5.7
2018,11,3,14:00,UTC,,1008.6,86,,,4,,50000,145.6,7,5.5
2018,11,3,15:00,UTC,,1009.6,87,,,4,,50000,144,7.3,5.4
2018,11,3,16:00,UTC,,1010.4,91,,,3.2,,50000,148.7,4.2,3.1
2018,11,3,17:00,UTC,,1010.9,90,,,3.5,,50000,142,5,4.1
2018,11,3,18:00,UTC,,1011.6,90,,,3,,50000,147.6,5.1,4
2018,11,3,19:00,UTC,,1012.5,89,,,3.5,,50000,141,6.4,4.8
2018,11,3,20:00,UTC,,1013.6,91,,,3,,50000,136.8,5.2,4.2
2018,11,3,21:00,UTC,,1014.5,93,,,2.4,,50000,141,3.9,3.2
2018,11,3,22:00,UTC,,1014.8,91,,,2.6,,50000,130.7,4,3.3
2018,11,3,23:00,UTC,,1015.5,93,,,2.3,,50000,131.2,3.5,2.4
2018,11,4,00:00,UTC,,1015.8,95,,,1,,50000,113.7,2.3,1.8
2018,11,4,01:00,UTC,,1016.3,96,,,1.4,,50000,111.6,3.6,2.6
2018,11,4,02:00,UTC,,1016.5,96,,,0.7,,50000,98.3,4.4,3.2
2018,11,4,03:00,UTC,,1016.9,96,,,0.6,,50000,106.5,3.4,2.5
2018,11,4,04:00,UTC,,1017.4,96,,,-0.3,,50000,96.7,2.4,2
2018,11,4,05:00,UTC,,1017.5,97,,,-0.6,,49157,80.8,4.2,3.4
2018,11,4,06:00,UTC,,1017.8,97,,,-1.1,,973,78.2,4.9,3.6
2018,11,4,07:00,UTC,,1018.4,97,,,-0.1,,1363,84.4,4.8,3.6
2018,11,4,08:00,UTC,,1018.4,98,,,0.4,,1291,82.3,5.7,3.9
2018,11,4,09:00,UTC,,1018.1,98,,,0.9,,10471,71,5.6,4.6
2018,11,4,10:00,UTC,,1018.1,98,,,1.3,,45747,74.6,5.5,4.3
2018,11,4,11:00,UTC,,1017.8,98,,,1.9,,36978,78.7,4.9,3.9
2018,11,4,12:00,UTC,,1017.7,98,,,2.4,,50000,78.2,6.6,4.7
2018,11,4,13:00,UTC,,1017.7,98,,,2.5,,45104,77.7,6.9,5
2018,11,4,14:00,UTC,,1017.1,97,,,2.8,,20268,74.1,6.5,5.2
2018,11,4,15:00,UTC,,1016.5,97,,,3.1,,47856,76.1,7.8,5.3
2018,11,4,16:00,UTC,,1016.7,96,,,3.6,,45462,79.2,6.6,4.7
2018,11,4,17:00,UTC,,1016,96,,,3.9,,20304,78.7,7.6,5.8
2018,11,4,18:00,UTC,,1016,97,,,4.5,,47820,80.8,7.4,4.8
2018,11,4,19:00,UTC,,1015.5,97,,,5.2,,31576,82.3,5.8,4.1
2018,11,4,20:00,UTC,,1015.4,97,,,5.9,,26802,84.9,5.2,3.8
2018,11,4,21:00,UTC,,1015.4,95,,,6.4,,47692,88.5,5.4,3.9
2018,11,4,22:00,UTC,,1015.3,90,,,6.7,,50000,99.8,5.2,3.9
2018,11,4,23:00,UTC,,1015,88,,,6.5,,50000,97.7,6.4,4.2
2018,11,5,00:00,UTC,,1015.1,88,,,5.8,,50000,93.1,6.3,4.1
2018,11,5,01:00,UTC,,1015.2,87,,,5.6,,50000,98.3,6.2,4.1
2018,11,5,02:00,UTC,,1014.6,85,,,5.3,,50000,97.7,6.4,4.8
2018,11,5,03:00,UTC,,1014.4,83,,,5.3,,50000,98.3,6.8,4.7
2018,11,5,04:00,UTC,,1014.6,84,,,4.7,,50000,100.3,6.6,4.6
2018,11,5,05:00,UTC,,1014.5,85,,,4.2,,50000,100.3,5.6,3.9
2018,11,5,06:00,UTC,,1014.3,83,,,4.3,,50000,97.2,8,5.4
2018,11,5,07:00,UTC,,1014.4,79,,,4.7,,42070,102.4,8.6,5.7
2018,11,5,08:00,UTC,,1014.7,79,,,4.8,,50000,101.9,8.9,5.7
2018,11,5,09:00,UTC,,1014.7,81,,,4.9,,50000,101.9,7.8,4.7
2018,11,5,10:00,UTC,,1015,82,,,5,,50000,102.9,6.2,4.1
2018,11,5,11:00,UTC,,1014.8,83,,,5.6,,50000,104.9,6.7,4.1
2018,11,5,12:00,UTC,,1015,82,,,6.2,,50000,113.7,7.4,4.9
2018,11,5,13:00,UTC,,1015.3,82,,,6.3,,50000,117.8,8.1,4.4
2018,11,5,14:00,UTC,,1015.6,82,,,6.4,,50000,119.4,11,6.1
2018,11,5,15:00,UTC,,1015.6,82,,,6.3,,50000,116.8,10.4,6.4
2018,11,5,16:00,UTC,,1015.9,84,,,6.1,,50000,118.8,6.9,4
2018,11,5,17:00,UTC,,1016.3,84,,,6.2,,50000,115.2,5.5,3.6
2018,11,5,18:00,UTC,,1016.6,85,,,6,,50000,114.2,6,4
2018,11,5,19:00,UTC,,1016.7,85,,,6,,50000,113.2,4.8,3.3
2018,11,5,20:00,UTC,,1016.9,85,,,5.9,,50000,113.2,5.3,3.1
2018,11,5,21:00,UTC,,1017.2,85,,,6,,50000,113.7,7.8,4.8
2018,11,5,22:00,UTC,,1017.1,87,,,6,,50000,103.9,5.5,3
2018,11,5,23:00,UTC,,1017,85,,,6.1,,50000,107,5.8,3.2
2018,11,6,00:00,UTC,,1017.1,84,,,6,,50000,102.4,4.7,3
2018,11,6,01:00,UTC,,1017,84,,,6.1,,49729,95.2,4.2,2.6
2018,11,6,02:00,UTC,,1017,85,,,5.8,,50000,82.3,3.5,2.6
2018,11,6,03:00,UTC,,1016.8,86,,,5.9,,50000,84.4,4.4,3.3
2018,11,6,04:00,UTC,,1016.7,91,,,5.8,,45816,86.4,4.4,3.3
2018,11,6,05:00,UTC,,1016.5,92,,,6,,44187,86.4,6.5,3.3
2018,11,6,06:00,UTC,,1016.7,95,,,5.9,,14713,80.8,4.3,3.2
2018,11,6,07:00,UTC,,1016.6,96,,,5.8,,10728,77.7,3.9,2.7
2018,11,6,08:00,UTC,,1016.7,97,,,6.1,,2270,82.3,5,3.6
2018,11,6,09:00,UTC,,1016.5,98,,,6.2,,5645,82.3,4.1,3.1
2018,11,6,10:00,UTC,,1016.5,98,,,6.3,,25900,86.9,3.5,2.7
2018,11,6,11:00,UTC,,1016.3,96,,,6.6,,42014,87.5,3.4,2.4
2018,11,6,12:00,UTC,,1016.1,95,,,6.7,,50000,84.4,3.8,2.4
2018,11,6,13:00,UTC,,1016.1,94,,,6.7,,41685,95.7,3.8,2.7
2018,11,6,14:00,UTC,,1015.9,94,,,6.6,,50000,101.3,3.6,2.7
2018,11,6,15:00,UTC,,1015.8,94,,,6.3,,50000,88,3,1.7
2018,11,6,16:00,UTC,,1015.7,93,,,6.4,,40492,86.9,7.1,2.9
2018,11,6,17:00,UTC,,1015.3,93,,,6.1,,50000,88.5,3.7,2.7
2018,11,6,18:00,UTC,,1015.3,94,,,5.9,,35259,89.5,4.6,3.3
2018,11,6,19:00,UTC,,1015,95,,,5.7,,33999,87.5,4.1,3.1
2018,11,6,20:00,UTC,,1014.8,95,,,5.5,,45315,84.9,3.9,2.7
2018,11,6,21:00,UTC,,1015.1,95,,,5.4,,14260,86.9,3.9,2.9
2018,11,6,22:00,UTC,,1014.6,97,,,5.3,,8635,88,3.3,2.4
2018,11,6,23:00,UTC,,1014.6,97,,,5.3,,7504,93.6,3.7,2.4
2018,11,7,00:00,UTC,,1014.3,97,,,5.3,,7683,98.3,2.8,2.1
2018,11,7,01:00,UTC,,1014.1,97,,,5.1,,21036,90,3,2.1
2018,11,7,02:00,UTC,,1014.2,97,,,5.1,,14954,86.4,2.7,1.9
2018,11,7,03:00,UTC,,1014.3,97,,,4.8,,8211,102.9,3.8,2.6
2018,11,7,04:00,UTC,,1014.4,97,,,4.5,,10742,97.2,2.3,1.5
2018,11,7,05:00,UTC,,1014.4,97,,,4.4,,13448,90.5,2.8,2.2
2018,11,7,06:00,UTC,,1015,97,,,4.4,,23945,97.2,2.8,2.1
2018,11,7,07:00,UTC,,1015.5,97,,,4.3,,20345,89,2.7,1.6
2018,11,7,08:00,UTC,,1016.1,97,,,4.4,,31065,82.8,1.7,1.2
2018,11,7,09:00,UTC,,1016.9,97,,,4.6,,31670,104.9,3,2
2018,11,7,10:00,UTC,,1017.5,97,,,4.6,,44197,102.4,2,1.2
2018,11,7,11:00,UTC,,1017.7,97,,,4.8,,31885,104.9,1.1,0.7
2018,11,7,12:00,UTC,,1017.9,96,,,4.8,,37599,88,1,0.5
2018,11,7,13:00,UTC,,1018.3,97,,,4.8,,16407,70.5,2,1.6
2018,11,7,14:00,UTC,,1018.8,97,,,4.6,,13681,67.4,2.1,1.4
2018,11,7,15:00,UTC,,1019.2,97,,,4.5,,13862,61.2,1.4,1
2018,11,7,16:00,UTC,,1019.5,98,,,4.4,,6672,27.3,1,0.7
2018,11,7,17:00,UTC,,1020.1,98,,,4.4,,11790,33.4,1.1,0.5
2018,11,7,18:00,UTC,,1020.5,98,,,4,,2759,170.3,0.4,0.3
2018,11,7,19:00,UTC,,1020.8,98,,,3.9,,3300,27.3,1.2,0.8
2018,11,7,20:00,UTC,,1021.1,98,,,4.1,,11031,60.2,1.3,0.9
2018,11,7,21:00,UTC,,1021.3,98,,,4.2,,11872,57.6,0.9,0.6
2018,11,7,22:00,UTC,,1021.6,98,,,4.2,,13577,48.4,1.3,1.1
2018,11,7,23:00,UTC,,1021.8,98,,,4.1,,16238,47.3,1.6,1.2
2018,11,8,00:00,UTC,,1022,98,,,4.2,,29585,51.4,1.8,1.4
2018,11,8,01:00,UTC,,1022,98,,,4.2,,50000,44.8,2,1.4
2018,11,8,02:00,UTC,,1021.8,98,,,4.2,,50000,53.5,2.1,1.5
2018,11,8,03:00,UTC,,1021.8,98,,,4,,40709,63.8,2.1,1.6
2018,11,8,04:00,UTC,,1021.8,98,,,4.1,,50000,58.1,2.8,2.2
2018,11,8,05:00,UTC,,1021.8,98,,,4.1,,50000,65.8,3,2.4
2018,11,8,06:00,UTC,,1022.1,98,,,4,,50000,63.8,3.5,2.9
2018,11,8,07:00,UTC,,1022.3,97,,,4,,47191,64.8,2.8,2.5
2018,11,8,08:00,UTC,,,,,,,,49109,,,
2018,11,8,09:00,UTC,,1022.3,97,,,4.3,,,53.5,3.8,2.8
2018,11,8,10:00,UTC,,1022.4,97,,,4.5,,50000,57.6,3.8,2.5
2018,11,8,11:00,UTC,,1022.2,96,,,4.7,,50000,58.6,3.8,3
2018,11,8,12:00,UTC,,1021.9,97,,,4.6,,14040,57.6,4.1,3.2
2018,11,8,13:00,UTC,,1021.8,98,,,4.6,,7260,53,4,2.7
2018,11,8,14:00,UTC,,1021.5,98,,,4.6,,29441,58.6,4,3.1
2018,11,8,15:00,UTC,,1021.1,98,,,4.6,,39792,61.7,5,3.8
2018,11,8,16:00,UTC,,1020.9,98,,,4.6,,23896,67.4,5,4
2018,11,8,17:00,UTC,,1020.7,98,,,4.6,,13191,68.4,5.3,3.8
2018,11,8,18:00,UTC,,1020.6,99,,,4.6,,10788,67.4,4.8,3.9
2018,11,8,19:00,UTC,,1020.4,99,,,4.7,,15180,68.4,4.8,4
2018,11,8,20:00,UTC,,1020.6,99,,,4.7,,12104,70.5,4.2,3.3
2018,11,8,21:00,UTC,,1020.8,99,,,4.8,,11367,72.5,3.9,3
2018,11,8,22:00,UTC,,1020.6,99,,,4.9,,13888,73.1,4.3,3.5
2018,11,8,23:00,UTC,,1020.7,99,,,4.9,,9089,73.6,4.5,3.3
2018,11,9,00:00,UTC,,1020.4,99,,,5,,22030,75.6,3.8,3.2
2018,11,9,01:00,UTC,,1020.1,99,,,5,,14531,74.1,4.1,3.1
2018,11,9,02:00,UTC,,1019.9,99,,,4.9,,7551,71.5,3.7,2.9
2018,11,9,03:00,UTC,,1019.9,100,,,5,,10353,72,3.3,2.4
2018,11,9,04:00,UTC,,1020,100,,,5.1,,6003,70.5,3.6,2.5
2018,11,9,05:00,UTC,,1020.1,100,,,5.3,,5783,75.6,3.3,2.3
2018,11,9,06:00,UTC,,1020.4,100,,,5.3,,10803,76.7,3.1,2.2
2018,11,9,07:00,UTC,,1020.9,100,,,5.5,,5052,77.7,3.7,2.4
2018,11,9,08:00,UTC,,1021.2,100,,,5.5,,11532,75.1,3.2,2.4
2018,11,9,09:00,UTC,,1021.4,100,,,5.6,,21813,79.7,3.7,2.3
2018,11,9,10:00,UTC,,1021.5,99,,,5.8,,13753,77.7,3.6,2.6
2018,11,9,11:00,UTC,,1021.7,99,,,5.8,,27969,75.1,3.6,2.8
2018,11,9,12:00,UTC,,1021.7,99,,,5.7,,20689,70,4.9,2.8
2018,11,9,13:00,UTC,,1021.8,99,,,5.6,,20848,68.9,3,2.2
2018,11,9,14:00,UTC,,1021.9,99,,,5.7,,46679,71,4.1,2.6
2018,11,9,15:00,UTC,,1022,99,,,5.4,,28449,71,2.8,2.2
2018,11,9,16:00,UTC,,1022.1,99,,,5.3,,8965,77.7,5.2,3.6
2018,11,9,17:00,UTC,,1022.4,99,,,5.4,,47191,70.5,5.1,3.5
2018,11,9,18:00,UTC,,1022.6,98,,,5.2,,46161,67.4,5.1,4
2018,11,9,19:00,UTC,,1023,98,,,5,,31644,70.5,5.1,3.8
2018,11,9,20:00,UTC,,1023.4,98,,,4.9,,43436,71.5,5.4,3.1
2018,11,9,21:00,UTC,,1023.6,99,,,4.7,,15554,63.3,4.6,3.6
2018,11,9,22:00,UTC,,1023.7,99,,,4.7,,30481,61.7,5.4,4.3
2018,11,9,23:00,UTC,,1023.7,96,,,4.5,,45380,64.3,6.4,4.9
2018,11,10,00:00,UTC,,1023.7,97,,,4.2,,50000,62.2,6.9,5.5
2018,11,10,01:00,UTC,,1024,96,,,3.3,,34854,67.9,7,5.2
2018,11,10,02:00,UTC,,1024.1,96,,,2.4,,50000,63.8,8.3,6.2
2018,11,10,03:00,UTC,,1024,96,,,2.2,,42050,60.7,8.5,6.3
2018,11,10,04:00,UTC,,1024.1,96,,,2.2,,50000,61.2,8.2,6.2
2018,11,10,05:00,UTC,,1024.3,96,,,2.5,,50000,62.8,8,5.9
2018,11,10,06:00,UTC,,1024.7,94,,,2.6,,31180,64.8,7.8,6
2018,11,10,07:00,UTC,,1025.2,93,,,2.7,,50000,61.7,8.8,6.6
2018,11,10,08:00,UTC,,1025.5,92,,,2.5,,43251,63.3,10,7.7
2018,11,10,09:00,UTC,,1025.5,92,,,2.4,,50000,61.2,9.4,7.2
2018,11,10,10:00,UTC,,1025.6,93,,,2.3,,49710,57.6,8.9,6.8
2018,11,10,11:00,UTC,,1025.6,94,,,2.1,,24150,57.6,8.8,6.6
2018,11,10,12:00,UTC,,1025.6,94,,,2.1,,27343,59.2,8.7,7
2018,11,10,13:00,UTC,,1025.6,93,,,1.7,,17642,65.3,10.2,7.2
2018,11,10,14:00,UTC,,1025.7,95,,,1.5,,50000,63.8,9.1,6.6
2018,11,10,15:00,UTC,,1025.9,94,,,1.5,,43773,64.8,8.2,6.6
2018,11,10,16:00,UTC,,1025.8,93,,,1.5,,50000,62.2,8.5,6.9
2018,11,10,17:00,UTC,,1025.7,92,,,1.3,,50000,63.3,9.7,7.3
2018,11,10,18:00,UTC,,1025.7,92,,,1.2,,49637,64.3,9.3,6.8
2018,11,10,19:00,UTC,,1025.9,92,,,1.4,,50000,65.3,7.9,6.2
2018,11,10,20:00,UTC,,1025.9,91,,,1.4,,50000,66.4,8.5,6.4
2018,11,10,21:00,UTC,,1025.5,91,,,1.5,,50000,66.4,8.4,6.5
2018,11,10,22:00,UTC,,1025.4,90,,,1.5,,50000,64.3,10.1,7.1
2018,11,10,23:00,UTC,,1025.6,89,,,1.6,,50000,70.5,7.8,5.7
2018,11,11,00:00,UTC,,1025.8,90,,,1.6,,50000,73.1,7.9,5.2
2018,11,11,01:00,UTC,,1025.3,91,,,1.7,,50000,70,7.6,5.5
2018,11,11,02:00,UTC,,1025.1,92,,,1.8,,35617,70.5,7,5.5
2018,11,11,03:00,UTC,,1025,93,,,2,,50000,71.5,7.6,5.4
2018,11,11,04:00,UTC,,1024.8,95,,,2,,11770,73.1,8.5,5.5
2018,11,11,05:00,UTC,,1024.6,96,,,2.1,,49341,74.1,7.1,5
2018,11,11,06:00,UTC,,1024.5,95,,,2.3,,50000,72,8.5,5.8
2018,11,11,07:00,UTC,,1024.7,95,,,2.3,,50000,74.1,9.6,6.7
2018,11,11,08:00,UTC,,1024.5,96,,,2.5,,50000,72,7.7,5.5
2018,11,11,09:00,UTC,,1025,95,,,2.9,,49253,76.7,6.1,4.4
2018,11,11,10:00,UTC,,1024.6,95,,,3,,50000,72,5.9,4.3
2018,11,11,11:00,UTC,,1024.1,93,,,3.2,,50000,74.6,7.4,5.1
2018,11,11,12:00,UTC,,1024.3,93,,,3.3,,50000,82.3,6.4,4.5
2018,11,11,13:00,UTC,,1023.9,93,,,3.2,,47763,72,5.4,4.2
2018,11,11,14:00,UTC,,1023.4,93,,,3.2,,49674,71.5,6.7,5
2018,11,11,15:00,UTC,,1023,94,,,3.2,,44220,72.5,7,4.8
2018,11,11,16:00,UTC,,1022.7,95,,,3.2,,13463,73.6,8.3,5.7
2018,11,11,17:00,UTC,,1022.4,92,,,3.4,,49804,73.6,7.7,5.7
2018,11,11,18:00,UTC,,1022.2,92,,,3.6,,42482,76.1,7.3,5.4
2018,11,11,19:00,UTC,,1022,93,,,3.5,,24301,77.2,7.3,5
2018,11,11,20:00,UTC,,1021.9,94,,,3.4,,50000,79.7,7.2,4.3
2018,11,11,21:00,UTC,,1021.6,94,,,3.4,,21981,75.1,5.8,4
2018,11,11,22:00,UTC,,1021.3,91,,,3.3,,50000,74.1,6.9,4.6
2018,11,11,23:00,UTC,,1020.9,90,,,3.3,,50000,76.1,6.4,4.6
2018,11,12,00:00,UTC,,1020.6,89,,,3.4,,50000,75.6,5.9,4.3
2018,11,12,01:00,UTC,,1020.4,89,,,3.4,,49870,82.3,5.5,4.1
2018,11,12,02:00,UTC,,1020.2,90,,,3.4,,50000,81.8,5.8,4
2018,11,12,03:00,UTC,,1020.1,91,,,3.4,,31641,77.7,6,4.4
2018,11,12,04:00,UTC,,1019.8,94,,,3.3,,17006,79.2,5.9,4.2
2018,11,12,05:00,UTC,,1019.6,96,,,3.4,,13115,77.7,5.4,4
2018,11,12,06:00,UTC,,1019.1,97,,,3.5,,10983,73.6,7.7,5.5
2018,11,12,07:00,UTC,,1018.8,98,,,3.6,,9199,73.1,6.1,4.5
2018,11,12,08:00,UTC,,1018.4,96,,,4,,14000,74.6,7.5,5.1
2018,11,12,09:00,UTC,,1018.2,98,,,4.1,,7523,77.2,5.8,4.2
2018,11,12,10:00,UTC,,1017.5,94,,,4.7,,50000,78.2,7.7,5.5
2018,11,12,11:00,UTC,,1016.9,91,,,4.5,,50000,79.7,6.8,4.7
2018,11,12,12:00,UTC,,1016.4,88,,,4.6,,50000,82.3,7.8,5
2018,11,12,13:00,UTC,,1015.8,88,,,4.5,,50000,82.8,7,4.9
2018,11,12,14:00,UTC,,1015.2,89,,,4.4,,50000,80.8,7.6,5.1
2018,11,12,15:00,UTC,,1014.6,90,,,4.4,,50000,80.3,7.2,5.2
2018,11,12,16:00,UTC,,1014,87,,,4.5,,50000,81.3,7.4,5.2
2018,11,12,17:00,UTC,,1013.4,90,,,4.4,,50000,82.8,7.8,5.4
2018,11,12,18:00,UTC,,1012.7,95,,,4,,25517,78.2,6.8,5
2018,11,12,19:00,UTC,,1012,96,,,4,,30514,80.3,7.7,5.6
2018,11,12,20:00,UTC,,1011.3,96,,,3.9,,28406,79.7,7.3,5.2
2018,11,12,21:00,UTC,,1010.6,96,,,3.8,,22219,80.8,9.1,5.9
2018,11,12,22:00,UTC,,1010.1,96,,,3.8,,50000,82.3,8.4,5.4
2018,11,12,23:00,UTC,,1009.7,96,,,3.9,,50000,86.4,6.7,4.8
2018,11,13,00:00,UTC,,1009,97,,,4.2,,50000,85.9,8,4.9
2018,11,13,01:00,UTC,,1008.4,97,,,4.6,,50000,86.4,6.8,4.4
2018,11,13,02:00,UTC,,1007.8,97,,,4.9,,50000,85.4,6.8,4.6
2018,11,13,03:00,UTC,,1007,97,,,5.3,,50000,85.9,6.3,4.4
2018,11,13,04:00,UTC,,1006.4,97,,,5.6,,24562,87.5,7.8,5.2
2018,11,13,05:00,UTC,,1005.8,97,,,5.7,,26213,84.9,7.5,4.8
2018,11,13,06:00,UTC,,1005.3,97,,,5.9,,16646,84.9,8.2,4.9
2018,11,13,07:00,UTC,,1004.9,96,,,6,,50000,89,6.3,4.3
2018,11,13,08:00,UTC,,1004.6,96,,,6,,50000,85.9,5.7,4.3
2018,11,13,09:00,UTC,,1004.4,95,,,6.1,,50000,90,7,4.2
2018,11,13,10:00,UTC,,1003.8,97,,,5.9,,20139,86.4,5.8,3.7
2018,11,13,11:00,UTC,,1003.5,96,,,6.2,,12517,93.6,5.2,3.4
2018,11,13,12:00,UTC,,1003.2,96,,,6.4,,13796,97.7,5.8,3.9
2018,11,13,13:00,UTC,,1003.1,98,,,6.2,,6614,108,5.7,3.5
2018,11,13,14:00,UTC,,1003.2,97,,,6,,36635,113.2,4.5,3.2
2018,11,13,15:00,UTC,,1003.4,97,,,5.7,,42297,112.7,5.8,3.8
2018,11,13,16:00,UTC,,1003.4,97,,,5.6,,21547,113.7,4.1,2.6
2018,11,13,17:00,UTC,,1003.8,91,,,5.6,,50000,121.9,5.8,4
2018,11,13,18:00,UTC,,1004.2,95,,,4.9,,50000,120.4,4.5,3.1
2018,11,13,19:00,UTC,,1004.7,95,,,4.8,,50000,107.5,2.8,2
2018,11,13,20:00,UTC,,1005.1,94,,,4.9,,50000,117.3,4,2.7
2018,11,13,21:00,UTC,,1005.6,97,,,4.7,,13540,126.6,5.4,3.4
2018,11,13,22:00,UTC,,1005.9,99,,,4.7,,5142,122.4,4.4,3.1
2018,11,13,23:00,UTC,,1006.3,100,,,5,,7720,125.5,5.2,3.8
2018,11,14,00:00,UTC,,1006.9,100,,,5,,11162,133.8,5.9,4
2018,11,14,01:00,UTC,,1007.4,99,,,4.8,,17711,135.3,5.2,4.2
2018,11,14,02:00,UTC,,1008,99,,,4.5,,50000,138.4,5.3,3.6
2018,11,14,03:00,UTC,,1008.6,99,,,3.9,,50000,140.4,4.9,3.4
2018,11,14,04:00,UTC,,1009.3,98,,,3.6,,50000,139.9,5.1,3.3
2018,11,14,05:00,UTC,,1009.8,100,,,3.5,,7021,133.2,3.3,2.4
2018,11,14,06:00,UTC,,1010.6,100,,,2.6,,4194,150.2,4.7,3.8
2018,11,14,07:00,UTC,,1011.5,100,,,2.1,,50000,134.8,3.7,2.6
2018,11,14,08:00,UTC,,1012.5,100,,,1.4,,12249,142.5,5,3.7
2018,11,14,09:00,UTC,,1013.3,100,,,1.4,,988,146.6,5.1,3.7
2018,11,14,10:00,UTC,,1014,100,,,1.6,,40770,156.9,2.4,1.5
2018,11,14,11:00,UTC,,1014.8,100,,,1.8,,25486,141.5,4.3,3.2
2018,11,14,12:00,UTC,,1015.6,100,,,1.8,,11555,146.1,3.6,2.8
2018,11,14,13:00,UTC,,1016.1,100,,,1.6,,13285,166.7,3.2,1.8
2018,11,14,14:00,UTC,,1016.7,100,,,1.6,,18282,168.2,2,1.1
2018,11,14,15:00,UTC,,1017.3,100,,,1.4,,32749,126.6,2.1,1.1
2018,11,14,16:00,UTC,,1017.6,100,,,1.6,,5992,93.6,3.3,1.5
2018,11,14,17:00,UTC,,1017.7,100,,,1.9,,3179,67.9,2.6,1.6
2018,11,14,18:00,UTC,,1018,100,,,1.8,,7442,61.7,3.6,2.8
2018,11,14,19:00,UTC,,1018.5,100,,,2,,10068,71.5,3.6,3.1
2018,11,14,20:00,UTC,,1018.7,100,,,2.5,,50000,81.8,3.3,2.1
2018,11,14,21:00,UTC,,1019,100,,,2.9,,35788,78.7,2.9,2.2
2018,11,14,22:00,UTC,,1019,99,,,3.1,,23779,89.5,3.8,2.4
2018,11,14,23:00,UTC,,1019.1,99,,,2.7,,13049,89.5,4.1,2.6
2018,11,15,00:00,UTC,,1018.9,100,,,2.4,,14363,89,5.9,4.3
2018,11,15,01:00,UTC,,1018.2,99,,,2.2,,14176,84.4,6.9,4.3
2018,11,15,02:00,UTC,,1018.5,100,,,2.6,,8547,94.1,4.5,3.3
2018,11,15,03:00,UTC,,1018.7,99,,,2.8,,10529,98.8,6.7,4.6
2018,11,15,04:00,UTC,,1018.1,98,,,2.4,,32875,91.1,7.1,4.7
2018,11,15,05:00,UTC,,1017.5,99,,,2.3,,9717,79.7,7.7,5.3
2018,11,15,06:00,UTC,,1017.6,99,,,2.7,,14465,85.4,6.5,4.3
2018,11,15,07:00,UTC,,1017.7,99,,,3.1,,19304,76.7,4.8,3.3
2018,11,15,08:00,UTC,,1017.5,98,,,3.8,,46678,78.7,4.7,3.5
2018,11,15,09:00,UTC,,1017.5,97,,,4.5,,50000,88.5,5.4,3.7
2018,11,15,10:00,UTC,,1017.2,95,,,5,,13458,96.7,7.2,5
2018,11,15,11:00,UTC,,1016.8,98,,,5,,7934,99.3,5.9,4.4
2018,11,15,12:00,UTC,,1016.8,98,,,5.4,,9990,95.2,5.7,3.8
2018,11,15,13:00,UTC,,1017.3,99,,,5.6,,3271,98.8,5.9,3.6
2018,11,15,14:00,UTC,,1017.6,99,,,5.8,,8237,95.2,4.8,3.5
2018,11,15,15:00,UTC,,1017.7,99,,,6.2,,12809,102.9,5.2,3.4
2018,11,15,16:00,UTC,,1017.2,97,,,6.7,,16583,111.1,7.6,4.7
2018,11,15,17:00,UTC,,1017.6,96,,,6.9,,36628,116.3,9.3,6.5
2018,11,15,18:00,UTC,,1018.3,94,,,6.7,,50000,118.8,7.7,4.8
2018,11,15,19:00,UTC,,1018.8,94,,,6.3,,50000,116.3,6.4,3.9
2018,11,15,20:00,UTC,,1018.7,94,,,6.1,,50000,111.6,5.8,4
2018,11,15,21:00,UTC,,1019.2,95,,,6.1,,50000,110.6,6.1,4.2
2018,11,15,22:00,UTC,,1020.2,94,,,6.6,,50000,123,5.3,4
2018,11,15,23:00,UTC,,1020.7,94,,,7,,50000,120.9,7.2,5.2
2018,11,16,00:00,UTC,,1021.1,95,,,6.6,,50000,108,6.1,3.7
2018,11,16,01:00,UTC,,1021.3,95,,,7.1,,50000,104.9,4.9,3.1
2018,11,16,02:00,UTC,,1021.5,93,,,7.6,,50000,114.2,5.2,3.6
2018,11,16,03:00,UTC,,1021.6,92,,,7.9,,50000,104.9,5,3.3
2018,11,16,04:00,UTC,,1021.3,94,,,8,,50000,98.8,5.4,3.3
2018,11,16,05:00,UTC,,1021.8,95,,,8.4,,50000,101.9,4.2,2.8
2018,11,16,06:00,UTC,,1021.8,93,,,8.7,,50000,102.4,5.5,3.4
2018,11,16,07:00,UTC,,1021.8,93,,,8.8,,50000,104.9,5.8,3.8
2018,11,16,08:00,UTC,,1022.3,91,,,9,,50000,109.1,5.5,3
2018,11,16,09:00,UTC,,1022,89,,,9.1,,50000,104.4,5.2,3.7
2018,11,16,10:00,UTC,,1021.5,88,,,9.4,,50000,111.1,7.2,5
2018,11,16,11:00,UTC,,1020.9,90,,,9.3,,50000,99.3,5.9,4.3
2018,11,16,12:00,UTC,,1020.7,78,,,9.6,,50000,112.1,8.5,5.5
2018,11,16,13:00,UTC,,1021.1,83,,,8.5,,50000,117.3,9.6,6.5
2018,11,16,14:00,UTC,,1020.9,86,,,7.8,,49637,117.3,9.9,6.6
2018,11,16,15:00,UTC,,1021.2,88,,,7.2,,50000,121.9,10.5,7.5
2018,11,16,16:00,UTC,,1020.7,93,,,6.5,,42624,120.9,9.3,5.9
2018,11,16,17:00,UTC,,1020.7,91,,,6.5,,50000,119.9,9.6,7.1
2018,11,16,18:00,UTC,,1021,89,,,6.6,,50000,122.4,7.6,4.8
2018,11,16,19:00,UTC,,1020.9,89,,,6.6,,50000,122.4,7.5,5.2
2018,11,16,20:00,UTC,,1021.3,88,,,7,,48866,120.4,8.4,5.6
2018,11,16,21:00,UTC,,1021.3,84,,,7.3,,50000,123.5,8.2,5.8
2018,11,16,22:00,UTC,,1021.1,81,,,7.2,,50000,125.5,8,5.8
2018,11,16,23:00,UTC,,1021.1,78,,,7.4,,50000,130.2,10.6,6.4
2018,11,17,00:00,UTC,,1021.2,82,,,6.9,,50000,126,9.2,6.2
2018,11,17,01:00,UTC,,1020.6,84,,,6.8,,50000,132.2,11.2,8.2
2018,11,17,02:00,UTC,,1020.7,77,,,7.3,,50000,134.3,13.1,9.2
2018,11,17,03:00,UTC,,1020.7,82,,,6.6,,50000,137.4,13.7,9.3
2018,11,17,04:00,UTC,,1020.4,82,,,6.6,,48111,134.8,13.9,9.8
2018,11,17,05:00,UTC,,1020.5,81,,,6.5,,50000,137.9,12.1,8.6
2018,11,17,06:00,UTC,,1020.8,76,,,6.8,,50000,143.5,11.7,8.2
2018,11,17,07:00,UTC,,1021.3,76,,,6.7,,50000,145.6,11.2,8.9
2018,11,17,08:00,UTC,,1022.1,78,,,6.4,,50000,144.6,10.1,7.6
2018,11,17,09:00,UTC,,1022.4,77,,,6.6,,50000,142,9.2,7.2
2018,11,17,10:00,UTC,,1023,72,,,7.2,,50000,145.6,11.9,8.8
2018,11,17,11:00,UTC,,1023.4,72,,,7.3,,50000,148.2,12.8,9.3
2018,11,17,12:00,UTC,,1023.6,68,,,7.7,,50000,152.8,13.6,8.8
2018,11,17,13:00,UTC,,1023.8,67,,,7.5,,50000,154.8,14.7,10.6
2018,11,17,14:00,UTC,,1025.1,70,,,7.1,,50000,158.4,13.3,9.4
2018,11,17,15:00,UTC,,1025.4,71,,,7,,50000,162.6,13,9.6
2018,11,17,16:00,UTC,,1025.9,70,,,6.7,,50000,164.6,13.5,8.7
2018,11,17,17:00,UTC,,1026.3,67,,,6.4,,50000,167.7,15.4,8.6
2018,11,17,18:00,UTC,,1027.4,70,,,5.9,,50000,169.8,12.2,8
2018,11,17,19:00,UTC,,1028.6,74,,,5.3,,50000,172.3,12.7,7.1
2018,11,17,20:00,UTC,,1030.1,78,,,5.2,,50000,170.3,9.3,6.4
2018,11,17,21:00,UTC,,1031.5,81,,,5.3,,50000,171.3,10.2,6.3
2018,11,17,22:00,UTC,,1032.9,84,,,4.9,,50000,175.9,7.1,4.7
2018,11,17,23:00,UTC,,1034.6,81,,,4.8,,50000,184.2,8.3,5.3
2018,11,18,00:00,UTC,,1035.9,76,,,4.5,,50000,2.1,9.1,5.9
2018,11,18,01:00,UTC,,1037.3,73,,,4,,50000,7.7,9.8,7.1
2018,11,18,02:00,UTC,,1038,73,,,3.3,,50000,13.9,10.6,6.4
2018,11,18,03:00,UTC,,1038.3,70,,,2.8,,50000,18.5,11,6.6
2018,11,18,04:00,UTC,,1038.9,67,,,2.2,,50000,20.1,6.9,4.7
2018,11,18,05:00,UTC,,1039.7,69,,,1.5,,50000,183.7,4.1,2.9
2018,11,18,06:00,UTC,,1039.9,75,,,0.9,,46624,2.6,5.3,3.6
2018,11,18,07:00,UTC,,1040.6,74,,,0.7,,50000,183.1,6,4.1
2018,11,18,08:00,UTC,,1041.5,75,,,0.7,,48017,183.7,6.1,3.8
2018,11,18,09:00,UTC,,1041.9,71,,,0.5,,42750,8.2,7.1,4.7
2018,11,18,10:00,UTC,,1042.1,73,,,0.3,,50000,8.7,6.9,4.3
2018,11,18,11:00,UTC,,1042.1,74,,,0.1,,49463,17.5,4.2,2.7
2018,11,18,12:00,UTC,,1041.9,73,,,0.1,,50000,22.1,4.6,3.1
2018,11,18,13:00,UTC,,1041.9,76,,,-0.2,,50000,6.2,3.7,2.2
2018,11,18,14:00,UTC,,1041.5,77,,,-0.3,,50000,12.9,2.5,1.7
2018,11,18,15:00,UTC,,1041.8,84,,,-1.5,,50000,7.7,2.7,1.5
2018,11,18,16:00,UTC,,1041.7,86,,,-1.7,,50000,19.5,2.4,1.6
2018,11,18,17:00,UTC,,1041.7,85,,,-1.9,,50000,17.5,2.4,1.6
2018,11,18,18:00,UTC,,1041.7,87,,,-2.6,,44155,20.1,1.8,1
2018,11,18,19:00,UTC,,1041.3,85,,,-3,,50000,47.8,1.5,0.9
2018,11,18,20:00,UTC,,1041.3,90,,,-3.4,,47683,28.8,1.1,0.8
2018,11,18,21:00,UTC,,1041,91,,,-5.5,,50000,81.3,1,0.7
2018,11,18,22:00,UTC,,1040.8,94,,,-5.7,,43656,65.3,2,1.7
2018,11,18,23:00,UTC,,1040.7,94,,,-6.6,,45009,83.9,0.8,0.6
2018,11,19,00:00,UTC,,1040.4,94,,,-5.9,,50000,82.8,1,0.8
2018,11,19,01:00,UTC,,1040.3,95,,,-6.2,,45550,85.4,0.6,0.4
2018,11,19,02:00,UTC,,1039.8,96,,,-6.4,,41993,78.7,1.8,1.2
2018,11,19,03:00,UTC,,1039.5,95,,,-7.1,,46059,81.8,1.8,1.2
2018,11,19,04:00,UTC,,1039.3,95,,,-6.4,,50000,81.3,1.6,1.2
2018,11,19,05:00,UTC,,1038.6,95,,,-5.6,,50000,91.6,2.5,2
2018,11,19,06:00,UTC,,1038.6,92,,,-6.9,,50000,81.3,3.6,1.9
2018,11,19,07:00,UTC,,1038.4,92,,,-6,,47233,90,3.9,1.8
2018,11,19,08:00,UTC,,1038.1,93,,,-4.6,,42792,91.1,3,2.5
2018,11,19,09:00,UTC,,1037.7,87,,,-2.6,,48377,101.3,5.2,3.9
2018,11,19,10:00,UTC,,1037.3,89,,,-2,,46451,99.3,4.9,3.6
2018,11,19,11:00,UTC,,1036.5,86,,,-1.9,,47363,97.7,6.1,4
2018,11,19,12:00,UTC,,1036,86,,,-1.7,,50000,96.2,6,4.2
2018,11,19,13:00,UTC,,1035.3,88,,,-2.2,,50000,92.6,4.9,3.6
2018,11,19,14:00,UTC,,1034.6,91,,,-1.7,,50000,100.3,4.7,3.4
2018,11,19,15:00,UTC,,1033.9,94,,,-0.9,,46494,100.8,4.4,3.1
2018,11,19,16:00,UTC,,1032.4,94,,,0.2,,50000,107.5,5.6,3.8
2018,11,19,17:00,UTC,,1031.8,94,,,0.4,,50000,104.9,7,4.5
2018,11,19,18:00,UTC,,1030.7,94,,,0,,50000,107,5.7,3.5
2018,11,19,19:00,UTC,,1029.6,96,,,-0.6,,40527,100.3,4.8,3.3
2018,11,19,20:00,UTC,,1028.4,95,,,0.2,,44125,103.9,6.6,4.6
2018,11,19,21:00,UTC,,1027.3,94,,,0.4,,50000,103.9,6.6,4.8
2018,11,19,22:00,UTC,,1026,93,,,0.9,,50000,109.6,6.2,4.3
2018,11,19,23:00,UTC,,1024.9,92,,,1.8,,50000,112.7,8.2,5.9
2018,11,20,00:00,UTC,,1024.2,90,,,2.5,,50000,119.9,7,4.3
2018,11,20,01:00,UTC,,1023.9,88,,,3.1,,50000,127.1,8.9,6.6
2018,11,20,02:00,UTC,,1023.4,84,,,3,,50000,134.8,8.9,6.4
2018,11,20,03:00,UTC,,1023.3,90,,,2.4,,50000,135.3,6.2,4.3
2018,11,20,04:00,UTC,,1023.4,85,,,1.8,,50000,140.4,5.2,4.2
2018,11,20,05:00,UTC,,1024,89,,,0.8,,50000,145.1,4.4,3.8
2018,11,20,06:00,UTC,,1024.6,92,,,0.4,,50000,150.2,5,4.3
2018,11,20,07:00,UTC,,1025,92,,,0.7,,50000,157.4,4.8,3.9
2018,11,20,08:00,UTC,,1025.9,93,,,0.8,,50000,152.3,4.8,4
2018,11,20,09:00,UTC,,1026.7,77,,,3.9,,50000,171.8,8.3,5.3
2018,11,20,10:00,UTC,,1027.1,76,,,3.7,,50000,173.4,7.2,4.8
2018,11,20,11:00,UTC,,1027.6,82,,,3.3,,48354,172.3,6.6,4.1
2018,11,20,12:00,UTC,,1028.2,79,,,3,,49975,173.4,6.8,4.1
2018,11,20,13:00,UTC,,1028.6,79,,,2.5,,50000,175.9,7,4.6
2018,11,20,14:00,UTC,,1029.2,78,,,2.1,,50000,176.5,8.5,5.2
2018,11,20,15:00,UTC,,1030.2,75,,,1.7,,50000,179,7.6,5
2018,11,20,16:00,UTC,,1030.6,74,,,1.6,,50000,179,6.9,4.5
2018,11,20,17:00,UTC,,1031.3,77,,,1,,50000,175.4,4.7,2.9
2018,11,20,18:00,UTC,,1031.6,77,,,0.7,,50000,172.3,4.4,2.9
2018,11,20,19:00,UTC,,1031.7,76,,,0.2,,50000,172.9,3.9,2.4
2018,11,20,20:00,UTC,,1032.6,76,,,0.2,,50000,175.4,4.2,2.6
2018,11,20,21:00,UTC,,1032.9,76,,,-0.1,,50000,168.7,3.4,2.4
2018,11,20,22:00,UTC,,1033.1,80,,,0.4,,50000,161,4.1,2.8
2018,11,20,23:00,UTC,,1032.6,84,,,0.6,,50000,148.2,4.3,3.1
2018,11,21,00:00,UTC,,1033,85,,,0.9,,50000,151.8,3.7,2.8
2018,11,21,01:00,UTC,,1032.8,85,,,1.4,,50000,148.7,5.8,4.2
2018,11,21,02:00,UTC,,1032.6,85,,,1.7,,50000,160.5,5.4,3.8
2018,11,21,03:00,UTC,,1032,87,,,0.8,,50000,157.4,4,2.9
2018,11,21,04:00,UTC,,1031.4,89,,,-0.3,,50000,160,4.1,3.4
2018,11,21,05:00,UTC,,1030.8,90,,,-1,,50000,147.1,2.6,2.3
2018,11,21,06:00,UTC,,1030,96,,,-2.1,,50000,136.3,2.9,2.4
2018,11,21,07:00,UTC,,1029.4,98,,,-1.1,,50000,154.3,1.9,1.6
2018,11,21,08:00,UTC,,1028.7,88,,,0.3,,50000,134.3,3.7,2.8
2018,11,21,09:00,UTC,,1028,89,,,0,,50000,117.3,2.8,2.2
2018,11,21,10:00,UTC,,1026.8,93,,,-0.1,,50000,130.2,3.9,2.9
2018,11,21,11:00,UTC,,1025.7,89,,,1.2,,50000,129.1,6.5,4
2018,11,21,12:00,UTC,,1024.5,92,,,2.4,,50000,133.8,8.4,6.1
2018,11,21,13:00,UTC,,1023.8,91,,,2.5,,50000,140.4,10.4,7.4
2018,11,21,14:00,UTC,,1023.5,92,,,2,,50000,142,6.1,4.6
2018,11,21,15:00,UTC,,1022.6,94,,,0.9,,50000,141.5,5.6,4.5
2018,11,21,16:00,UTC,,1022.1,90,,,0.9,,50000,141.5,5.1,3.8
2018,11,21,17:00,UTC,,1021.5,87,,,1.1,,50000,141,5.7,4.3
2018,11,21,18:00,UTC,,1020.8,84,,,1.1,,50000,137.4,6.5,5.1
2018,11,21,19:00,UTC,,1020.5,87,,,0.7,,50000,140.4,6.1,4.5
2018,11,21,20:00,UTC,,1020.2,91,,,-0.3,,50000,142,3.8,2.9
2018,11,21,21:00,UTC,,1019.9,93,,,-0.1,,50000,142.5,4.6,3.7
2018,11,21,22:00,UTC,,1019.3,95,,,-0.4,,50000,145.1,4.3,3.5
2018,11,21,23:00,UTC,,1019.3,85,,,-0.1,,50000,148.2,5.7,4.9
2018,11,22,00:00,UTC,,1019.1,73,,,1.5,,50000,167.7,3.7,2.6
2018,11,22,01:00,UTC,,1018.9,79,,,0.2,,50000,146.1,3.2,2.7
2018,11,22,02:00,UTC,,1018.8,85,,,0.2,,50000,150.2,2.9,2.2
2018,11,22,03:00,UTC,,1018.8,90,,,-0.9,,50000,157.4,4.9,3.8
2018,11,22,04:00,UTC,,1018.9,87,,,0.1,,50000,161.5,4,3.4
2018,11,22,05:00,UTC,,1018.9,89,,,0.1,,50000,169.3,3.2,2
2018,11,22,06:00,UTC,,1018.8,86,,,0.9,,50000,173.4,3.2,2.2
2018,11,22,07:00,UTC,,1019.1,84,,,1.1,,50000,172.3,3.7,2.5
2018,11,22,08:00,UTC,,1019.3,82,,,1.3,,50000,176.5,5.7,3.8
2018,11,22,09:00,UTC,,1019.6,79,,,1.6,,50000,181.1,5.7,3.1
2018,11,22,10:00,UTC,,1020.4,79,,,1.4,,50000,181.6,5.1,3
2018,11,22,11:00,UTC,,1020.6,81,,,0.9,,49899,179.5,3.4,1.9
2018,11,22,12:00,UTC,,1020.8,80,,,0.8,,50000,183.1,4,2.5
2018,11,22,13:00,UTC,,1021,88,,,-0.6,,50000,13.9,1.6,0.8
2018,11,22,14:00,UTC,,1021.3,95,,,-3.4,,8642,130.2,3.1,1.7
2018,11,22,15:00,UTC,,1021.5,97,,,-4.3,,50000,128.1,2,1.2
2018,11,22,16:00,UTC,,1021.6,97,,,-4.4,,50000,139.4,1.4,0.8
2018,11,22,17:00,UTC,,1021.6,97,,,-5.2,,50000,116.8,1.6,0.8
2018,11,22,18:00,UTC,,1021.6,98,,,-5,,50000,100.8,1.4,0.8
2018,11,22,19:00,UTC,,1021.5,98,,,-6.1,,50000,73.1,1.6,1.1
2018,11,22,20:00,UTC,,1021.2,97,,,-5.9,,35797,70.5,2.6,2.3
2018,11,22,21:00,UTC,,1020.6,96,,,-6.2,,15941,71,2.7,2.3
2018,11,22,22:00,UTC,,1019.9,95,,,-6.5,,50000,66.4,2.5,2.1
2018,11,22,23:00,UTC,,1019.2,98,,,-5.3,,50000,89.5,3.3,1.5
2018,11,23,00:00,UTC,,1018.3,97,,,-5.6,,50000,86.4,2.1,1.7
2018,11,23,01:00,UTC,,1017,99,,,-3.2,,5134,100.3,3.2,2.6
2018,11,23,02:00,UTC,,1016.1,98,,,-3.7,,10562,81.8,2.5,1.8
2018,11,23,03:00,UTC,,1014.8,99,,,-2.4,,4746,95.2,4,2.7
2018,11,23,04:00,UTC,,1013.7,99,,,-2.3,,9030,97.2,5.4,4
2018,11,23,05:00,UTC,,1012.4,99,,,-1.2,,15393,101.9,5.3,3.5
2018,11,23,06:00,UTC,,1011.4,99,,,-0.5,,26507,109.6,5.5,3.8
2018,11,23,07:00,UTC,,1010.6,99,,,-1,,34893,114.2,4.4,3.2
2018,11,23,08:00,UTC,,1009.8,98,,,-1,,50000,116.8,4.1,2.9
2018,11,23,09:00,UTC,,1009.4,95,,,-0.5,,50000,118.3,6.1,4
2018,11,23,10:00,UTC,,1008.8,94,,,-0.7,,50000,119.4,4.3,3.1
2018,11,23,11:00,UTC,,1007.8,94,,,-0.7,,50000,112.1,3.6,2.4
2018,11,23,12:00,UTC,,1007.2,92,,,0.2,,50000,125,5.1,3.3
2018,11,23,13:00,UTC,,1006.3,85,,,1.3,,50000,138.9,8,6.2
2018,11,23,14:00,UTC,,1005.9,84,,,1.7,,50000,149.2,8.1,5.8
2018,11,23,15:00,UTC,,1005.7,80,,,2.1,,50000,156.9,8.6,6.1
2018,11,23,16:00,UTC,,1005.6,73,,,2.6,,50000,163.1,9.6,6.5
2018,11,23,17:00,UTC,,1005.6,76,,,2.3,,50000,150.2,9,6.8
2018,11,23,18:00,UTC,,1005.7,68,,,2.9,,50000,156.4,10.8,8.7
2018,11,23,19:00,UTC,,1005.5,69,,,2.5,,50000,152.8,12.5,9
2018,11,23,20:00,UTC,,1005.3,71,,,2.4,,49304,148.7,11.1,8.3
2018,11,23,21:00,UTC,,1005.3,69,,,2.4,,50000,150.2,10.7,8
2018,11,23,22:00,UTC,,1005,64,,,2.7,,50000,152.8,12.7,8.5
2018,11,23,23:00,UTC,,1004.6,64,,,2.6,,50000,153.3,13.1,9.2
2018,11,24,00:00,UTC,,1004,65,,,2.4,,50000,152.3,13.5,9.1
2018,11,24,01:00,UTC,,1003.6,64,,,2.4,,50000,151.2,12,8.5
2018,11,24,02:00,UTC,,1003,64,,,2.5,,50000,152.3,11.2,8.5
2018,11,24,03:00,UTC,,1002.6,65,,,2.4,,50000,148.2,13.3,8.7
2018,11,24,04:00,UTC,,1002.3,65,,,2.8,,50000,156.9,12.3,8.5
2018,11,24,05:00,UTC,,1002.7,63,,,3.2,,50000,163.1,18.7,10.2
2018,11,24,06:00,UTC,,1004,72,,,1.5,,50000,172.3,10.1,6.4
2018,11,24,07:00,UTC,,1005.6,72,,,1.1,,48803,174.4,9.7,6.2
2018,11,24,08:00,UTC,,1007,72,,,0.4,,50000,178.5,6.8,4
2018,11,24,09:00,UTC,,1008.2,71,,,0.4,,47266,175.4,6.4,4
2018,11,24,10:00,UTC,,1008.8,69,,,0.3,,50000,174.9,5.5,3.5
2018,11,24,11:00,UTC,,1009.4,70,,,0.6,,48142,167.7,5.9,3.8
2018,11,24,12:00,UTC,,1009.3,81,,,1.4,,50000,164.1,6,3.9
2018,11,24,13:00,UTC,,1009.3,84,,,2.2,,50000,167.7,7.2,4.4
2018,11,24,14:00,UTC,,1009.6,82,,,1.2,,50000,172.3,5.5,3.6
2018,11,24,15:00,UTC,,1009.9,83,,,0.7,,50000,168.7,5.2,3.3
2018,11,24,16:00,UTC,,1010,87,,,-1.1,,50000,161,3.9,2.5
2018,11,24,17:00,UTC,,1009.8,92,,,-1.8,,50000,155.4,3.4,3
2018,11,24,18:00,UTC,,1009.7,87,,,0.2,,50000,154.3,3.1,2.5
2018,11,24,19:00,UTC,,1009.8,84,,,0.2,,50000,160,4.6,3.8
2018,11,24,20:00,UTC,,1009.7,78,,,-0.2,,50000,154.3,4.9,3
2018,11,24,21:00,UTC,,1009.5,72,,,1.3,,50000,163.6,6.1,4.1
2018,11,24,22:00,UTC,,1009,78,,,-0.1,,50000,154.8,5.3,3.9
2018,11,24,23:00,UTC,,1009,68,,,0.9,,50000,163.6,8.6,5.9
2018,11,25,00:00,UTC,,1008.8,68,,,0.9,,50000,168.2,9.3,5.7
2018,11,25,01:00,UTC,,1008.8,69,,,0.5,,50000,167.7,7.9,5.5
2018,11,25,02:00,UTC,,1008.8,75,,,0.1,,50000,167.2,7,4.5
2018,11,25,03:00,UTC,,1008.9,73,,,-0.1,,50000,169.3,6.5,4.3
2018,11,25,04:00,UTC,,1008.7,74,,,-0.4,,50000,166.2,7.1,4.8
2018,11,25,05:00,UTC,,1008.6,71,,,-0.3,,50000,166.2,8.2,5.6
2018,11,25,06:00,UTC,,1008.5,70,,,-0.5,,50000,167.7,7.9,5.2
2018,11,25,07:00,UTC,,1009,73,,,-0.9,,50000,169.3,6,4.2
2018,11,25,08:00,UTC,,1009.4,72,,,-1.1,,50000,168.7,7.8,4.1
2018,11,25,09:00,UTC,,1009.5,73,,,-1.1,,49070,163.6,4.8,3.6
2018,11,25,10:00,UTC,,1009.5,73,,,-0.1,,50000,164.6,6.1,4
2018,11,25,11:00,UTC,,1009.5,76,,,-0.7,,50000,166.7,4.8,2.9
2018,11,25,12:00,UTC,,1009.4,81,,,-1.2,,50000,151.2,3,2.5
2018,11,25,13:00,UTC,,1009,85,,,-2.1,,50000,181.6,3.1,1.5
2018,11,25,14:00,UTC,,1008.8,83,,,-3.8,,50000,138.4,2.6,2.3
2018,11,25,15:00,UTC,,1008.3,90,,,-5,,50000,134.8,2.5,2.1
2018,11,25,16:00,UTC,,1007.8,91,,,-6.4,,50000,138.9,2.5,2.2
2018,11,25,17:00,UTC,,1007.2,94,,,-6.1,,50000,139.4,3.3,2.7
2018,11,25,18:00,UTC,,1006.8,88,,,-3.5,,50000,153.3,1,0.9
2018,11,25,19:00,UTC,,1006.6,91,,,-5.5,,50000,167.7,2.7,1.8
2018,11,25,20:00,UTC,,1006.4,96,,,-5.9,,50000,46.8,1.3,0.8
2018,11,25,21:00,UTC,,1006.4,96,,,-7.3,,23018,67.4,1.7,1.2
2018,11,25,22:00,UTC,,1006,95,,,-8.6,,47505,100.3,2.1,1.8
2018,11,25,23:00,UTC,,1005.7,93,,,-9.2,,47573,61.7,2.6,2
2018,11,26,00:00,UTC,,1005.4,92,,,-9.6,,49152,84.4,1.4,0.8
2018,11,26,01:00,UTC,,1005.1,94,,,-8.9,,50000,70,1.1,0.6
2018,11,26,02:00,UTC,,1004.7,92,,,-9.9,,50000,75.6,1.8,1.1
2018,11,26,03:00,UTC,,1004.3,92,,,-10.6,,50000,94.7,1.1,0.9
2018,11,26,04:00,UTC,,1003.8,91,,,-10.5,,50000,95.2,1.3,1
2018,11,26,05:00,UTC,,1003.4,94,,,-9.2,,50000,101.3,2.4,1.2
2018,11,26,06:00,UTC,,1003.4,92,,,-8.6,,50000,61.7,1.8,1.4
2018,11,26,07:00,UTC,,1003.7,92,,,-8.4,,50000,67.4,0.6,0.5
2018,11,26,08:00,UTC,,1004.1,93,,,-8.6,,50000,169.8,2.2,1.4
2018,11,26,09:00,UTC,,1004.4,95,,,-5.9,,50000,173.4,2.6,2
2018,11,26,10:00,UTC,,1004.2,89,,,-4,,50000,162.6,4.3,3.1
2018,11,26,11:00,UTC,,1004,81,,,-2.1,,50000,165.7,8.4,5.2
2018,11,26,12:00,UTC,,1004.6,94,,,-2.9,,3158,171.3,7.3,4.3
2018,11,26,13:00,UTC,,1004.9,86,,,-2.4,,50000,169.8,6.8,4.6
2018,11,26,14:00,UTC,,1005.3,82,,,-2.4,,50000,172.3,8.4,4.8
2018,11,26,15:00,UTC,,1005.9,79,,,-2.5,,50000,171.8,9.3,5.9
2018,11,26,16:00,UTC,,1006.6,77,,,-2.3,,50000,172.3,9.5,6
2018,11,26,17:00,UTC,,1007.1,76,,,-2.2,,50000,171.3,9.3,5.8
2018,11,26,18:00,UTC,,1007.1,73,,,-2.5,,50000,170.8,9.6,5.8
2018,11,26,19:00,UTC,,1007.3,73,,,-3,,50000,176.5,8.3,4.6
2018,11,26,20:00,UTC,,1007.6,68,,,-2.1,,50000,168.7,10.2,5.9
2018,11,26,21:00,UTC,,1007.8,69,,,-2.3,,50000,168.2,9.6,6.3
2018,11,26,22:00,UTC,,1007.9,70,,,-2.6,,50000,173.4,10.6,6.5
2018,11,26,23:00,UTC,,1008.3,74,,,-2.9,,50000,177,8.9,5.5
2018,11,27,00:00,UTC,,1008.7,75,,,-3.4,,50000,181.1,10.8,5.6
2018,11,27,01:00,UTC,,1009.4,80,,,-4.1,,50000,182.6,6.7,4.1
2018,11,27,02:00,UTC,,1010,82,,,-4.4,,50000,0.5,6,3.5
2018,11,27,03:00,UTC,,1010.8,80,,,-4.3,,50000,180.1,5.6,3.6
2018,11,27,04:00,UTC,,1011.6,80,,,-3.9,,50000,181.6,6,3.7
2018,11,27,05:00,UTC,,1012.6,80,,,-4.1,,50000,183.7,6.1,3.1
2018,11,27,06:00,UTC,,1013.6,82,,,-4.5,,50000,13.4,5.2,3.4
2018,11,27,07:00,UTC,,1014.5,83,,,-4.6,,50000,17.5,5.4,3.7
2018,11,27,08:00,UTC,,1015.6,84,,,-4.7,,50000,34,4.6,3.1
2018,11,27,09:00,UTC,,1016.6,85,,,-4.6,,50000,29.3,2.5,1.6
2018,11,27,10:00,UTC,,1017.5,85,,,-4.5,,50000,17,2.8,1.5
2018,11,27,11:00,UTC,,1018.1,82,,,-4.7,,50000,38.6,4.7,2.9
2018,11,27,12:00,UTC,,1019.1,78,,,-4.6,,50000,1.5,2.9,1.7
2018,11,27,13:00,UTC,,1019.9,88,,,-6.6,,50000,65.8,4,3.4
2018,11,27,14:00,UTC,,1020.5,88,,,-6.9,,50000,56.6,2.1,1.6
2018,11,27,15:00,UTC,,1020.6,90,,,-7.7,,50000,72,2.1,1.6
2018,11,27,16:00,UTC,,1021.1,90,,,-7.9,,50000,78.7,2.8,1.8
2018,11,27,17:00,UTC,,1021.3,90,,,-7.5,,50000,75.1,2.8,1.8
2018,11,27,18:00,UTC,,1021.2,90,,,-6.9,,50000,84.4,3,1.9
2018,11,27,19:00,UTC,,1021.6,87,,,-5.3,,50000,115.2,3.6,2.7
2018,11,27,20:00,UTC,,1021.6,87,,,-5,,50000,98.8,3.8,2.6
2018,11,27,21:00,UTC,,1021.6,89,,,-5.4,,50000,93.1,4.2,3.1
2018,11,27,22:00,UTC,,1021.3,90,,,-5.8,,50000,94.1,4.6,3.5
2018,11,27,23:00,UTC,,1021.4,90,,,-5.8,,50000,96.7,4.5,3
2018,11,28,00:00,UTC,,1021.4,90,,,-5.5,,50000,104.4,4.6,3.3
2018,11,28,01:00,UTC,,1020.9,91,,,-5.4,,50000,101.9,4.3,3.3
2018,11,28,02:00,UTC,,1020.6,91,,,-5.6,,50000,100.3,6.6,4.5
2018,11,28,03:00,UTC,,1020.4,92,,,-6.3,,50000,92.6,6.1,4.3
2018,11,28,04:00,UTC,,1020.3,92,,,-6.2,,50000,101.3,7.1,5
2018,11,28,05:00,UTC,,1020,93,,,-5.9,,50000,100.3,6.5,4.5
2018,11,28,06:00,UTC,,1019.8,92,,,-5.8,,50000,102.9,7.1,5.2
2018,11,28,07:00,UTC,,1019.8,92,,,-6,,50000,102.9,6.8,5.1
2018,11,28,08:00,UTC,,1019.8,91,,,-5.1,,50000,105.5,6.2,4.6
2018,11,28,09:00,UTC,,1019.9,89,,,-4.4,,50000,105.5,7.3,4.8
2018,11,28,10:00,UTC,,1020,88,,,-3.4,,50000,105.5,6.5,4.5
2018,11,28,11:00,UTC,,1019.8,88,,,-3,,50000,104.9,7.2,4.6
2018,11,28,12:00,UTC,,1019.5,89,,,-3.4,,50000,101.3,6.2,4.1
2018,11,28,13:00,UTC,,1018.8,90,,,-4.2,,49526,90.5,7.4,4.9
2018,11,28,14:00,UTC,,1018.4,88,,,-3.6,,50000,92.6,7.6,5.4
2018,11,28,15:00,UTC,,1018,89,,,-3.3,,50000,84.9,6.5,4.7
2018,11,28,16:00,UTC,,1017.7,89,,,-2.2,,50000,88,6.5,4.4
2018,11,28,17:00,UTC,,1017.2,88,,,-1.1,,50000,94.7,6.6,4.5
2018,11,28,18:00,UTC,,1016.8,88,,,-1,,50000,105.5,7.3,5.1
2018,11,28,19:00,UTC,,1016.7,87,,,-0.7,,50000,106,6.9,4.3
2018,11,28,20:00,UTC,,1016.4,88,,,-0.8,,50000,99.3,5.1,3.5
2018,11,28,21:00,UTC,,1016.5,88,,,-0.7,,50000,105.5,6.1,4
2018,11,28,22:00,UTC,,1015.9,87,,,-0.7,,50000,103.9,5.7,4
2018,11,28,23:00,UTC,,1015.8,84,,,-0.6,,50000,102.4,6.2,3.9
2018,11,29,00:00,UTC,,1015.4,83,,,-0.3,,50000,104.9,7.1,4.4
2018,11,29,01:00,UTC,,1015.1,81,,,0,,50000,106,7.5,5
2018,11,29,02:00,UTC,,1015,80,,,-0.1,,50000,101.9,7.3,5
2018,11,29,03:00,UTC,,1015,70,,,1.5,,50000,123.5,15.7,9.6
2018,11,29,04:00,UTC,,1014.8,68,,,2.2,,50000,123,13.3,8.5
2018,11,29,05:00,UTC,,1014.3,70,,,2.4,,50000,117.3,8.6,5.8
2018,11,29,06:00,UTC,,1014.4,84,,,0.2,,15007,99.3,7.3,5.2
2018,11,29,07:00,UTC,,1014,78,,,0.2,,50000,96.7,7.4,5.3
2018,11,29,08:00,UTC,,1013.1,81,,,-0.4,,50000,90.5,7.4,5.1
2018,11,29,09:00,UTC,,1012,81,,,0.1,,50000,94.1,9.2,6
2018,11,29,10:00,UTC,,1011,82,,,0.5,,50000,96.2,10.2,6.8
2018,11,29,11:00,UTC,,1009.8,78,,,1.7,,50000,101.3,12,7.6
2018,11,29,12:00,UTC,,1009.1,75,,,2.3,,50000,101.3,12.5,8.3
2018,11,29,13:00,UTC,,1008.4,74,,,2.4,,50000,102.4,13.4,8.4
2018,11,29,14:00,UTC,,1007.2,74,,,2.4,,50000,99.3,10.8,7.3
2018,11,29,15:00,UTC,,1006.8,75,,,2.5,,50000,102.4,11.5,7.8
2018,11,29,16:00,UTC,,1006.4,75,,,2.6,,50000,104.4,11,7.4
2018,11,29,17:00,UTC,,1005.8,79,,,2.4,,42110,103.9,13.9,7.8
2018,11,29,18:00,UTC,,1005.6,88,,,1.7,,26440,105.5,12.2,8
2018,11,29,19:00,UTC,,1005.9,92,,,1.6,,27771,109.6,10,6.5
2018,11,29,20:00,UTC,,1005.4,88,,,2.3,,49204,109.6,10.3,7.2
2018,11,29,21:00,UTC,,1005.4,91,,,2.1,,45368,107.5,10.1,6.8
2018,11,29,22:00,UTC,,1005.6,86,,,2.7,,50000,108.5,11.1,6.9
2018,11,29,23:00,UTC,,1005.3,83,,,2.8,,50000,107,9.4,6.2
2018,11,30,00:00,UTC,,1005.5,85,,,2.6,,50000,104.9,10.3,6.3
2018,11,30,01:00,UTC,,1005.1,84,,,2.8,,50000,104.4,9.3,6.2
2018,11,30,02:00,UTC,,1005,83,,,2.8,,50000,103.9,8.7,5.5
2018,11,30,03:00,UTC,,1004.6,85,,,2.8,,50000,101.3,8.1,5.6
2018,11,30,04:00,UTC,,1004.3,88,,,2.6,,30990,98.3,8.3,5.9
2018,11,30,05:00,UTC,,1004.1,91,,,2.4,,44565,97.2,7.3,5.1
2018,11,30,06:00,UTC,,1003.7,88,,,2.8,,50000,91.6,9,5.8
2018,11,30,07:00,UTC,,1003.3,90,,,2.7,,17252,87.5,9,6.3
2018,11,30,08:00,UTC,,1003.1,93,,,2.2,,32687,87.5,8.2,5.9
2018,11,30,09:00,UTC,,1003.3,93,,,2.3,,29930,91.1,9.1,6.1
2018,11,30,10:00,UTC,,1003.2,93,,,2.7,,27519,95.7,7.8,5.5
2018,11,30,11:00,UTC,,1003.4,95,,,3.1,,19169,99.8,9.3,5.5
2018,11,30,12:00,UTC,,1003.5,94,,,3.5,,20220,96.7,9.4,5.4
2018,11,30,13:00,UTC,,1003.8,92,,,3.8,,50000,100.3,9.2,5.5
2018,11,30,14:00,UTC,,1003.8,87,,,4.4,,50000,104.9,9.9,5.7
2018,11,30,15:00,UTC,,1004.3,85,,,4.7,,50000,105.5,9.1,6
2018,11,30,16:00,UTC,,1004.7,85,,,4.6,,50000,103.9,9.6,5.8
2018,11,30,17:00,UTC,,1004.9,85,,,4.6,,50000,104.9,9.5,6
2018,11,30,18:00,UTC,,1005,85,,,4.5,,50000,100.3,9,6.1
2018,11,30,19:00,UTC,,1005.4,85,,,4.5,,50000,100.8,8.4,6
2018,11,30,20:00,UTC,,1005.9,87,,,4.3,,50000,99.3,9.5,6
2018,11,30,21:00,UTC,,1006.3,87,,,4.3,,50000,97.7,7.4,5
2018,11,30,22:00,UTC,,1006.5,87,,,4.3,,50000,97.2,10.3,6.1
2018,11,30,23:00,UTC,,1006.8,86,,,4.3,,50000,96.7,9,6.2
2018,12,1,00:00,UTC,,1006.7,87,,,4.1,,50000,95.2,10.8,7
2018,12,1,01:00,UTC,,1007.5,86,,,4.1,,50000,100.8,11.5,6.4
2018,12,1,02:00,UTC,,1007.6,85,,,4.2,,50000,95.7,7.9,5.2
2018,12,1,03:00,UTC,,1007.4,81,,,4.3,,41259,95.2,9.2,6.4
2018,12,1,04:00,UTC,,1007.6,81,,,4.2,,50000,97.7,11.4,7.4
2018,12,1,05:00,UTC,,1007.8,84,,,3.4,,50000,89,9.6,5.3
2018,12,1,06:00,UTC,,1008,83,,,3.2,,50000,90,10.8,6.6
2018,12,1,07:00,UTC,,1008.5,81,,,3,,50000,91.6,9.6,6.1
2018,12,1,08:00,UTC,,1009,87,,,2,,48074,89.5,9.2,5.7
2018,12,1,09:00,UTC,,1008.9,86,,,1.7,,50000,89.5,9.7,6.5
2018,12,1,10:00,UTC,,1008.9,91,,,1.1,,21733,88.5,9.7,5.8
2018,12,1,11:00,UTC,,1008.8,90,,,1.1,,32551,88,9.6,6.3
2018,12,1,12:00,UTC,,1008.7,95,,,0.4,,9587,86.9,8.3,5.7
2018,12,1,13:00,UTC,,1008.9,95,,,0.2,,16813,85.9,9.6,6.5
2018,12,1,14:00,UTC,,1008.8,90,,,-0.4,,22607,85.4,10,6.9
2018,12,1,15:00,UTC,,1008.8,83,,,-0.7,,50000,84.9,10.4,6.5
2018,12,1,16:00,UTC,,1008.9,81,,,-1,,50000,85.9,11.5,7.1
2018,12,1,17:00,UTC,,1008.6,82,,,-1.3,,31515,81.3,9.8,6.7
2018,12,1,18:00,UTC,,1008.5,77,,,-1.5,,50000,80.8,11.5,8.1
2018,12,1,19:00,UTC,,1008.5,82,,,-2.1,,10715,83.9,10.7,7.1
2018,12,1,20:00,UTC,,1008.4,91,,,-2.9,,6745,81.8,10.5,7.8
2018,12,1,21:00,UTC,,1008.3,92,,,-3.2,,7771,79.7,10.5,7.3
2018,12,1,22:00,UTC,,1008.2,90,,,-3,,15176,80.8,10.2,6.8
2018,12,1,23:00,UTC,,1008.1,87,,,-3.1,,14751,81.3,9.2,6.6
2018,12,2,00:00,UTC,,1007.6,80,,,-2.8,,50000,83.3,10,6.7
2018,12,2,01:00,UTC,,1007.6,75,,,-2.6,,50000,79.2,8.9,6.7
2018,12,2,02:00,UTC,,1007.1,75,,,-2.5,,50000,83.3,9,5.8
2018,12,2,03:00,UTC,,1006.9,75,,,-2.5,,48736,75.6,7.9,6.3
2018,12,2,04:00,UTC,,1006.5,74,,,-2.6,,50000,76.7,9,7.1
2018,12,2,05:00,UTC,,1006,74,,,-2.4,,50000,76.1,9.3,6.4
2018,12,2,06:00,UTC,,1005.8,76,,,-2.3,,50000,79.7,9,6.5
2018,12,2,07:00,UTC,,1005.7,74,,,-2,,50000,83.9,7.6,5.9
2018,12,2,08:00,UTC,,1005.7,77,,,-1.7,,50000,82.8,6.6,4.9
2018,12,2,09:00,UTC,,1005.4,76,,,-1.5,,50000,79.7,6.7,5.1
2018,12,2,10:00,UTC,,1005.1,76,,,-1.3,,50000,78.7,6.7,5
2018,12,2,11:00,UTC,,1004.7,79,,,-1.4,,50000,77.7,8.3,6.2
2018,12,2,12:00,UTC,,1004.5,80,,,-1.4,,50000,76.7,8.1,6.4
2018,12,2,13:00,UTC,,1004.3,81,,,-1.4,,50000,76.7,8.1,6.3
2018,12,2,14:00,UTC,,1004.1,83,,,-1.6,,50000,75.6,8.1,5.6
2018,12,2,15:00,UTC,,1003.8,83,,,-1.7,,50000,76.1,8.3,6.1
2018,12,2,16:00,UTC,,1003.5,83,,,-1.7,,50000,77.7,7.5,5.8
2018,12,2,17:00,UTC,,1003.1,84,,,-1.9,,50000,77.2,8.2,6.1
2018,12,2,18:00,UTC,,1003,85,,,-2,,50000,76.7,7.6,5.8
2018,12,2,19:00,UTC,,1003,85,,,-2.1,,50000,73.6,7.8,6
2018,12,2,20:00,UTC,,1002.7,86,,,-2.2,,50000,77.2,7.9,5.4
2018,12,2,21:00,UTC,,1002.4,86,,,-2.3,,50000,72.5,8.2,6.3
2018,12,2,22:00,UTC,,1002.5,86,,,-2.3,,50000,76.1,6.5,4.9
2018,12,2,23:00,UTC,,1002.1,86,,,-2.1,,49401,77.2,7.4,5.2
2018,12,3,00:00,UTC,,1001.8,86,,,-2,,50000,76.7,7.6,5.7
2018,12,3,01:00,UTC,,1001.2,86,,,-1.7,,50000,75.6,7.8,5.8
2018,12,3,02:00,UTC,,1001.4,87,,,-1.6,,50000,82.8,6,4.2
2018,12,3,03:00,UTC,,1001.1,86,,,-1.5,,50000,73.6,7.8,6
2018,12,3,04:00,UTC,,1000.7,86,,,-1.4,,50000,75.1,8.7,6.5
2018,12,3,05:00,UTC,,1000.4,86,,,-1.6,,50000,76.1,9.1,6.2
2018,12,3,06:00,UTC,,1000.3,86,,,-1.6,,50000,79.2,8,5.9
2018,12,3,07:00,UTC,,1000.5,85,,,-1.6,,50000,78.7,7.3,5.1
2018,12,3,08:00,UTC,,1000.3,84,,,-1.7,,50000,76.1,8.1,5.8
2018,12,3,09:00,UTC,,1000.4,84,,,-1.7,,50000,74.6,8.6,6.4
2018,12,3,10:00,UTC,,1000.3,84,,,-1.8,,50000,73.1,9,7
2018,12,3,11:00,UTC,,999.9,84,,,-2,,50000,70,9,7.1
2018,12,3,12:00,UTC,,999.8,84,,,-2,,50000,72.5,8.3,6.6
2018,12,3,13:00,UTC,,999.9,87,,,-2.3,,50000,70.5,9,6.7
2018,12,3,14:00,UTC,,999.9,88,,,-2.4,,50000,71,8.8,7
2018,12,3,15:00,UTC,,999.5,87,,,-2.6,,50000,71.5,12.2,8.9
2018,12,3,16:00,UTC,,999.7,86,,,-3,,50000,68.4,10.9,8.3
2018,12,3,17:00,UTC,,999.4,85,,,-3.3,,50000,71,10.2,7.6
2018,12,3,18:00,UTC,,999.5,85,,,-3.4,,50000,68.9,10.7,8.4
2018,12,3,19:00,UTC,,999.2,85,,,-3.6,,50000,68.4,11.2,8.2
2018,12,3,20:00,UTC,,999,84,,,-3.8,,50000,68.9,11.3,8.7
2018,12,3,21:00,UTC,,998.7,84,,,-3.9,,50000,66.4,10.8,8.4
2018,12,3,22:00,UTC,,998.6,84,,,-4.3,,50000,67.9,11.1,7.7
2018,12,3,23:00,UTC,,998.5,81,,,-4.8,,50000,65.8,11.4,8.7
2018,12,4,00:00,UTC,,998.1,83,,,-4.8,,50000,66.9,12.5,8.8
2018,12,4,01:00,UTC,,997.5,87,,,-4.6,,11580,66.9,9.7,7.9
2018,12,4,02:00,UTC,,997.2,89,,,-4,,9639,65.3,9.9,7.5
2018,12,4,03:00,UTC,,996.8,90,,,-3.6,,14360,64.3,10.6,7.6
2018,12,4,04:00,UTC,,996.4,88,,,-2.9,,28573,66.4,10,7.5
2018,12,4,05:00,UTC,,996.1,86,,,-2.8,,14506,65.8,10.7,8.1
2018,12,4,06:00,UTC,,995.8,84,,,-2.7,,50000,65.8,10.6,8.5
2018,12,4,07:00,UTC,,995.6,84,,,-2.8,,30026,62.8,11.9,9.6
2018,12,4,08:00,UTC,,995.6,83,,,-2.7,,50000,64.3,11.6,9.2
2018,12,4,09:00,UTC,,995.6,88,,,-3.2,,1970,63.8,11.1,9
2018,12,4,10:00,UTC,,995.3,88,,,-3.3,,50000,63.8,10.8,8.4
2018,12,4,11:00,UTC,,995.2,87,,,-3.3,,50000,66.4,9.8,7.7
2018,12,4,12:00,UTC,,995.3,92,,,-3.5,,1953,64.8,8.5,7
2018,12,4,13:00,UTC,,995.4,91,,,-3.3,,6812,64.3,9.8,7.4
2018,12,4,14:00,UTC,,995.4,94,,,-3.1,,8167,64.8,8.6,6.6
2018,12,4,15:00,UTC,,995.3,96,,,-2.9,,12517,63.8,8.4,6.3
2018,12,4,16:00,UTC,,995.5,97,,,-2.5,,8211,62.2,7.2,5.7
2018,12,4,17:00,UTC,,995.4,97,,,-2.2,,7347,63.8,7.2,5.6
2018,12,4,18:00,UTC,,995.2,97,,,-1.9,,8452,60.2,6.7,5.5
2018,12,4,19:00,UTC,,995.1,97,,,-1.7,,14990,61.7,6.2,5.1
2018,12,4,20:00,UTC,,995.1,97,,,-1.3,,12458,63.8,6.3,5.1
2018,12,4,21:00,UTC,,995.2,98,,,-0.9,,8595,63.3,6.1,5.1
2018,12,4,22:00,UTC,,995.1,99,,,-0.6,,5647,66.4,5.5,4.4
2018,12,4,23:00,UTC,,994.9,99,,,-0.4,,5537,64.3,5.8,4.5
2018,12,5,00:00,UTC,,994.9,99,,,-0.1,,9478,66.9,5.7,4.5
2018,12,5,01:00,UTC,,994.8,99,,,0.1,,7933,66.9,5.1,4.2
2018,12,5,02:00,UTC,,994.8,100,,,0.3,,16700,71,6,4.1
2018,12,5,03:00,UTC,,995,100,,,0.6,,21283,71,4.9,3.6
2018,12,5,04:00,UTC,,995.2,100,,,0.7,,12250,67.9,4.4,3.4
2018,12,5,05:00,UTC,,995.3,100,,,0.9,,5952,73.1,4.4,3.2
2018,12,5,06:00,UTC,,995.5,100,,,1,,13103,74.6,4,3.2
2018,12,5,07:00,UTC,,995.6,100,,,1,,14612,72,3.8,2.5
2018,12,5,08:00,UTC,,995.8,100,,,0.8,,5597,72.5,2.9,2.3
2018,12,5,09:00,UTC,,995.9,100,,,1,,13047,72.5,3.2,2.3
2018,12,5,10:00,UTC,,995.9,100,,,0.7,,8123,64.8,3.1,2.7
2018,12,5,11:00,UTC,,995.8,100,,,0.7,,3436,68.4,3.7,3
2018,12,5,12:00,UTC,,995.8,100,,,0.3,,5693,84.9,2.5,1.8
2018,12,5,13:00,UTC,,995.6,100,,,0.2,,5277,81.3,2.9,1.7
2018,12,5,14:00,UTC,,995.4,100,,,0.2,,13293,75.6,2.1,1.7
2018,12,5,15:00,UTC,,995.5,100,,,-0.3,,1421,163.6,4.8,3.5
2018,12,5,16:00,UTC,,995.8,100,,,-1.1,,10654,150.7,7.2,5.5
2018,12,5,17:00,UTC,,996.2,99,,,-1.3,,4304,145.6,6.5,4.9
2018,12,5,18:00,UTC,,996.3,99,,,-1.3,,5329,139.4,5.4,4
2018,12,5,19:00,UTC,,996.6,99,,,-1.1,,6113,138.9,5.8,4.1
2018,12,5,20:00,UTC,,996.8,99,,,-0.8,,6051,143,5.4,4
2018,12,5,21:00,UTC,,996.9,99,,,-0.1,,50000,136.3,6.5,4.1
2018,12,5,22:00,UTC,,997.1,99,,,0,,16113,123.5,4.7,3.3
2018,12,5,23:00,UTC,,997.1,97,,,0.2,,50000,119.4,7,4.9
2018,12,6,00:00,UTC,,997.4,96,,,-0.1,,50000,121.4,5.7,4.1
2018,12,6,01:00,UTC,,997.7,96,,,-0.2,,50000,121.9,6.3,4.5
2018,12,6,02:00,UTC,,998,95,,,-0.1,,50000,120.4,6.2,4.7
2018,12,6,03:00,UTC,,998.2,95,,,-0.2,,50000,119.9,5.9,4.2
2018,12,6,04:00,UTC,,998.6,96,,,-0.2,,13697,123,6.5,4.2
2018,12,6,05:00,UTC,,999,96,,,0,,7299,123.5,6.1,4.1
2018,12,6,06:00,UTC,,999.7,93,,,0,,50000,128.6,5.8,4.4
2018,12,6,07:00,UTC,,1000.2,94,,,-0.7,,50000,118.3,5.1,3.8
2018,12,6,08:00,UTC,,1000.7,95,,,-1.2,,50000,123.5,5.2,3.8
2018,12,6,09:00,UTC,,1001.4,93,,,-1.1,,50000,125,5.5,4
2018,12,6,10:00,UTC,,1001.9,94,,,-1.6,,50000,120.9,5.8,3.5
2018,12,6,11:00,UTC,,1002.4,94,,,-1.7,,50000,123,4.4,3.4
2018,12,6,12:00,UTC,,1002.9,95,,,-2,,50000,115.7,4.4,3.3
2018,12,6,13:00,UTC,,1003.2,95,,,-2.3,,50000,114.7,4.3,3.1
2018,12,6,14:00,UTC,,1003.5,95,,,-2.7,,49039,109.1,4.8,3.4
2018,12,6,15:00,UTC,,1003.6,96,,,-2.8,,50000,109.1,5.2,3.6
2018,12,6,16:00,UTC,,1004,96,,,-3.5,,50000,100.3,6.8,2.9
2018,12,6,17:00,UTC,,1004.2,96,,,-3.5,,50000,95.2,5,3.7
2018,12,6,18:00,UTC,,1004.5,95,,,-3.5,,50000,100.3,5.4,4
2018,12,6,19:00,UTC,,1004.6,95,,,-2.9,,50000,96.7,4.3,3.4
2018,12,6,20:00,UTC,,1004.4,95,,,-2.1,,50000,98.3,4.5,3.3
2018,12,6,21:00,UTC,,1004.5,95,,,-2.2,,50000,92.6,4.1,3
2018,12,6,22:00,UTC,,1004.7,96,,,-2.4,,50000,91.6,3.4,2.4
2018,12,6,23:00,UTC,,1004.5,96,,,-1.9,,50000,88,4.1,2.9
2018,12,7,00:00,UTC,,1004.5,95,,,-1.4,,50000,91.6,4.7,3.4
2018,12,7,01:00,UTC,,1004.5,95,,,-1.3,,50000,86.4,4.8,3.6
2018,12,7,02:00,UTC,,1004.5,95,,,-1.4,,50000,88.5,6.2,4.3
2018,12,7,03:00,UTC,,1004.5,93,,,-1.1,,50000,98.3,6.7,4.6
2018,12,7,04:00,UTC,,1004.1,93,,,-1.1,,50000,93.1,6.7,4
2018,12,7,05:00,UTC,,1003.9,94,,,-1.4,,50000,83.9,6.3,3.8
2018,12,7,06:00,UTC,,1003.8,94,,,-1.6,,50000,89.5,7.6,4.5
2018,12,7,07:00,UTC,,1003.8,94,,,-1.6,,50000,81.8,6.3,3.4
2018,12,7,08:00,UTC,,1003.8,94,,,-2.7,,50000,85.9,6.8,4.7
2018,12,7,09:00,UTC,,1003.9,93,,,-3.9,,50000,80.8,5.5,3.8
2018,12,7,10:00,UTC,,1003.7,96,,,-4.2,,49225,82.3,6.5,4.4
2018,12,7,11:00,UTC,,1003.1,96,,,-3.6,,50000,73.6,5.8,4.6
2018,12,7,12:00,UTC,,1002.7,95,,,-3.1,,27820,71.5,5.6,4.4
2018,12,7,13:00,UTC,,1002.3,96,,,-2.9,,9650,67.4,6.4,4.6
2018,12,7,14:00,UTC,,1001.8,96,,,-2.7,,50000,66.4,5.2,4.2
2018,12,7,15:00,UTC,,1001.4,95,,,-2.4,,36954,72,5.1,4.2
2018,12,7,16:00,UTC,,1000.8,95,,,-1.9,,50000,75.1,5.7,4.5
2018,12,7,17:00,UTC,,1000.3,95,,,-1.7,,50000,72.5,5.6,4.5
2018,12,7,18:00,UTC,,999.7,96,,,-1.4,,10869,68.4,5.8,4.2
2018,12,7,19:00,UTC,,999.4,95,,,-1.2,,42956,74.1,5.4,4.4
2018,12,7,20:00,UTC,,998.9,95,,,-1.3,,49315,72.5,6.1,4.5
2018,12,7,21:00,UTC,,998.8,94,,,-0.9,,50000,73.6,6,4.4
2018,12,7,22:00,UTC,,998.1,94,,,-0.9,,14172,71,6.3,4.7
2018,12,7,23:00,UTC,,997.6,93,,,-0.8,,50000,70,5.5,4.4
2018,12,8,00:00,UTC,,997.2,94,,,-1.1,,32264,64.3,5.7,4.5
2018,12,8,01:00,UTC,,996.4,95,,,-1.2,,40093,65.3,7,5.5
2018,12,8,02:00,UTC,,995.8,94,,,-1.2,,49911,64.3,6.6,4.8
2018,12,8,03:00,UTC,,995.4,93,,,-1.2,,50000,65.3,5.9,4.9
2018,12,8,04:00,UTC,,995,93,,,-1.2,,50000,65.3,5.8,4.8
2018,12,8,05:00,UTC,,994.8,93,,,-1.2,,50000,65.8,5.7,4.6
2018,12,8,06:00,UTC,,994.5,93,,,-1.2,,50000,64.8,5.7,4.6
2018,12,8,07:00,UTC,,994.2,93,,,-1.3,,50000,60.2,5.7,4.7
2018,12,8,08:00,UTC,,993.9,93,,,-1.3,,50000,60.2,5.7,4.7
2018,12,8,09:00,UTC,,993.7,93,,,-1.3,,50000,61.2,6.3,4.9
2018,12,8,10:00,UTC,,993.2,93,,,-1.3,,45735,61.2,6,4.9
2018,12,8,11:00,UTC,,992.6,93,,,-1.3,,34223,56.6,6,4.7
2018,12,8,12:00,UTC,,992,93,,,-1.4,,50000,56.6,6.7,4.9
2018,12,8,13:00,UTC,,991.4,93,,,-1.7,,12665,57.1,7.1,5.6
2018,12,8,14:00,UTC,,990.9,94,,,-1.7,,10404,51.4,6.2,4.4
2018,12,8,15:00,UTC,,989.9,94,,,-1.7,,9990,53,8,5.3
2018,12,8,16:00,UTC,,989.2,92,,,-1.6,,27295,54,7.6,5.7
2018,12,8,17:00,UTC,,988.7,94,,,-1.8,,6885,54,8.5,6.1
2018,12,8,18:00,UTC,,988,94,,,-1.8,,8767,55.6,7.9,6.1
2018,12,8,19:00,UTC,,987.4,93,,,-1.7,,13030,58.6,8.4,6.6
2018,12,8,20:00,UTC,,987,96,,,-1.9,,5288,56.1,7.4,5.5
2018,12,8,21:00,UTC,,986.4,95,,,-1.7,,6172,58.1,9.3,6.6
2018,12,8,22:00,UTC,,985.7,96,,,-1.6,,4505,59.2,9.4,6.9
2018,12,8,23:00,UTC,,985.4,96,,,-1.5,,7325,62.8,8.5,6.7
2018,12,9,00:00,UTC,,985,95,,,-1.4,,6494,63.8,8.7,7
2018,12,9,01:00,UTC,,984.6,95,,,-1.4,,6962,64.8,9,6.7
2018,12,9,02:00,UTC,,984.6,95,,,-1.4,,5999,69.4,8.4,6.4
2018,12,9,03:00,UTC,,984.6,95,,,-1.1,,15966,72,7.6,5.5
2018,12,9,04:00,UTC,,985,95,,,-0.7,,50000,73.1,8.1,5.3
2018,12,9,05:00,UTC,,985.6,95,,,-0.1,,50000,74.6,7.6,5.8
2018,12,9,06:00,UTC,,986.2,95,,,0.4,,41874,76.7,7.9,5.9
2018,12,9,07:00,UTC,,986.7,96,,,0.4,,50000,66.4,7.2,5.4
2018,12,9,08:00,UTC,,986.9,95,,,0.6,,39189,60.2,7.6,6
2018,12,9,09:00,UTC,,987.1,95,,,0.6,,31004,63.3,9,5.8
2018,12,9,10:00,UTC,,987.3,97,,,0.7,,33660,65.3,7.4,5.7
2018,12,9,11:00,UTC,,987.3,95,,,1.2,,50000,67.9,8.4,6.4
2018,12,9,12:00,UTC,,987.6,95,,,1.3,,50000,67.9,8.8,6.7
2018,12,9,13:00,UTC,,988,95,,,1.4,,50000,68.4,9.7,7
2018,12,9,14:00,UTC,,988.3,95,,,1.5,,48549,66.9,9.2,6.7
2018,12,9,15:00,UTC,,989,95,,,1,,23108,66.4,8.4,6.3
2018,12,9,16:00,UTC,,989.3,95,,,1.1,,50000,63.8,8.6,6.9
2018,12,9,17:00,UTC,,989.8,94,,,1,,50000,64.8,8.3,6.8
2018,12,9,18:00,UTC,,990.1,93,,,1.1,,50000,66.9,9.1,6.8
2018,12,9,19:00,UTC,,990.7,93,,,1,,49280,64.3,9.5,6.9
2018,12,9,20:00,UTC,,991.1,93,,,0.9,,48487,65.3,8.9,6.9
2018,12,9,21:00,UTC,,991.5,95,,,0.7,,13082,64.8,8.9,6.7
2018,12,9,22:00,UTC,,991.9,98,,,0.1,,3992,64.8,7.9,6.3
2018,12,9,23:00,UTC,,992.4,99,,,0.1,,15557,65.8,8,5.7
2018,12,10,00:00,UTC,,992.8,98,,,0.3,,21459,67.9,7.6,5.9
2018,12,10,01:00,UTC,,993.3,98,,,0.3,,50000,68.9,7,5.4
2018,12,10,02:00,UTC,,993.6,97,,,0.4,,50000,67.9,6.9,5.1
2018,12,10,03:00,UTC,,994.2,96,,,0.7,,49848,67.9,7.7,5.8
2018,12,10,04:00,UTC,,995,95,,,0.7,,50000,73.6,7.9,5.7
2018,12,10,05:00,UTC,,995.5,96,,,0.7,,44615,69.4,5.5,4.3
2018,12,10,06:00,UTC,,996.4,94,,,0.8,,50000,66.4,4.8,3.9
2018,12,10,07:00,UTC,,997.2,97,,,0.7,,38350,61.2,4.3,3.6
2018,12,10,08:00,UTC,,998.2,95,,,1,,47560,67.4,5.3,4.4
2018,12,10,09:00,UTC,,999,96,,,0.8,,18559,52.5,3.9,2.9
2018,12,10,10:00,UTC,,999.7,97,,,0.8,,9570,45.8,3.1,2.2
2018,12,10,11:00,UTC,,1000.2,97,,,0.9,,35184,42.2,3.1,2.1
2018,12,10,12:00,UTC,,1000.9,97,,,0.8,,36178,42.2,3.5,2.2
2018,12,10,13:00,UTC,,1001.8,98,,,0.6,,10528,33.4,2.8,2
2018,12,10,14:00,UTC,,1002.8,99,,,0.3,,10255,31.9,3.1,2.1
2018,12,10,15:00,UTC,,1003.5,99,,,0.2,,10825,29.3,2.7,1.9
2018,12,10,16:00,UTC,,1004.5,99,,,0.2,,12668,34,2.5,1.6
2018,12,10,17:00,UTC,,1005.1,99,,,0.1,,10639,27.3,1.3,0.9
2018,12,10,18:00,UTC,,1006,99,,,0.1,,12883,22.6,2,1.2
2018,12,10,19:00,UTC,,1006.6,98,,,0.1,,17806,13.4,2.1,1.5
2018,12,10,20:00,UTC,,1007.4,97,,,0.1,,35739,5.7,2.5,1.7
2018,12,10,21:00,UTC,,1008.1,97,,,-0.1,,5439,13.9,2.4,1.6
2018,12,10,22:00,UTC,,1008.8,98,,,-0.3,,8522,8.2,3.1,2.2
2018,12,10,23:00,UTC,,1009.5,99,,,-0.6,,6621,7.7,2.4,1.9
2018,12,11,00:00,UTC,,1010.1,99,,,-0.7,,26663,5.7,3,2.1
2018,12,11,01:00,UTC,,1010.7,98,,,-0.7,,34073,179.5,2.9,1.9
2018,12,11,02:00,UTC,,1011.4,98,,,-0.8,,44305,7.2,3.5,2.2
2018,12,11,03:00,UTC,,1012,97,,,-1,,33523,7.7,4.2,2.9
2018,12,11,04:00,UTC,,1012.6,95,,,-1.1,,40556,8.2,3.9,2.1
2018,12,11,05:00,UTC,,1013.3,96,,,-1.3,,34315,10.8,3.9,2.5
2018,12,11,06:00,UTC,,1014.1,94,,,-1.3,,50000,17.5,4.3,2.4
2018,12,11,07:00,UTC,,1014.7,95,,,-1.3,,38004,5.1,3.6,2.4
2018,12,11,08:00,UTC,,1015.4,95,,,-1.3,,23792,7.7,4.1,2.5
2018,12,11,09:00,UTC,,1016,93,,,-2.1,,50000,25.7,4.9,3.3
2018,12,11,10:00,UTC,,1016.8,95,,,-2.2,,26917,14.4,4.5,2.5
2018,12,11,11:00,UTC,,1017.1,97,,,-2.3,,10855,8.2,2.8,1.9
2018,12,11,12:00,UTC,,1017.7,97,,,-2.1,,21135,15.4,3.1,2
2018,12,11,13:00,UTC,,1018.6,97,,,-1.9,,21491,1.5,3.8,1.8
2018,12,11,14:00,UTC,,1019.4,95,,,-2,,41868,176.5,3.6,2.2
2018,12,11,15:00,UTC,,1019.8,96,,,-1.9,,40920,182.6,1.9,1.3
2018,12,11,16:00,UTC,,1020.1,96,,,-1.9,,47936,166.7,2.2,1.5
2018,12,11,17:00,UTC,,1020.6,96,,,-1.7,,24003,168.2,1.7,1.2
2018,12,11,18:00,UTC,,1020.9,96,,,-1.7,,47023,178,1.9,1.1
2018,12,11,19:00,UTC,,1021.4,96,,,-1.7,,46539,168.2,2.2,1.5
2018,12,11,20:00,UTC,,1021.8,96,,,-1.8,,48840,166.7,3.1,2.3
2018,12,11,21:00,UTC,,1022.4,96,,,-1.7,,29262,182.1,3,1.9
2018,12,11,22:00,UTC,,1022.5,95,,,-2.3,,50000,8.7,1.8,1.1
2018,12,11,23:00,UTC,,1023.3,98,,,-2.6,,34547,163.1,2.2,1.4
2018,12,12,00:00,UTC,,1023.7,96,,,-2.2,,47167,179.5,1.4,0.9
2018,12,12,01:00,UTC,,1024.6,97,,,-2.5,,41038,4.1,2.8,1.7
2018,12,12,02:00,UTC,,1024.8,96,,,-2.1,,50000,2.6,1.4,0.9
2018,12,12,03:00,UTC,,1025.1,96,,,-2.1,,36400,185.2,2.3,1.6
2018,12,12,04:00,UTC,,1025.2,97,,,-2.1,,36067,161,0.9,0.7
2018,12,12,05:00,UTC,,1026.1,97,,,-2.1,,49860,155.4,2,1.4
2018,12,12,06:00,UTC,,1026.5,97,,,-1.9,,36354,157.4,1.3,0.9
2018,12,12,07:00,UTC,,1027,97,,,-1.9,,34065,163.1,1.3,1.1
2018,12,12,08:00,UTC,,1027.5,97,,,-1.9,,28906,148.7,1.4,1.2
2018,12,12,09:00,UTC,,1028.3,97,,,-1.7,,19470,155.4,1.2,0.9
2018,12,12,10:00,UTC,,1028.4,98,,,-1.6,,41879,139.4,1.8,1.6
2018,12,12,11:00,UTC,,1028.9,98,,,-1.8,,25973,152.8,2.9,2.4
2018,12,12,12:00,UTC,,1029.3,98,,,-3.3,,50000,154.3,3.2,2.6
2018,12,12,13:00,UTC,,1029.3,98,,,-3.6,,49956,148.2,3,2.4
2018,12,12,14:00,UTC,,1029.8,98,,,-4.4,,12773,148.2,2.9,2.5
2018,12,12,15:00,UTC,,1030.4,98,,,-4.8,,5644,145.6,3.5,2.2
2018,12,12,16:00,UTC,,1030.8,97,,,-5.3,,1608,124.5,1.4,0.8
2018,12,12,17:00,UTC,,1031.1,96,,,-5.9,,928,147.6,2,1.4
2018,12,12,18:00,UTC,,1031.3,96,,,-6.2,,1707,92.1,2.1,1.2
2018,12,12,19:00,UTC,,1031.5,96,,,-6.1,,1340,95.7,1.2,0.7
2018,12,12,20:00,UTC,,1031.7,95,,,-7.1,,1216,78.7,1.3,1
2018,12,12,21:00,UTC,,1031.6,95,,,-7.4,,1117,63.3,2.9,2.4
2018,12,12,22:00,UTC,,1031.8,94,,,-7.8,,737,70.5,2.2,1.8
2018,12,12,23:00,UTC,,1032,95,,,-7.5,,14681,65.8,3.2,2.8
2018,12,13,00:00,UTC,,1032.1,95,,,-7.1,,47275,67.4,3,2.2
2018,12,13,01:00,UTC,,1032,96,,,-6,,48334,68.4,3.2,2.7
2018,12,13,02:00,UTC,,1032.1,96,,,-5.5,,46667,78.7,3.5,2.4
2018,12,13,03:00,UTC,,1032,96,,,-5.3,,48470,88,4.2,3.2
2018,12,13,04:00,UTC,,1031.9,96,,,-5.1,,50000,96.7,4.2,3.1
2018,12,13,05:00,UTC,,1031.6,97,,,-4.3,,50000,96.7,4.2,2.8
2018,12,13,06:00,UTC,,1031.6,96,,,-4.8,,50000,91.1,4.2,3
2018,12,13,07:00,UTC,,1031.9,96,,,-5.8,,50000,89.5,5.3,2.8
2018,12,13,08:00,UTC,,1031.9,95,,,-6.2,,24964,82.3,4.6,3.5
2018,12,13,09:00,UTC,,1031.9,96,,,-5.9,,50000,85.9,5,3.6
2018,12,13,10:00,UTC,,1031.6,96,,,-5.2,,50000,86.9,6.5,4.5
2018,12,13,11:00,UTC,,1031.5,96,,,-4.1,,50000,86.9,5.9,4.2
2018,12,13,12:00,UTC,,1031.5,96,,,-3.5,,48306,82.8,6.3,4.4
2018,12,13,13:00,UTC,,1031.3,95,,,-3.2,,50000,85.4,7.8,5.5
2018,12,13,14:00,UTC,,1031.1,95,,,-3.2,,50000,90,6.7,4.8
2018,12,13,15:00,UTC,,1031.1,95,,,-3.1,,50000,90,5.3,3.9
2018,12,13,16:00,UTC,,1030.9,94,,,-3,,50000,92.1,5.9,4.3
2018,12,13,17:00,UTC,,1031,94,,,-3.2,,50000,84.9,5.3,3.6
2018,12,13,18:00,UTC,,1031,94,,,-3.5,,50000,88,5.9,4.1
2018,12,13,19:00,UTC,,1030.8,94,,,-3.6,,50000,88,5.8,4.1
2018,12,13,20:00,UTC,,1030.5,95,,,-3.4,,50000,90,5.7,4.3
2018,12,13,21:00,UTC,,1030.6,94,,,-3,,50000,90.5,5.8,4.5
2018,12,13,22:00,UTC,,1030.8,94,,,-3,,50000,90,6.3,4.3
2018,12,13,23:00,UTC,,1030.5,94,,,-2.9,,50000,90.5,5.6,4
2018,12,14,00:00,UTC,,1030.8,95,,,-2.9,,13510,90,5.3,3.8
2018,12,14,01:00,UTC,,1030.7,96,,,-2.9,,34016,86.4,5.4,4
2018,12,14,02:00,UTC,,1030.3,94,,,-2.9,,32615,89.5,5.6,3.8
2018,12,14,03:00,UTC,,1029.8,94,,,-2.9,,32153,90,5.8,4.2
2018,12,14,04:00,UTC,,1030,95,,,-3,,8240,88.5,5.1,3.7
2018,12,14,05:00,UTC,,1029.9,94,,,-3,,17466,90,6,3.8
2018,12,14,06:00,UTC,,1029.9,93,,,-2.7,,12962,93.6,5.9,4.1
2018,12,14,07:00,UTC,,1030.2,94,,,-3,,9438,89.5,5.7,4.1
2018,12,14,08:00,UTC,,1030.3,94,,,-2.9,,11321,88.5,5.7,4.1
2018,12,14,09:00,UTC,,1030.5,93,,,-2.9,,8737,90,6.3,4.5
2018,12,14,10:00,UTC,,1030.6,93,,,-2.8,,17729,88.5,5.1,3.9
2018,12,14,11:00,UTC,,1030.6,95,,,-2.9,,9846,90,5.4,3.6
2018,12,14,12:00,UTC,,1030.5,93,,,-2.8,,50000,86.9,5.4,3.8
2018,12,14,13:00,UTC,,1030.8,93,,,-2.4,,24242,91.6,5.3,3.6
2018,12,14,14:00,UTC,,1030.8,93,,,-2.5,,19045,92.1,5.4,3.6
2018,12,14,15:00,UTC,,1031.1,93,,,-2.5,,20168,88,4.5,2.9
2018,12,14,16:00,UTC,,1031.1,93,,,-2.6,,8825,92.6,5.7,3.9
2018,12,14,17:00,UTC,,1031.3,94,,,-2.5,,13242,92.1,3.7,2.4
2018,12,14,18:00,UTC,,1031.2,94,,,-2.5,,50000,88,4.2,2.9
2018,12,14,19:00,UTC,,1031.2,95,,,-2.6,,11433,89.5,5.4,3.4
2018,12,14,20:00,UTC,,1031.5,94,,,-2.5,,18437,88,4.1,2.9
2018,12,14,21:00,UTC,,1031.7,94,,,-2.5,,23295,89.5,4.2,2.9
2018,12,14,22:00,UTC,,1031.6,94,,,-2.5,,11309,90.5,4.3,3.2
2018,12,14,23:00,UTC,,1031.7,94,,,-2.4,,49052,90.5,4.7,2.7
2018,12,15,00:00,UTC,,1031.6,94,,,-2.5,,17700,89,3.6,2.6
2018,12,15,01:00,UTC,,1031.6,94,,,-2.6,,11418,89,4.4,3.2
2018,12,15,02:00,UTC,,1031.6,93,,,-2.5,,48144,85.9,4,2.9
2018,12,15,03:00,UTC,,1031.6,93,,,-2.4,,15495,91.6,5.1,3.1
2018,12,15,04:00,UTC,,1031.7,92,,,-2.3,,44926,90.5,3.6,2.6
2018,12,15,05:00,UTC,,1031.8,92,,,-2.2,,50000,90.5,4.7,2.8
2018,12,15,06:00,UTC,,1031.9,92,,,-2.2,,50000,90,4.4,3.1
2018,12,15,07:00,UTC,,1032.4,91,,,-2.1,,50000,89.5,4.5,3.2
2018,12,15,08:00,UTC,,1032.7,91,,,-2.2,,50000,89.5,6.4,3.6
2018,12,15,09:00,UTC,,1032.7,91,,,-2.2,,50000,90,4.9,3.4
2018,12,15,10:00,UTC,,1032.7,89,,,-2,,50000,91.1,4.4,3.2
2018,12,15,11:00,UTC,,1032.8,90,,,-1.9,,39720,90.5,4.9,3.4
2018,12,15,12:00,UTC,,1032.8,90,,,-2,,50000,86.9,4.7,3.4
2018,12,15,13:00,UTC,,1032.8,89,,,-1.9,,50000,86.9,5.9,3.9
2018,12,15,14:00,UTC,,1032.8,90,,,-2,,50000,89,5.1,3.9
2018,12,15,15:00,UTC,,1032.8,89,,,-1.9,,50000,93.6,6.9,4.7
2018,12,15,16:00,UTC,,1032.7,89,,,-2,,50000,89.5,7.1,4.3
2018,12,15,17:00,UTC,,1032.9,88,,,-2,,50000,87.5,5.5,3.8
2018,12,15,18:00,UTC,,1032.7,87,,,-2,,50000,87.5,6.8,4
2018,12,15,19:00,UTC,,1032.7,87,,,-2,,50000,86.9,5,3.7
2018,12,15,20:00,UTC,,1032.4,87,,,-2.1,,50000,79.7,4.3,3.3
2018,12,15,21:00,UTC,,1032.6,87,,,-2.1,,50000,86.9,4.4,3.4
2018,12,15,22:00,UTC,,1032.4,87,,,-2.1,,50000,84.4,5.4,3.8
2018,12,15,23:00,UTC,,1032.3,87,,,-2.1,,50000,81.8,5.7,4
2018,12,16,00:00,UTC,,1032.1,88,,,-2.1,,50000,88,5.3,3.8
2018,12,16,01:00,UTC,,1031.9,88,,,-2.2,,50000,86.9,4.7,3.4
2018,12,16,02:00,UTC,,1032,89,,,-2.2,,50000,86.9,5.1,3.8
2018,12,16,03:00,UTC,,1031.7,88,,,-2.3,,50000,84.9,5,3.4
2018,12,16,04:00,UTC,,1031.5,88,,,-2.4,,50000,77.2,5.3,2.7
2018,12,16,05:00,UTC,,1031.1,89,,,-2.5,,50000,79.2,3.4,2.6
2018,12,16,06:00,UTC,,1031.1,88,,,-2.5,,50000,82.3,3.8,2.9
2018,12,16,07:00,UTC,,1031.2,87,,,-2.5,,50000,92.6,3.9,2.9
2018,12,16,08:00,UTC,,1031.4,79,,,-2.5,,50000,82.3,5.4,3.9
2018,12,16,09:00,UTC,,1031.3,79,,,-2.7,,50000,84.9,5.2,3.5
2018,12,16,10:00,UTC,,1031,80,,,-3.3,,50000,91.6,5.3,3.6
2018,12,16,11:00,UTC,,1030.6,82,,,-4.2,,50000,78.2,5.4,3.6
2018,12,16,12:00,UTC,,1030.2,85,,,-5.3,,50000,91.1,4.5,3.2
2018,12,16,13:00,UTC,,1030.2,86,,,-6.2,,25070,79.7,5.3,3.4
2018,12,16,14:00,UTC,,1030,86,,,-6.8,,50000,86.4,6.5,4.4
2018,12,16,15:00,UTC,,1029.9,88,,,-8.1,,50000,87.5,7.1,5.1
2018,12,16,16:00,UTC,,1029.8,86,,,-8.9,,30712,90.5,7.3,4.9
2018,12,16,17:00,UTC,,1029.6,87,,,-9,,22977,74.1,6.2,4.1
2018,12,16,18:00,UTC,,1029.2,86,,,-9.3,,25481,70,5.5,4.2
2018,12,16,19:00,UTC,,1028.9,89,,,-9.6,,50000,67.4,6.5,5.3
2018,12,16,20:00,UTC,,1028.8,93,,,-9.5,,44076,70.5,5.2,4.4
2018,12,16,21:00,UTC,,1028.7,94,,,-9.1,,47034,72,5.2,4
2018,12,16,22:00,UTC,,1028.3,92,,,-9,,50000,70.5,5.4,4.5
2018,12,16,23:00,UTC,,1028.1,91,,,-9.3,,50000,68.9,5.8,4.5
2018,12,17,00:00,UTC,,1027.7,90,,,-10.8,,50000,61.7,5,4.3
2018,12,17,01:00,UTC,,1027.2,92,,,-10.9,,50000,63.3,5,4.5
2018,12,17,02:00,UTC,,1026.7,92,,,-10.3,,50000,64.3,5.7,4.8
2018,12,17,03:00,UTC,,1026.2,94,,,-9.7,,50000,71.5,7.4,5.7
2018,12,17,04:00,UTC,,1025.7,93,,,-9.5,,50000,65.8,7.4,6.2
2018,12,17,05:00,UTC,,1025,92,,,-9.2,,50000,60.2,6.5,5.5
2018,12,17,06:00,UTC,,1024.4,92,,,-8.2,,50000,66.4,8.7,6.3
2018,12,17,07:00,UTC,,1024.2,91,,,-8,,50000,66.9,8.8,6.8
2018,12,17,08:00,UTC,,1024.2,91,,,-7.7,,50000,64.8,8.1,6.4
2018,12,17,09:00,UTC,,1024.1,91,,,-7.4,,50000,61.2,6.8,5.6
2018,12,17,10:00,UTC,,1023.3,90,,,-7.1,,50000,62.2,6.5,5.2
2018,12,17,11:00,UTC,,1022.8,89,,,-6.6,,50000,65.8,6.5,5.6
2018,12,17,12:00,UTC,,1022.3,87,,,-5.8,,50000,67.4,7.6,5.6
2018,12,17,13:00,UTC,,1022.1,85,,,-5.4,,50000,68.4,6.4,4.7
2018,12,17,14:00,UTC,,1021.9,88,,,-5.3,,10002,70,5.8,4
2018,12,17,15:00,UTC,,1021.8,88,,,-4.9,,24143,74.1,5.3,4.1
2018,12,17,16:00,UTC,,1022,89,,,-4.9,,50000,79.7,6.3,3.8
2018,12,17,17:00,UTC,,1022.1,89,,,-4.8,,50000,80.3,4,2.9
2018,12,17,18:00,UTC,,1022.5,89,,,-4.7,,50000,83.3,3.7,2.4
2018,12,17,19:00,UTC,,1022.9,89,,,-4.5,,46020,83.3,2.8,2
2018,12,17,20:00,UTC,,1023.3,89,,,-4.5,,50000,88.5,2.6,1.8
2018,12,17,21:00,UTC,,1023.5,90,,,-4.5,,50000,84.9,3,2.2
2018,12,17,22:00,UTC,,1023.6,90,,,-4.5,,49828,76.7,2.9,2.1
2018,12,17,23:00,UTC,,1023.8,90,,,-4.5,,50000,82.3,4.2,3
2018,12,18,00:00,UTC,,1023.9,90,,,-4.4,,50000,83.3,3.7,3
2018,12,18,01:00,UTC,,1023.9,91,,,-4.4,,39233,77.7,3,2.4
2018,12,18,02:00,UTC,,1024,92,,,-4.5,,35961,83.3,2.8,2
2018,12,18,03:00,UTC,,1024.2,93,,,-4.7,,38171,76.7,2.3,1.8
2018,12,18,04:00,UTC,,1024.3,93,,,-4.7,,28613,69.4,3.2,2.3
2018,12,18,05:00,UTC,,1024.7,94,,,-5,,21405,68.4,2.5,1.7
2018,12,18,06:00,UTC,,1025,94,,,-4.9,,19142,59.2,2.7,2.2
2018,12,18,07:00,UTC,,1025.5,94,,,-4.7,,25160,60.7,3.5,1.8
2018,12,18,08:00,UTC,,1026,94,,,-5,,16830,66.9,1.5,1.2
2018,12,18,09:00,UTC,,1026.2,96,,,-4.9,,13264,76.7,3.7,2.9
2018,12,18,10:00,UTC,,1026.4,98,,,-5,,8231,72,4.7,3.5
2018,12,18,11:00,UTC,,1026.5,98,,,-4.9,,7074,69.4,4.8,3.4
2018,12,18,12:00,UTC,,1026.7,98,,,-4.9,,2198,69.4,4.7,3.3
2018,12,18,13:00,UTC,,1026.8,97,,,-4.9,,6947,60.7,4.8,3.8
2018,12,18,14:00,UTC,,1027.1,97,,,-4.8,,13759,56.6,5.2,4.3
2018,12,18,15:00,UTC,,1027.3,97,,,-4.5,,21872,65.8,4.3,3
2018,12,18,16:00,UTC,,1027.7,96,,,-4.8,,14887,43.7,2.6,1.7
2018,12,18,17:00,UTC,,1027.9,96,,,-5.3,,17559,47.3,3,2.2
2018,12,18,18:00,UTC,,1028,96,,,-4.8,,22283,50.4,3.4,2.5
2018,12,18,19:00,UTC,,1028.3,95,,,-4.7,,21612,49.4,3.2,2.4
2018,12,18,20:00,UTC,,1028.4,94,,,-4.5,,21712,49.9,3.9,2.9
2018,12,18,21:00,UTC,,1028.4,94,,,-4.2,,25663,50.4,3.1,2.5
2018,12,18,22:00,UTC,,1028.6,95,,,-4.4,,22284,38.1,2.5,1.6
2018,12,18,23:00,UTC,,1028.5,95,,,-4.3,,14707,47.3,2.8,2
2018,12,19,00:00,UTC,,1028.3,94,,,-4.4,,14031,55.6,3.4,2.9
2018,12,19,01:00,UTC,,1028.5,95,,,-4.5,,12294,58.6,3.8,3.3
2018,12,19,02:00,UTC,,1028.6,94,,,-4.4,,10108,55.6,4.2,3.2
2018,12,19,03:00,UTC,,1028.6,94,,,-4.8,,24513,59.2,4.3,3.3
2018,12,19,04:00,UTC,,1028.5,93,,,-4.6,,38031,65.8,4.3,3.5
2018,12,19,05:00,UTC,,1028.5,92,,,-5.2,,39446,70,5.1,3.9
2018,12,19,06:00,UTC,,1028.7,92,,,-5.4,,40763,67.4,5.7,4.1
2018,12,19,07:00,UTC,,1028.8,91,,,-5.1,,32549,66.9,5.4,4.3
2018,12,19,08:00,UTC,,1029.2,90,,,-4.8,,27960,70,5.5,4.2
2018,12,19,09:00,UTC,,1029.4,89,,,-4.8,,38214,71.5,5.2,3.8
2018,12,19,10:00,UTC,,1029.1,89,,,-4.8,,25243,65.3,5.5,4.4
2018,12,19,11:00,UTC,,1029.1,89,,,-4.6,,28071,69.4,4.9,3.8
2018,12,19,12:00,UTC,,1029.1,89,,,-4.5,,27216,67.4,4.6,3.3
2018,12,19,13:00,UTC,,1029,90,,,-4.6,,38015,61.7,5.2,3.2
2018,12,19,14:00,UTC,,1028.9,90,,,-4.3,,23088,56.6,4.7,3.8
2018,12,19,15:00,UTC,,1028.8,91,,,-4.3,,18031,63.3,4.8,4
2018,12,19,16:00,UTC,,1028.6,90,,,-4.3,,22072,65.3,5.6,4.4
2018,12,19,17:00,UTC,,1028.5,91,,,-4.4,,21996,68.4,5.6,4.4
2018,12,19,18:00,UTC,,1028.8,90,,,-4.4,,22868,79.7,5.2,4.1
2018,12,19,19:00,UTC,,1028.8,91,,,-4.6,,19409,70.5,4.8,3.5
2018,12,19,20:00,UTC,,1028.8,91,,,-4.7,,20805,68.9,4.8,3.6
2018,12,19,21:00,UTC,,1028.9,92,,,-4.8,,17276,72,4.2,3.5
2018,12,19,22:00,UTC,,1029.1,92,,,-4.9,,19833,67.4,4.7,4
2018,12,19,23:00,UTC,,1029,92,,,-5,,15952,68.4,5.3,4.1
2018,12,20,00:00,UTC,,1029,92,,,-5.1,,18704,68.9,4.3,3.2
2018,12,20,01:00,UTC,,1029.1,93,,,-5.2,,15557,64.8,4.8,4.1
2018,12,20,02:00,UTC,,1028.9,93,,,-5.2,,15869,68.9,4.3,3.4
2018,12,20,03:00,UTC,,1029.1,93,,,-5.2,,21110,91.1,6.1,4.1
2018,12,20,04:00,UTC,,1028.9,92,,,-5.2,,19408,64.8,3.9,3
2018,12,20,05:00,UTC,,1028.9,92,,,-5.2,,16223,63.8,4.9,4.1
2018,12,20,06:00,UTC,,1028.9,91,,,-5.1,,20090,73.1,4.6,2.7
2018,12,20,07:00,UTC,,1029.1,92,,,-5.1,,21928,75.1,3.3,2.3
2018,12,20,08:00,UTC,,1029.5,92,,,-5.3,,23251,72.5,2.7,2.2
2018,12,20,09:00,UTC,,1029.7,92,,,-5.3,,21332,70,2.9,2.4
2018,12,20,10:00,UTC,,1029.3,91,,,-5.2,,13055,71.5,4.9,4
2018,12,20,11:00,UTC,,1029.1,91,,,-5.3,,18183,68.4,4.4,3.6
2018,12,20,12:00,UTC,,1028.8,90,,,-5.4,,18463,72.5,6.3,4.1
2018,12,20,13:00,UTC,,1028.8,90,,,-5.5,,27110,77.7,4.8,3.6
2018,12,20,14:00,UTC,,1028.9,90,,,-5.6,,29768,76.7,4.2,2.9
2018,12,20,15:00,UTC,,1029,90,,,-5.7,,28300,77.7,3.7,2.5
2018,12,20,16:00,UTC,,1028.9,91,,,-5.6,,13759,75.6,3.7,2.4
2018,12,20,17:00,UTC,,1028.6,90,,,-5.8,,28924,77.2,2.9,2.3
2018,12,20,18:00,UTC,,1028.4,90,,,-5.9,,50000,83.3,4.1,2.9
2018,12,20,19:00,UTC,,1028.4,89,,,-6.1,,50000,83.3,4.2,2.7
2018,12,20,20:00,UTC,,1028.6,88,,,-6.2,,50000,79.7,4.6,3.1
2018,12,20,21:00,UTC,,1028.4,88,,,-6.3,,28240,77.2,4.9,3.1
2018,12,20,22:00,UTC,,1028.2,88,,,-6.4,,50000,79.2,4.8,3.5
2018,12,20,23:00,UTC,,1027.8,84,,,-6.6,,50000,83.9,3.8,2.8
2018,12,21,00:00,UTC,,1027.6,83,,,-6.8,,50000,75.1,3.6,2.8
2018,12,21,01:00,UTC,,1027.4,82,,,-6.9,,50000,78.2,3.7,2.9
2018,12,21,02:00,UTC,,1027,79,,,-7,,50000,77.2,3.6,2.7
2018,12,21,03:00,UTC,,1026.8,71,,,-7.1,,44134,73.1,3.6,2.6
2018,12,21,04:00,UTC,,1026.5,77,,,-7.5,,50000,65.3,2.3,1.9
2018,12,21,05:00,UTC,,1025.8,77,,,-7.7,,44984,57.1,3.1,2.4
2018,12,21,06:00,UTC,,1025.4,78,,,-7.7,,50000,58.1,3.9,3
2018,12,21,07:00,UTC,,1025.1,77,,,-7.6,,45469,50.4,3.3,2.6
2018,12,21,08:00,UTC,,1024.7,84,,,-8.9,,50000,38.1,3.6,2.5
2018,12,21,09:00,UTC,,1024.2,83,,,-9.1,,50000,59.2,8.8,6.2
2018,12,21,10:00,UTC,,1023.6,84,,,-9.3,,13269,62.8,6.9,5.4
2018,12,21,11:00,UTC,,1023.2,86,,,-9.7,,9073,59.2,5.6,4.5
2018,12,21,12:00,UTC,,1022.6,86,,,-9.8,,11658,60.7,6,4.8
2018,12,21,13:00,UTC,,1022.3,84,,,-10.5,,7783,61.7,7,6.1
2018,12,21,14:00,UTC,,1022.1,81,,,-11.1,,50000,60.7,7.4,6
2018,12,21,15:00,UTC,,1021.9,83,,,-12.2,,50000,69.4,6.1,5
2018,12,21,16:00,UTC,,1021.4,84,,,-13.7,,50000,60.2,5.9,4.9
2018,12,21,17:00,UTC,,1020.8,84,,,-13.5,,50000,59.2,6.5,5.2
2018,12,21,18:00,UTC,,1020.3,84,,,-13.5,,31025,64.3,7.5,6
2018,12,21,19:00,UTC,,1019.7,84,,,-14.3,,50000,61.2,7.7,6
2018,12,21,20:00,UTC,,1019.4,83,,,-14.8,,50000,63.3,8.4,6.7
2018,12,21,21:00,UTC,,1019,83,,,-15.1,,29351,65.8,7.1,5.3
2018,12,21,22:00,UTC,,1018.7,83,,,-15.4,,39708,63.8,7.2,5.5
2018,12,21,23:00,UTC,,1018.3,84,,,-15.4,,29082,61.7,5.8,4.9
2018,12,22,00:00,UTC,,1018,84,,,-15.4,,26781,62.8,5.5,4.7
2018,12,22,01:00,UTC,,1017.8,84,,,-14.8,,20277,65.8,5.3,4.3
2018,12,22,02:00,UTC,,1017.5,82,,,-14.8,,50000,66.9,6.2,4.9
2018,12,22,03:00,UTC,,1017,83,,,-14.8,,49962,65.3,5.2,4.4
2018,12,22,04:00,UTC,,1016.5,84,,,-14.6,,45433,57.6,4.5,3.2
2018,12,22,05:00,UTC,,1016.2,84,,,-14,,50000,53.5,5.2,4
2018,12,22,06:00,UTC,,1016,84,,,-14,,50000,54,5.6,4.4
2018,12,22,07:00,UTC,,1016.1,81,,,-15,,50000,54,7,5.9
2018,12,22,08:00,UTC,,1016.1,81,,,-15.1,,19466,53.5,6.2,4
2018,12,22,09:00,UTC,,1016.3,81,,,-15.3,,50000,53.5,5,3.7
2018,12,22,10:00,UTC,,1015.9,81,,,-15.4,,36944,58.1,5.8,4.4
2018,12,22,11:00,UTC,,1015.5,81,,,-15.2,,50000,62.8,6.4,5
2018,12,22,12:00,UTC,,1015.2,82,,,-15.7,,46041,60.7,4.7,3.8
2018,12,22,13:00,UTC,,1015,84,,,-16.6,,50000,58.1,2.6,2.2
2018,12,22,14:00,UTC,,1014.9,87,,,-16.7,,47830,37,3,2.1
2018,12,22,15:00,UTC,,1015,86,,,-17.1,,50000,32.4,1.8,1.4
2018,12,22,16:00,UTC,,1014.9,85,,,-17.4,,40542,33.4,2.2,1.4
2018,12,22,17:00,UTC,,1014.8,83,,,-17.6,,50000,49.4,4,3.2
2018,12,22,18:00,UTC,,1014.6,82,,,-18,,50000,47.8,3.4,2.6
2018,12,22,19:00,UTC,,1014.5,82,,,-18.6,,50000,49.9,3.6,2.8
2018,12,22,20:00,UTC,,1014.3,82,,,-19.4,,50000,39.1,2.4,1.6
2018,12,22,21:00,UTC,,1014.1,82,,,-20,,50000,47.3,3,2.3
2018,12,22,22:00,UTC,,1013.9,82,,,-20.5,,50000,29.3,2.3,1.2
2018,12,22,23:00,UTC,,1013.6,82,,,-20.7,,50000,42.7,2.4,1.9
2018,12,23,00:00,UTC,,1013.5,82,,,-21,,50000,24.7,1.8,1.1
2018,12,23,01:00,UTC,,1013.5,83,,,-20.9,,28609,35.5,1.2,0.8
2018,12,23,02:00,UTC,,1013.2,82,,,-20.9,,50000,25.2,1.4,1.1
2018,12,23,03:00,UTC,,1013,83,,,-20.6,,50000,27.8,1.1,0.7
2018,12,23,04:00,UTC,,1012.9,82,,,-20,,50000,38.1,1.4,0.9
2018,12,23,05:00,UTC,,1012.7,83,,,-18.9,,16069,24.7,1.2,0.9
2018,12,23,06:00,UTC,,1012.4,84,,,-17.7,,27968,183.7,0.9,0.5
2018,12,23,07:00,UTC,,1012.5,83,,,-17.3,,21109,55.6,0.9,0.6
2018,12,23,08:00,UTC,,1012.6,84,,,-16.9,,10098,172.3,0.9,0.6
2018,12,23,09:00,UTC,,1012.7,86,,,-16.6,,4052,46.8,0.8,0.6
2018,12,23,10:00,UTC,,1012.4,85,,,-18.9,,10371,171.3,0.4,0.3
2018,12,23,11:00,UTC,,1012.2,85,,,-19.1,,50000,119.9,1,0.6
2018,12,23,12:00,UTC,,1011.9,84,,,-19.5,,8243,54,0.6,0.4
2018,12,23,13:00,UTC,,1011.9,83,,,-20.4,,50000,54,0.7,0.4
2018,12,23,14:00,UTC,,1011.8,83,,,-20.7,,50000,67.9,0.9,0.5
2018,12,23,15:00,UTC,,1011.4,83,,,-20.9,,8779,66.9,1.2,0.8
2018,12,23,16:00,UTC,,1011.4,83,,,-20.7,,50000,80.8,1.6,1.1
2018,12,23,17:00,UTC,,1011.3,84,,,-21,,50000,59.7,1.7,1.5
2018,12,23,18:00,UTC,,1011.2,86,,,-19,,50000,66.9,2.7,2.3
2018,12,23,19:00,UTC,,1011,86,,,-17.7,,37712,70.5,4,3.3
2018,12,23,20:00,UTC,,1010.7,86,,,-16.7,,28563,69.4,4.3,3.1
2018,12,23,21:00,UTC,,1010.5,86,,,-16,,26856,68.9,4.4,3.5
2018,12,23,22:00,UTC,,1010.3,87,,,-14.8,,44969,67.9,4.5,3.9
2018,12,23,23:00,UTC,,1010.1,88,,,-14,,50000,64.3,3.5,2.7
2018,12,24,00:00,UTC,,1009.8,88,,,-13.3,,50000,64.3,4.4,3.8
2018,12,24,01:00,UTC,,1009.9,88,,,-12.6,,50000,83.9,4.7,3.5
2018,12,24,02:00,UTC,,1009.8,89,,,-12,,50000,74.6,5.2,4.2
2018,12,24,03:00,UTC,,1009.4,88,,,-11.5,,50000,74.6,6.5,5.5
2018,12,24,04:00,UTC,,1009,89,,,-11.3,,28735,70,6,5
2018,12,24,05:00,UTC,,1008.8,88,,,-11.3,,50000,72.5,5.5,4.3
2018,12,24,06:00,UTC,,1008.6,88,,,-11,,50000,75.1,5.8,4.3
2018,12,24,07:00,UTC,,1008.3,89,,,-10.8,,50000,66.9,5.5,4.6
2018,12,24,08:00,UTC,,1008,92,,,-10.4,,15033,69.4,6.1,4.9
2018,12,24,09:00,UTC,,1007.6,93,,,-9.8,,8169,73.1,6.3,5.2
2018,12,24,10:00,UTC,,1006.9,94,,,-8.7,,3443,72.5,7.2,5.4
2018,12,24,11:00,UTC,,1006.5,94,,,-8.2,,3534,72.5,6.6,5.3
2018,12,24,12:00,UTC,,1006.2,94,,,-7.4,,2461,75.6,6,4.7
2018,12,24,13:00,UTC,,1005.6,95,,,-6.5,,9509,78.2,7.2,4.5
2018,12,24,14:00,UTC,,1005.1,95,,,-6,,12253,78.2,6.8,5
2018,12,24,15:00,UTC,,1004.9,96,,,-4.8,,15264,84.4,5.7,4.1
2018,12,24,16:00,UTC,,1004.1,97,,,-4.3,,14267,84.9,5.6,4.1
2018,12,24,17:00,UTC,,1003.6,97,,,-3.9,,45413,82.8,5.2,3.9
2018,12,24,18:00,UTC,,1003.3,98,,,-3.2,,11869,87.5,4.6,3.2
2018,12,24,19:00,UTC,,1003.3,99,,,-1.8,,50000,104.4,4.9,3.5
2018,12,24,20:00,UTC,,1002.9,99,,,-1.3,,50000,106,5.5,3.7
2018,12,24,21:00,UTC,,1002.4,99,,,-1.4,,50000,109.1,5.5,3.4
2018,12,24,22:00,UTC,,1001.8,98,,,-1.2,,50000,104.9,6.8,4
2018,12,24,23:00,UTC,,1001.6,98,,,-1.2,,50000,105.5,4.7,3.3
2018,12,25,00:00,UTC,,1001.1,97,,,-1,,49432,103.4,4.5,3.3
2018,12,25,01:00,UTC,,1000.4,95,,,-0.9,,50000,102.9,5.2,3.8
2018,12,25,02:00,UTC,,999.6,95,,,-0.7,,50000,98.8,4.7,3.4
2018,12,25,03:00,UTC,,998.8,96,,,-0.4,,16076,95.2,5.4,3.8
2018,12,25,04:00,UTC,,997.5,98,,,-1.1,,9910,81.8,6,4.3
2018,12,25,05:00,UTC,,996.8,98,,,-1.4,,15681,84.9,6.4,4.4
2018,12,25,06:00,UTC,,996,97,,,-1.3,,46438,87.5,6.4,4.6
2018,12,25,07:00,UTC,,995,95,,,-1,,50000,90.5,6,4.2
2018,12,25,08:00,UTC,,994.3,95,,,-1.1,,50000,90,6.6,4.2
2018,12,25,09:00,UTC,,993.1,97,,,-1.3,,7631,91.6,7.1,5
2018,12,25,10:00,UTC,,991.8,97,,,-1.5,,3100,88.5,7.4,5
2018,12,25,11:00,UTC,,990.7,97,,,-1.4,,2501,96.2,6,4.5
2018,12,25,12:00,UTC,,989.8,98,,,-0.8,,50000,103.4,4.8,3.3
2018,12,25,13:00,UTC,,989.3,97,,,-1.2,,50000,126.6,4.5,3.2
2018,12,25,14:00,UTC,,989.1,92,,,-1.1,,49355,130.7,5.7,3.9
2018,12,25,15:00,UTC,,989,96,,,-2.5,,50000,128.6,3.5,2.7
2018,12,25,16:00,UTC,,989,97,,,-2.2,,47722,127.1,3.3,2.7
2018,12,25,17:00,UTC,,989.2,98,,,-3.4,,35263,112.1,2.5,1.7
2018,12,25,18:00,UTC,,989.4,98,,,-3.8,,48280,139.9,3.1,2.6
2018,12,25,19:00,UTC,,989.9,97,,,-3.8,,50000,148.2,3.6,3
2018,12,25,20:00,UTC,,990.3,97,,,-4.4,,50000,141,4.2,3.2
2018,12,25,21:00,UTC,,991.2,98,,,-5.2,,50000,140.4,3.4,2.8
2018,12,25,22:00,UTC,,991.6,97,,,-4.6,,50000,161,5.2,3.4
2018,12,25,23:00,UTC,,992.4,97,,,-5.3,,50000,155.4,4.7,3.5
2018,12,26,00:00,UTC,,992.9,94,,,-4.4,,50000,160.5,5.2,4.2
2018,12,26,01:00,UTC,,993.8,92,,,-4.1,,50000,165.7,6,4.3
2018,12,26,02:00,UTC,,994.9,92,,,-6,,50000,168.2,4.4,2.9
2018,12,26,03:00,UTC,,995.9,93,,,-7.1,,50000,168.7,4.6,3.1
2018,12,26,04:00,UTC,,997.1,94,,,-6.8,,50000,169.3,5.1,3.4
2018,12,26,05:00,UTC,,998.2,93,,,-7.1,,50000,170.8,6.6,4.2
2018,12,26,06:00,UTC,,999.2,94,,,-6,,50000,169.3,6.7,3.9
2018,12,26,07:00,UTC,,1000.4,93,,,-7,,50000,162.6,4.1,2.8
2018,12,26,08:00,UTC,,1001.8,94,,,-7.4,,50000,165.7,5.2,3.8
2018,12,26,09:00,UTC,,1002.7,93,,,-7.9,,50000,166.7,4.3,3
2018,12,26,10:00,UTC,,1003.4,94,,,-8.9,,50000,141,2.4,2
2018,12,26,11:00,UTC,,1003.8,95,,,-9.5,,50000,154.3,1.2,0.9
2018,12,26,12:00,UTC,,1004.4,91,,,-11.9,,50000,47.8,0.4,0.4
2018,12,26,13:00,UTC,,1004.3,91,,,-12.7,,50000,64.3,1.9,1.2
2018,12,26,14:00,UTC,,1004.8,91,,,-12.5,,50000,73.1,1.1,0.9
2018,12,26,15:00,UTC,,1005.4,90,,,-13.2,,50000,73.6,1.5,1.1
2018,12,26,16:00,UTC,,1005.2,91,,,-12.7,,50000,63.3,2,1.7
2018,12,26,17:00,UTC,,1005.5,91,,,-12.4,,50000,71,3.3,2.9
2018,12,26,18:00,UTC,,1005.5,92,,,-11.1,,27891,63.8,3.2,2.6
2018,12,26,19:00,UTC,,1005.6,93,,,-9.3,,7816,65.8,3.7,2.9
2018,12,26,20:00,UTC,,1005.5,93,,,-8.5,,43791,60.2,3.7,3.3
2018,12,26,21:00,UTC,,1005.5,94,,,-7.4,,3083,67.9,3.1,2.5
2018,12,26,22:00,UTC,,1005.1,95,,,-6.7,,12145,64.8,3.5,3
2018,12,26,23:00,UTC,,1004.9,96,,,-5.9,,8804,64.3,3.9,3.3
2018,12,27,00:00,UTC,,1004.7,97,,,-4.6,,15726,73.6,4.3,3.4
2018,12,27,01:00,UTC,,1004.5,97,,,-4.3,,20801,76.7,4.3,3.1
2018,12,27,02:00,UTC,,1004.1,97,,,-4.1,,15298,76.1,4.2,3.3
2018,12,27,03:00,UTC,,1003.8,97,,,-3.9,,23757,74.6,3.4,2.7
2018,12,27,04:00,UTC,,1003.4,97,,,-3.8,,27615,71,3.4,2.9
2018,12,27,05:00,UTC,,1003.2,98,,,-3.2,,20847,80.3,3.5,2.8
2018,12,27,06:00,UTC,,1003.1,98,,,-2.8,,15561,82.3,2.3,1.8
2018,12,27,07:00,UTC,,1002.9,99,,,-2.2,,19212,83.3,4.9,1.9
2018,12,27,08:00,UTC,,1002.9,99,,,-2,,14310,83.3,3.4,2.7
2018,12,27,09:00,UTC,,1002.5,99,,,-2.1,,12920,81.3,3.7,2.9
2018,12,27,10:00,UTC,,1002.1,99,,,-1.7,,7769,86.9,2.7,2.1
2018,12,27,11:00,UTC,,1001.6,100,,,-0.8,,5514,91.6,4.3,3.1
2018,12,27,12:00,UTC,,1001.6,100,,,-0.9,,5117,85.9,4.3,2.8
2018,12,27,13:00,UTC,,1001.3,100,,,-1,,5068,83.3,4.6,3.3
2018,12,27,14:00,UTC,,1001,100,,,-1.1,,15996,83.3,5.7,3.8
2018,12,27,15:00,UTC,,1000.6,100,,,-1.3,,14179,88,5.4,4
2018,12,27,16:00,UTC,,1000.5,100,,,-1.4,,50000,81.8,4.6,3.1
2018,12,27,17:00,UTC,,1000.7,100,,,-1.5,,50000,75.1,3.5,2.8
2018,12,27,18:00,UTC,,1000.6,99,,,-1.6,,21474,66.4,4,3.4
2018,12,27,19:00,UTC,,1000.8,99,,,-1.6,,12268,70,3.5,2.9
2018,12,27,20:00,UTC,,1000.9,100,,,-1.5,,20097,68.4,4.4,3.7
2018,12,27,21:00,UTC,,1000.9,100,,,-1.2,,11042,75.6,4.5,3.5
2018,12,27,22:00,UTC,,1000.8,100,,,-1,,8672,72.5,4.1,3.2
2018,12,27,23:00,UTC,,1000.9,100,,,-0.7,,6370,77.7,3.6,3
2018,12,28,00:00,UTC,,1001.2,100,,,-0.4,,2556,75.6,3,2.3
2018,12,28,01:00,UTC,,1001.6,100,,,-0.2,,2275,80.8,2.6,1.7
2018,12,28,02:00,UTC,,1001.8,100,,,0.1,,3535,103.4,2.9,1.9
2018,12,28,03:00,UTC,,1002.4,100,,,-1.4,,2638,138.9,5,3.6
2018,12,28,04:00,UTC,,1002.9,100,,,-1.6,,2579,139.9,4.1,2.8
2018,12,28,05:00,UTC,,1003.4,100,,,-1.7,,3674,151.2,2.8,2.2
2018,12,28,06:00,UTC,,1004,100,,,-1.8,,4867,128.1,2.9,2.2
2018,12,28,07:00,UTC,,1004.8,99,,,-2,,4245,146.6,3.3,2.6
2018,12,28,08:00,UTC,,1005.6,99,,,-2.3,,1172,153.8,3.9,3
2018,12,28,09:00,UTC,,1006.3,99,,,-2.6,,2366,141.5,4,3.3
2018,12,28,10:00,UTC,,1006.4,99,,,-2.5,,862,131.2,2.2,1.5
2018,12,28,11:00,UTC,,1007.1,99,,,-2.7,,1194,146.6,4.2,3.2
2018,12,28,12:00,UTC,,1007.6,99,,,-2.7,,1374,132.7,3.2,2.5
2018,12,28,13:00,UTC,,1008,99,,,-2.9,,3307,133.2,3,1.7
2018,12,28,14:00,UTC,,1008.6,98,,,-3.2,,8815,128.1,3,2.2
2018,12,28,15:00,UTC,,1009,98,,,-3.3,,8576,142,2.4,1.9
2018,12,28,16:00,UTC,,1009.1,98,,,-3.3,,8676,120.4,2.5,1.3
2018,12,28,17:00,UTC,,1009.4,99,,,-2.9,,14758,117.3,2.7,1.9
2018,12,28,18:00,UTC,,1009.1,99,,,-2.6,,11939,112.7,3.1,1.9
2018,12,28,19:00,UTC,,1009.2,99,,,-2.4,,3579,121.9,3.2,1.8
2018,12,28,20:00,UTC,,1009,99,,,-2,,36381,109.6,3.7,2.4
2018,12,28,21:00,UTC,,1008.8,99,,,-1.7,,49240,115.7,3.9,1.9
2018,12,28,22:00,UTC,,1008.3,100,,,-1.2,,50000,109.6,4.5,2.8
2018,12,28,23:00,UTC,,1007.8,100,,,-1.1,,50000,107,4.9,3.3
2018,12,29,00:00,UTC,,1007.3,100,,,-1.1,,14121,92.6,4.4,3.3
2018,12,29,01:00,UTC,,1006.4,100,,,-1.6,,13401,91.6,6,4.1
2018,12,29,02:00,UTC,,1005.7,100,,,-1.7,,40089,85.9,5.6,4.1
2018,12,29,03:00,UTC,,1005,99,,,-2.1,,44704,86.4,6.6,5
2018,12,29,04:00,UTC,,1003.8,99,,,-2.8,,50000,82.8,6.5,4.7
2018,12,29,05:00,UTC,,1002.7,98,,,-2.6,,50000,85.9,6.2,4.7
2018,12,29,06:00,UTC,,1001.7,98,,,-2.5,,50000,89,7.1,4.9
2018,12,29,07:00,UTC,,1000.8,99,,,-1.9,,50000,90,5.8,3.9
2018,12,29,08:00,UTC,,999.9,99,,,-1,,12763,96.2,6.7,4.4
2018,12,29,09:00,UTC,,998.8,99,,,-0.2,,4683,99.3,8.5,5.8
2018,12,29,10:00,UTC,,998.3,100,,,0,,7582,105.5,8,5.5
2018,12,29,11:00,UTC,,997.9,100,,,0.2,,50000,110.1,7.3,4.8
2018,12,29,12:00,UTC,,997.6,99,,,0.8,,50000,113.7,8,5.1
2018,12,29,13:00,UTC,,997.5,99,,,0.7,,50000,118.3,7,4.9
2018,12,29,14:00,UTC,,997.5,93,,,1,,50000,118.8,8.7,6
2018,12,29,15:00,UTC,,997.5,91,,,1,,50000,121.4,7.6,5.2
2018,12,29,16:00,UTC,,997.7,88,,,1.3,,50000,126,8.5,5.9
2018,12,29,17:00,UTC,,997.9,85,,,1.4,,50000,130.7,10.5,6.8
2018,12,29,18:00,UTC,,998,84,,,1.2,,50000,131.7,11.5,7.2
2018,12,29,19:00,UTC,,998.2,87,,,0.5,,50000,132.7,9.5,6.7
2018,12,29,20:00,UTC,,998.4,87,,,0,,50000,135.3,9.3,7
2018,12,29,21:00,UTC,,998.9,81,,,0.6,,50000,141.5,8.4,5.9
2018,12,29,22:00,UTC,,999.3,80,,,0.7,,50000,152.8,9.3,6.2
2018,12,29,23:00,UTC,,1000.7,82,,,0.2,,50000,155.4,7.1,4.4
2018,12,30,00:00,UTC,,1001.8,86,,,-0.7,,50000,136.3,4.3,2.9
2018,12,30,01:00,UTC,,1002.8,88,,,-1.6,,50000,160,4.8,3.5
2018,12,30,02:00,UTC,,1003.8,89,,,-2.2,,50000,162.6,6.3,4.5
2018,12,30,03:00,UTC,,1004.9,89,,,-3,,50000,162,5.6,4.1
2018,12,30,04:00,UTC,,1006,90,,,-3.2,,50000,165.7,4.9,3.4
2018,12,30,05:00,UTC,,1007,92,,,-4.2,,50000,165.1,4.7,3.1
2018,12,30,06:00,UTC,,1007.9,93,,,-5,,50000,170.3,4.6,3.2
2018,12,30,07:00,UTC,,1008.9,93,,,-5.7,,50000,170.8,3.7,2.6
2018,12,30,08:00,UTC,,1009.8,95,,,-7.4,,50000,178,2,1.1
2018,12,30,09:00,UTC,,1010.9,95,,,-7.5,,50000,181.1,2,1.2
2018,12,30,10:00,UTC,,1011.7,91,,,-9.8,,50000,167.2,2.3,1.7
2018,12,30,11:00,UTC,,1012.5,95,,,-8.4,,50000,172.3,1.6,1
2018,12,30,12:00,UTC,,1013.5,92,,,-10.6,,50000,157.9,1.7,1.4
2018,12,30,13:00,UTC,,1014.4,95,,,-12.3,,50000,142.5,2.3,1.7
2018,12,30,14:00,UTC,,1015.3,91,,,-13.7,,50000,140.4,2.5,2.1
2018,12,30,15:00,UTC,,1015.9,91,,,-13.7,,50000,159,1.2,0.6
2018,12,30,16:00,UTC,,1015.8,92,,,-13,,50000,76.1,1.6,1.2
2018,12,30,17:00,UTC,,1016.4,90,,,-14.6,,6013,93.1,1.3,0.8
2018,12,30,18:00,UTC,,1016.6,90,,,-14,,50000,79.2,2.3,1.5
2018,12,30,19:00,UTC,,1016.4,90,,,-12.1,,50000,95.2,3.9,2.9
2018,12,30,20:00,UTC,,1016.7,88,,,-15.8,,50000,72.5,2.5,1.9
2018,12,30,21:00,UTC,,1016.4,88,,,-15.2,,50000,74.1,3.1,2.7
2018,12,30,22:00,UTC,,1016.2,91,,,-11.4,,50000,94.7,3.6,2.8
2018,12,30,23:00,UTC,,1016,93,,,-8.9,,50000,101.9,4.2,3.2
2018,12,31,00:00,UTC,,1015.7,94,,,-7.8,,50000,103.9,4.3,3.2
2018,12,31,01:00,UTC,,1015.5,95,,,-5.8,,50000,115.7,5.1,3.9
2018,12,31,02:00,UTC,,1015.1,95,,,-6,,50000,104.9,4.7,3.5
2018,12,31,03:00,UTC,,1015,95,,,-6.3,,50000,103.9,3.9,3
2018,12,31,04:00,UTC,,1014.7,95,,,-4.9,,50000,113.7,3.9,2.9
2018,12,31,05:00,UTC,,1014.6,95,,,-5.3,,50000,104.9,3.7,2.7
2018,12,31,06:00,UTC,,1014.3,95,,,-6.1,,50000,100.8,4.3,3.2
2018,12,31,07:00,UTC,,1014.2,95,,,-5.3,,50000,105.5,6.1,4.7
2018,12,31,08:00,UTC,,1013.8,95,,,-3.8,,50000,109.1,6.3,4.2
2018,12,31,09:00,UTC,,1013.4,95,,,-3.3,,50000,108,7.3,4.9
2018,12,31,10:00,UTC,,1012.3,93,,,-3.7,,50000,100.3,8.3,5.8
2018,12,31,11:00,UTC,,1010.5,92,,,-5.4,,50000,85.4,5.7,4
2018,12,31,12:00,UTC,,1008.8,91,,,-5.6,,50000,77.7,5.2,4
2018,12,31,13:00,UTC,,1006.4,83,,,-4.5,,50000,85.9,6.7,4.2
2018,12,31,14:00,UTC,,1004.2,76,,,-3.8,,50000,90,8.6,5.7
2018,12,31,15:00,UTC,,1001.9,72,,,-3.2,,47202,94.7,11.7,7.5
2018,12,31,16:00,UTC,,999,90,,,-3.7,,5113,89.5,13.5,8.4
2018,12,31,17:00,UTC,,995.9,92,,,-4,,4811,84.4,13.2,8.3
2018,12,31,18:00,UTC,,993.8,93,,,-4.1,,4768,84.4,11.5,8.2
2018,12,31,19:00,UTC,,991.4,94,,,-3.8,,4165,83.3,10.6,7.8
2018,12,31,20:00,UTC,,989.5,95,,,-3.2,,4666,85.4,9.9,6.5
2018,12,31,21:00,UTC,,987.5,96,,,-2.2,,5970,87.5,9.9,6.2
2018,12,31,22:00,UTC,,986.1,97,,,-1.5,,5735,89,7.1,5.2
2018,12,31,23:00,UTC,,984.9,97,,,-0.9,,9233,89,7.2,5
2019,1,1,00:00,UTC,,983.8,98,,,-0.3,,6875,91.6,6.8,4.4